{"type":"FeatureCollection","features":[{"type":"Feature","properties":{"name":"Baja California","cartodb_id":6,"created_at":"2013-12-01T18:59:38+0100","updated_at":"2013-12-01T18:59:38+0100"},"geometry":{"type":"MultiPolygon","coordinates":[[[[-114.80989619792396,32.492112286685725],[-114.81709634192684,32.48195683349665],[-114.9394987899758,32.47857168243364],[-114.96109922198444,32.34655079097581],[-115.04750095001901,32.24161110802214],[-114.95389907798156,32.03850204424087],[-114.96829936598732,31.92002175703513],[-114.8314966299326,31.84216328258563],[-114.82429648592972,31.82862267833356],[-114.80989619792396,31.815082074081474],[-114.78829576591532,31.67629088049759],[-114.88189763795276,31.385167889077763],[-114.88909778195564,31.12789640828815],[-114.82429648592972,30.985720063641253],[-114.71629432588652,30.93494279769594],[-114.69469389387788,30.620123748834956],[-114.6514930298606,30.559191029700585],[-114.63709274185484,30.342541361667216],[-114.66589331786636,30.183439261705217],[-114.5434908698174,29.97694504686092],[-114.40668813376269,29.882160817096334],[-114.39228784575693,29.780606285205693],[-114.24108482169645,29.76368052989058],[-113.90267805356108,29.49286844484888],[-113.77307546150924,29.411624819336367],[-113.62907258145164,29.255907870437397],[-113.65787315746316,29.20513060449207],[-113.5354707094142,29.056183957719142],[-113.56427128542572,29.0020215407108],[-113.37706754135084,28.91062246200923],[-113.36986739734796,28.8259936854337],[-113.19706394127883,28.7955273258665],[-113.11066221324427,28.51117463657272],[-112.89465789315787,28.47393797487949],[-112.87305746114923,28.27759921322425],[-112.80825616512331,28.216666494089864],[-112.77945558911179,28.00001682605651],[-114.20508410168205,28.00001682605651],[-114.06828136562731,28.189585285585693],[-114.11868237364747,28.274214062161235],[-114.04668093361867,28.440086464249276],[-114.17628352567053,28.653350981219617],[-114.26988539770797,28.69397279397586],[-114.41388827776557,28.88015610244203],[-114.60109202184044,28.978325483269657],[-114.9754995099902,29.381158459769182],[-115.19150383007661,29.42855057465148],[-115.24190483809677,29.509794200163995],[-115.54431088621773,29.645200242684837],[-115.69551391027821,29.750139925638493],[-115.70991419828397,29.916012327726534],[-115.80351607032141,29.96001929154582],[-115.79631592631853,30.268068038280745],[-115.83951679033581,30.34931166379326],[-115.9907198143963,30.389933476549515],[-116.04832096641934,30.47117710206203],[-116.04832096641934,30.779225848796955],[-116.33632672653454,31.00603097001938],[-116.30752615052302,31.158362767855337],[-116.53073061461231,31.442715457149134],[-116.68913378267567,31.551040291165805],[-116.60993219864397,31.838778131522616],[-116.76113522270447,31.96741387191743],[-116.88353767075341,32.01819113786274],[-116.93393867877359,32.24161110802214],[-117.02754055081103,32.26869231652631],[-117.12114242284846,32.46503107818155],[-117.09234184683694,32.536119250504996],[-116.09152183043662,32.62074802708052],[-114.71629432588652,32.71891740790814],[-114.80989619792396,32.492112286685725]]],[[[-113.55707114142284,29.536875408668166],[-113.43466869337388,29.506409049100967],[-113.3554671093422,29.408239668273353],[-113.36266725334508,29.30668513638271],[-113.16826336526731,29.286374230004583],[-113.17546350927019,29.12050182791654],[-113.26186523730475,29.106961223664456],[-113.4994699893998,29.28975938106761],[-113.59307186143724,29.455631783155653],[-113.55707114142284,29.536875408668166]]]]}},{"type":"Feature","properties":{"name":"Sonora","cartodb_id":7,"created_at":"2013-12-01T18:59:38+0100","updated_at":"2013-12-01T18:59:38+0100"},"geometry":{"type":"MultiPolygon","coordinates":[[[[-112.27544550891018,29.20513060449207],[-112.20344406888138,29.035873051341014],[-112.31144622892458,28.754905513110245],[-112.46984939698795,28.805682779055573],[-112.50585011700235,29.04602850453007],[-112.4554491089822,29.198360302366027],[-112.27544550891018,29.20513060449207]]],[[[-114.80989619792396,31.815082074081474],[-114.82429648592972,31.82862267833356],[-114.8314966299326,31.84216328258563],[-114.96829936598732,31.92002175703513],[-114.95389907798156,32.03850204424087],[-115.04750095001901,32.24161110802214],[-114.96109922198444,32.34655079097581],[-114.9394987899758,32.47857168243364],[-114.81709634192684,32.48195683349665],[-114.80989619792396,32.492112286685725],[-114.09708194163883,32.275462618652355],[-112.86585731714635,31.89294054853096],[-112.11704234084682,31.666135427308532],[-111.07302146042922,31.33100547206942],[-109.57539150783016,31.33439062313245],[-108.75457509150183,31.33100547206942],[-108.84817696353927,31.134666710414194],[-108.804976099522,30.904476438128754],[-108.94177883557671,30.907861589191768],[-108.8769775395508,30.623508899897985],[-108.6609732194644,30.521954368007343],[-108.61777235544712,30.298534397847945],[-108.61057221144424,29.797532040520792],[-108.65377307546152,29.712903263945265],[-108.63937278745576,29.55718631504628],[-108.70417408348167,29.408239668273353],[-108.66817336346728,29.30668513638271],[-108.74737494749895,29.181434547050927],[-108.68977379547592,28.876770951379015],[-108.58177163543272,28.74136490885816],[-108.48816976339528,28.375768594051863],[-108.5529710594212,28.318221025980506],[-108.75457509150183,28.270828911098207],[-108.99937998759977,28.26067345790915],[-109.07138142762857,28.128652566451322],[-109.03538070761417,28.01694258137161],[-108.92737854757095,27.939084106922124],[-108.92017840356807,27.78336715802314],[-108.7689753795076,27.705508683573655],[-108.65377307546152,27.54302143254864],[-108.5889717794356,27.31960146238923],[-108.6609732194644,27.23835783687673],[-108.57457149142984,27.011552715654304],[-108.50257005140104,26.987856658213147],[-108.46656933138664,26.970930902898047],[-108.63217264345288,26.676422760415193],[-108.86977739554791,26.551172171083408],[-108.8409768195364,26.473313696633923],[-109.0929818596372,26.31759674773494],[-109.25858517170344,26.320981898797967],[-109.28738574771496,26.54101671789435],[-109.40978819576392,26.659497005100093],[-109.76979539590792,26.710274271045407],[-109.84179683593673,26.774592141242806],[-109.95699913998281,27.048789377347532],[-110.33140662813257,27.170654815616302],[-110.43940878817577,27.27220934750693],[-110.605012100242,27.31960146238923],[-110.59061181223625,27.53286597935957],[-110.61941238824777,27.81044836652731],[-110.58341166823337,27.88492168991378],[-110.81381627632554,27.918773200543995],[-110.95061901238026,27.86799593459868],[-111.27462549250986,28.077875300505994],[-111.46182923658473,28.36899829192582],[-111.71383427668555,28.457012219564376],[-111.7642352847057,28.595803413148246],[-111.92263845276906,28.717668851417017],[-111.91543830876618,28.78875702374046],[-112.10984219684394,28.961399727954543],[-112.22504450089002,29.184819698113955],[-112.24664493289866,29.323610891697825],[-112.41224824496491,29.343921798075954],[-112.3762475249505,29.459016934218667],[-112.57785155703115,29.706132961819222],[-112.67145342906859,29.899086572411434],[-112.74345486909739,29.922782629852577],[-112.75785515710315,30.203750168083346],[-112.85145702914059,30.274838340406788],[-112.87305746114923,30.433940440368787],[-113.08906178123563,30.68105646796934],[-113.12506250125003,30.81984766155321],[-113.06026120522411,31.080504293405852],[-113.09626192523851,31.182058825296494],[-113.60027200544012,31.327620321006407],[-113.63627272545452,31.47656696777935],[-113.85227704554092,31.59504725498509],[-113.97467949358987,31.61197301030019],[-114.02508050161003,31.493492723094448],[-114.15468309366189,31.493492723094448],[-114.48588971779436,31.672905729434575],[-114.56509130182604,31.743993901758017],[-114.80989619792396,31.815082074081474]]]]}},{"type":"Feature","properties":{"name":"Baja California Sur","cartodb_id":8,"created_at":"2013-12-01T18:59:38+0100","updated_at":"2013-12-01T18:59:38+0100"},"geometry":{"type":"Polygon","coordinates":[[[-114.20508410168205,28.00001682605651],[-112.76505530110603,28.00001682605651],[-112.77225544510891,27.85784048140961],[-112.70025400508011,27.74613049632991],[-112.36904738094762,27.56333233892677],[-112.3042460849217,27.380534181523615],[-112.1602432048641,27.16049936242723],[-111.99463989279786,27.09618149222983],[-112.0162403248065,26.970930902898047],[-111.90103802076042,26.852450615692305],[-111.81463629272587,26.893072428448562],[-111.56983139662795,26.706889119982392],[-111.56983139662795,26.561327624272465],[-111.46182923658473,26.527476113642265],[-111.46902938058761,26.40899582643651],[-111.31782635652714,26.06371041800834],[-111.35382707654153,25.97231133930677],[-111.31062621252426,25.779357728714558],[-111.1162223244465,25.52547139898796],[-111.02262045240906,25.505160492609832],[-110.94341886837738,25.234348407568135],[-110.8282165643313,25.04477994803895],[-110.76341526830538,25.01769873953478],[-110.66261325226505,24.817974826816524],[-110.74181483629674,24.62502121622431],[-110.6770135402708,24.34743882905657],[-110.57621152423049,24.222188239724787],[-110.37460749214985,24.17141097377946],[-110.30260605212105,24.350823980119586],[-110.01460029200585,24.17141097377946],[-109.98579971599433,24.04277523338466],[-109.83459669193385,24.056315837636745],[-109.83459669193385,23.91752464405286],[-109.69779395587912,23.79904435684712],[-109.69779395587912,23.66025316326325],[-109.51779035580712,23.56885408456168],[-109.42418848376968,23.45375894841895],[-109.4529890597812,23.199872618692368],[-109.53219064381288,23.11185869105381],[-109.704994099882,23.040770518730355],[-109.84179683593673,22.901979325146485],[-110.02180043600873,22.905364476209513],[-110.10100202004041,23.017074461289212],[-110.16580331606633,23.31835290589811],[-110.31700634012681,23.55192832924658],[-110.61941238824777,23.711030429208577],[-111.0082201644033,24.083397046140902],[-111.34662693253865,24.283120958859158],[-111.57703154063083,24.3677497354347],[-111.70663413268267,24.3203576205524],[-111.93703874077482,24.482844871577413],[-112.10264205284106,24.557318194963884],[-112.13864277285546,24.729960899177968],[-112.28264565291306,24.817974826816524],[-112.18184363687274,25.078631458669165],[-112.10264205284106,25.430687169223376],[-112.10264205284106,25.775972577651544],[-112.1962439248785,25.999392547810942],[-112.29704594091882,26.0569401158823],[-112.34744694893898,26.18557585627711],[-112.49864997299947,26.23296797115941],[-112.82265645312907,26.429306732814638],[-113.3554671093422,26.794903047620934],[-113.51387027740556,26.79151789655792],[-113.57867157343148,26.706889119982392],[-113.72987459749196,26.801673349746977],[-113.79467589351788,26.93030909014179],[-114.02508050161003,26.991241809276175],[-114.11868237364747,27.109722096481917],[-114.30588611772237,27.140188456049103],[-114.48588971779436,27.224817232624645],[-114.52189043780876,27.427926296405914],[-114.7594951899038,27.546406583611656],[-114.78109562191244,27.60056900062],[-115.02590051801037,27.73936019420387],[-114.92509850197004,27.834144423968468],[-114.50029000580012,27.773211704834083],[-114.32028640572813,27.874766236724724],[-114.20508410168205,28.00001682605651]]]}},{"type":"Feature","properties":{"name":"Zacatecas","cartodb_id":9,"created_at":"2013-12-01T18:59:38+0100","updated_at":"2013-12-01T18:59:38+0100"},"geometry":{"type":"Polygon","coordinates":[[[-103.6784735694714,21.554689202064026],[-103.59207184143683,21.558074353127054],[-103.41926838536772,21.899974610492194],[-103.28966579331588,21.97783308494168],[-103.18886377727556,21.971062782815636],[-103.102462049241,22.143705487029735],[-103.102462049241,22.14709063809275],[-103.05926118522372,22.22156396147922],[-103.18166363327268,22.390821514630275],[-103.36886737734756,22.35019970187402],[-103.38326766535332,22.228334263605262],[-103.462469249385,22.106468825336492],[-103.66407328146563,22.157246091281806],[-103.59927198543971,22.26895607636152],[-103.6064721294426,22.560079067781345],[-103.77207544150883,22.556693916718316],[-103.88727774555493,22.38743636356726],[-103.88727774555493,22.390821514630275],[-103.8584771695434,22.57361967203343],[-103.76487529750595,22.6176266358527],[-103.77927558551171,22.7293366209324],[-104.01688033760676,22.746262376247515],[-104.06008120162404,22.695485110302187],[-104.002480049601,22.529612708214145],[-103.9304786095722,22.475450291205817],[-103.93767875357509,22.47206514014279],[-104.0744814896298,22.37728091037819],[-104.18968379367588,22.47206514014279],[-104.18968379367588,22.468679989079774],[-104.2904858097162,22.346814550811004],[-104.34808696173924,22.411132421008404],[-104.34088681773636,22.421287874197475],[-104.33368667373348,22.42467302526049],[-104.26888537770756,22.736106923058443],[-104.1104822096442,22.8071950953819],[-104.16808336166724,22.94260113790274],[-104.17528350567012,23.12878444636891],[-104.06728134562692,23.463914401608022],[-103.79367587351747,23.629786803696064],[-103.86567731354629,23.75165224196482],[-103.84407688153765,24.025849478069546],[-103.56327126542531,24.184951578031544],[-103.5704714094282,24.286506109922186],[-103.43366867337348,24.34743882905657],[-103.41926838536772,24.428682454569085],[-103.26086521730436,24.445608209884185],[-103.09526190523812,24.401601246064914],[-103.04486089721796,24.465919116262313],[-102.67765355307107,24.377905188623757],[-102.53365067301347,24.408371548190956],[-102.48324966499331,24.489615173703456],[-102.51205024100483,24.71980544598891],[-102.56965139302787,24.902603603392052],[-102.67045340906819,24.94322541614831],[-102.67045340906819,25.06509085441708],[-102.44724894497891,25.000772984219665],[-102.46164923298467,25.115868120362393],[-102.29604592091843,25.126023573551464],[-101.84963699273986,25.01769873953478],[-101.77043540870818,24.87552239488788],[-101.60483209664194,24.834900582131624],[-101.46082921658434,24.73673120130401],[-101.34562691253826,24.814589675753496],[-101.18722374447489,24.750271805556096],[-101.12962259245185,24.62502121622431],[-100.95681913638273,24.543777590711798],[-100.79841596831938,24.557318194963884],[-100.74081481629634,24.45914881413627],[-100.94241884837697,24.279735807796143],[-101.21602432048643,24.1612555205904],[-101.19442388847777,23.91752464405286],[-101.77763555271106,23.44698864629291],[-102.0152403048061,23.37251532290645],[-102.29604592091843,23.31835290589811],[-102.21684433688675,23.125399295305897],[-102.25284505690115,23.07462202936057],[-102.19524390487811,22.864742663453256],[-101.9432388647773,22.644707844356873],[-101.78483569671394,22.465294838016746],[-101.6552331046621,22.512686952899045],[-101.56883137662754,22.65824844860896],[-101.41042820856418,22.746262376247515],[-101.30242604852099,22.61085633372666],[-101.28802576051523,22.509301801836017],[-101.37442748854978,22.45513938482769],[-101.37442748854978,22.252030321046405],[-101.3312266245325,22.20125305510109],[-101.34562691253826,22.00491429344585],[-101.49682993659874,21.808575531790623],[-101.5112302246045,21.798420078601552],[-101.56883137662754,21.916900365807308],[-101.7272345446909,22.001529142382836],[-101.74883497669954,22.01506974663492],[-101.86403728074562,22.028610350887007],[-101.97203944078882,22.116624278525563],[-102.02964059281186,22.289266982739647],[-102.25284505690115,22.390821514630275],[-102.46884937698755,22.35019970187402],[-102.52645052901059,22.289266982739647],[-102.67045340906819,22.29265213380266],[-102.67045340906819,22.150475789155763],[-102.8432568651373,21.933826121122408],[-102.85045700914019,21.798420078601552],[-102.74245484909699,21.720561604152067],[-102.7712554251085,21.602081316946325],[-102.62725254505091,21.507297087181726],[-102.67765355307107,21.344809836156713],[-102.9944598891978,21.260181059581186],[-103.08086161723236,21.202633491509815],[-103.0664613292266,21.101078959619173],[-103.05926118522372,21.101078959619173],[-103.36886737734756,21.05030169367386],[-103.39766795335908,21.101078959619173],[-103.40486809736196,21.1044641106822],[-103.57767155343107,21.1213898659973],[-103.642472849457,21.222944397887943],[-103.68567371347427,21.558074353127054],[-103.6784735694714,21.554689202064026]]]}},{"type":"Feature","properties":{"name":"Durango","cartodb_id":10,"created_at":"2013-12-01T18:59:38+0100","updated_at":"2013-12-01T18:59:38+0100"},"geometry":{"type":"Polygon","coordinates":[[[-104.34808696173924,22.411132421008404],[-104.49208984179684,22.37728091037819],[-104.6576931538631,22.46190968695373],[-104.78729574591493,22.6480929954199],[-104.96009920198405,22.505916650773003],[-105.07530150603013,22.654863297545944],[-104.89529790595813,22.736106923058443],[-104.98889977799557,22.83427630388607],[-105.01050021000421,22.976452648532955],[-105.33450669013381,22.952756591091813],[-105.39210784215685,23.08477748254964],[-105.57211144222886,23.108473539990783],[-105.57931158623174,23.108473539990783],[-105.64411288225766,23.138939899557982],[-105.69451389027782,23.308197452709038],[-105.69451389027782,23.311582603772067],[-105.7017140342807,23.423292588851766],[-105.82411648232966,23.609475897317935],[-105.91051821036422,23.589164990939807],[-105.96091921838438,23.839666169603376],[-105.91051821036422,23.998768269565375],[-105.99691993839878,24.04277523338466],[-106.00412008240166,24.15448521846436],[-106.09052181043621,24.286506109922186],[-106.27052541050821,24.374520037560742],[-106.37132742654853,24.30004671417427],[-106.5297305946119,24.296661563111243],[-106.71693433868678,24.67241333110661],[-107.12734254685094,25.051550250164993],[-107.12734254685094,25.190341443748864],[-107.20654413088262,25.41714656497129],[-106.9977399547991,25.660877441508816],[-106.87533750675014,25.57286351387026],[-106.65933318666374,25.562708060681203],[-106.65933318666374,25.566093211744217],[-106.55853117062343,25.691343801076002],[-106.55853117062343,25.911378620172385],[-106.4577291545831,25.97231133930677],[-106.43612872257447,26.20250161159221],[-106.26332526650533,26.405610675373495],[-106.23452469049381,26.608719739154765],[-106.23452469049381,26.612104890217793],[-106.17692353847077,26.774592141242806],[-106.04732094641894,26.845680313566262],[-105.81691633832678,26.68996336466728],[-105.73051461029222,26.69673366679332],[-105.55051101022022,26.547787020020394],[-105.26250525010501,26.463158243444852],[-105.10410208204165,26.520705811516223],[-105.05370107402149,26.429306732814638],[-104.90249804996101,26.51055035832715],[-104.72249444988901,26.476698847696937],[-104.57129142582852,26.341292805176096],[-104.49928998579972,26.415766128562552],[-104.44168883377668,26.598564285965708],[-104.33368667373348,26.656111854037064],[-104.31208624172484,26.805058500810006],[-104.04568091361828,26.74412578167562],[-103.70007400148003,26.723814875297492],[-103.37606752135044,26.601949437028722],[-103.3184663693274,26.361603711554224],[-103.26086521730436,26.283745237104725],[-103.34726694533892,26.14156889245784],[-103.36166723334468,25.671032894697873],[-103.49126982539651,25.539012003240046],[-103.36886737734756,25.41714656497129],[-103.4984699693994,25.312206882017634],[-103.36166723334468,25.10909781823635],[-103.26806536130724,25.06170570335405],[-103.26086521730436,24.963536322526437],[-103.05926118522372,24.814589675753496],[-103.05206104122084,24.81120452469048],[-102.92965859317187,24.777353014060267],[-102.92245844916899,24.780738165123296],[-102.85045700914019,24.770582711934225],[-102.67045340906819,25.06509085441708],[-102.67045340906819,24.94322541614831],[-102.56965139302787,24.902603603392052],[-102.51205024100483,24.71980544598891],[-102.48324966499331,24.489615173703456],[-102.53365067301347,24.408371548190956],[-102.67765355307107,24.377905188623757],[-103.04486089721796,24.465919116262313],[-103.09526190523812,24.401601246064914],[-103.26086521730436,24.445608209884185],[-103.41926838536772,24.428682454569085],[-103.43366867337348,24.34743882905657],[-103.5704714094282,24.286506109922186],[-103.56327126542531,24.184951578031544],[-103.84407688153765,24.025849478069546],[-103.86567731354629,23.75165224196482],[-103.79367587351747,23.629786803696064],[-104.06728134562692,23.463914401608022],[-104.17528350567012,23.12878444636891],[-104.16808336166724,22.94260113790274],[-104.1104822096442,22.8071950953819],[-104.26888537770756,22.736106923058443],[-104.33368667373348,22.42467302526049],[-104.34088681773636,22.421287874197475],[-104.34808696173924,22.411132421008404]]]}},{"type":"Feature","properties":{"name":"Chihuahua","cartodb_id":11,"created_at":"2013-12-01T18:59:38+0100","updated_at":"2013-12-01T18:59:38+0100"},"geometry":{"type":"Polygon","coordinates":[[[-106.9977399547991,25.660877441508816],[-107.06254125082502,25.75904682233643],[-107.2929458589172,25.92491922442447],[-107.30734614692295,26.077251022260427],[-107.41534830696615,26.14156889245784],[-107.50895017900359,26.11448768395367],[-107.85455709114183,26.195731309466183],[-108.01296025920519,26.43946218600371],[-107.95535910718215,26.51055035832715],[-108.07056141122823,26.629030645532893],[-108.07056141122823,26.63241579659592],[-108.0057601152023,26.76105153699072],[-108.09216184323687,26.869376371007405],[-108.2289645792916,26.90322788163762],[-108.1929638592772,27.031863622032432],[-108.50257005140104,26.987856658213147],[-108.57457149142984,27.011552715654304],[-108.6609732194644,27.23835783687673],[-108.5889717794356,27.31960146238923],[-108.65377307546152,27.54302143254864],[-108.7689753795076,27.705508683573655],[-108.92017840356807,27.78336715802314],[-108.92737854757095,27.939084106922124],[-109.03538070761417,28.01694258137161],[-109.07138142762857,28.128652566451322],[-108.99937998759977,28.26067345790915],[-108.75457509150183,28.270828911098207],[-108.5529710594212,28.318221025980506],[-108.48816976339528,28.375768594051863],[-108.58177163543272,28.74136490885816],[-108.68977379547592,28.876770951379015],[-108.74737494749895,29.181434547050927],[-108.66817336346728,29.30668513638271],[-108.70417408348167,29.408239668273353],[-108.63937278745576,29.55718631504628],[-108.65377307546152,29.712903263945265],[-108.61057221144424,29.797532040520792],[-108.61777235544712,30.298534397847945],[-108.6609732194644,30.521954368007343],[-108.8769775395508,30.623508899897985],[-108.94177883557671,30.907861589191768],[-108.804976099522,30.904476438128754],[-108.84817696353927,31.134666710414194],[-108.75457509150183,31.33100547206942],[-108.20736414728296,31.33439062313245],[-108.20736414728296,31.784615714514274],[-107.2569451389028,31.784615714514274],[-106.5297305946119,31.784615714514274],[-106.37852757055143,31.73383844856896],[-106.22012440248805,31.479952118842363],[-105.9537190743815,31.364856982699635],[-105.7737154743095,31.16513306998138],[-105.64411288225766,31.114355804036066],[-105.5577111542231,30.98910521470428],[-105.39210784215685,30.853699172183426],[-105.21930438608773,30.80292190623811],[-104.93129862597253,30.60658314458287],[-104.85929718594373,30.389933476549515],[-104.68649372987461,30.180054110642203],[-104.67929358587173,29.91262717666352],[-104.56409128182564,29.77383598307965],[-104.51369027380548,29.638429940558794],[-104.38408768175364,29.54026055973118],[-104.21128422568452,29.486098142722838],[-104.16808336166724,29.394699064021268],[-103.97367947358948,29.296529683193654],[-103.83687673753477,29.27960392787854],[-103.71447428948579,29.184819698113955],[-103.55607112142243,29.154353338546755],[-103.3904678093562,29.022332447088928],[-103.30406608132164,29.00540669177383],[-103.51287025740515,28.663506434408674],[-103.59927198543971,28.63981037696753],[-103.642472849457,28.51117463657272],[-103.86567731354629,28.111726811136208],[-103.94487889757796,27.928928653733067],[-103.93767875357509,27.796907762275225],[-103.85127702554053,27.549791734674685],[-103.88007760155205,27.312831160263187],[-103.74327486549731,27.02170816884336],[-103.85127702554053,26.896457579511576],[-103.70007400148003,26.723814875297492],[-104.04568091361828,26.74412578167562],[-104.31208624172484,26.805058500810006],[-104.33368667373348,26.656111854037064],[-104.44168883377668,26.598564285965708],[-104.49928998579972,26.415766128562552],[-104.57129142582852,26.341292805176096],[-104.72249444988901,26.476698847696937],[-104.90249804996101,26.51055035832715],[-105.05370107402149,26.429306732814638],[-105.10410208204165,26.520705811516223],[-105.26250525010501,26.463158243444852],[-105.55051101022022,26.547787020020394],[-105.73051461029222,26.69673366679332],[-105.81691633832678,26.68996336466728],[-106.04732094641894,26.845680313566262],[-106.17692353847077,26.774592141242806],[-106.23452469049381,26.612104890217793],[-106.23452469049381,26.608719739154765],[-106.26332526650533,26.405610675373495],[-106.43612872257447,26.20250161159221],[-106.4577291545831,25.97231133930677],[-106.55853117062343,25.911378620172385],[-106.55853117062343,25.691343801076002],[-106.65933318666374,25.566093211744217],[-106.65933318666374,25.562708060681203],[-106.87533750675014,25.57286351387026],[-106.9977399547991,25.660877441508816]]]}},{"type":"Feature","properties":{"name":"Colima","cartodb_id":12,"created_at":"2013-12-01T18:59:38+0100","updated_at":"2013-12-01T18:59:38+0100"},"geometry":{"type":"Polygon","coordinates":[[[-104.6144922898458,19.154617098381948],[-104.52089041780836,19.25955678133562],[-104.40568811376228,19.269712234524675],[-104.3984879697594,19.269712234524675],[-104.13928278565572,19.31371919834396],[-104.13928278565572,19.317104349406975],[-104.06728134562692,19.493132204684088],[-103.81527630552613,19.41527373023459],[-103.69287385747715,19.493132204684088],[-103.48406968139363,19.340800406848118],[-103.52007040140803,19.059832868617363],[-103.49126982539651,18.965048638852764],[-103.73607472149443,18.687466251685024],[-103.98087961759236,18.873649560151193],[-104.33368667373348,19.019211055861106],[-104.6144922898458,19.154617098381948]]]}},{"type":"Feature","properties":{"name":"Nayarit","cartodb_id":13,"created_at":"2013-12-01T18:59:38+0100","updated_at":"2013-12-01T18:59:38+0100"},"geometry":{"type":"Polygon","coordinates":[[[-105.27690553811077,20.671164774615477],[-105.33450669013381,20.75240840012799],[-105.4785095701914,20.755793551191005],[-105.45690913818277,20.870888687333732],[-105.24090481809637,21.046916542610845],[-105.24090481809637,21.361735591471813],[-105.19050381007621,21.470060425488498],[-105.44970899417989,21.63254767651351],[-105.65131302626054,22.00491429344585],[-105.67291345826918,22.346814550811004],[-105.75931518630374,22.536383010340188],[-105.6657133142663,22.583775125222488],[-105.46410928218565,22.505916650773003],[-105.43530870617413,22.583775125222488],[-105.5217104342087,22.7598029804996],[-105.39210784215685,23.08477748254964],[-105.33450669013381,22.952756591091813],[-105.01050021000421,22.976452648532955],[-104.98889977799557,22.83427630388607],[-104.89529790595813,22.736106923058443],[-105.07530150603013,22.654863297545944],[-104.96009920198405,22.505916650773003],[-104.78729574591493,22.6480929954199],[-104.6576931538631,22.46190968695373],[-104.49208984179684,22.37728091037819],[-104.34808696173924,22.411132421008404],[-104.2904858097162,22.346814550811004],[-104.362487249745,22.143705487029735],[-104.362487249745,22.001529142382836],[-104.24728494569892,21.967677631752622],[-104.1464829296586,21.80180522966458],[-104.03128062561252,21.791649776475523],[-103.88727774555493,21.696865546710924],[-103.9304786095722,21.639317978639554],[-103.82967659353189,21.49714163399267],[-103.75047500950019,21.47683072761454],[-103.74327486549731,21.348194987219728],[-103.92327846556933,21.233099851077014],[-103.92327846556933,21.23648500214003],[-104.20408408168164,21.192478038320758],[-104.24008480169604,20.992754125602502],[-104.362487249745,20.840422327766547],[-104.52089041780836,20.881044140522803],[-104.52809056181124,20.881044140522803],[-104.75129502590053,21.01306503198063],[-104.99609992199845,20.914895651153003],[-105.08250165003301,20.931821406468117],[-105.27690553811077,20.671164774615477]]]}},{"type":"Feature","properties":{"name":"Michoacán de Ocampo","cartodb_id":14,"created_at":"2013-12-01T18:59:38+0100","updated_at":"2013-12-01T18:59:38+0100"},"geometry":{"type":"Polygon","coordinates":[[[-103.73607472149443,18.687466251685024],[-103.49126982539651,18.965048638852764],[-103.2104642092842,19.002285300545992],[-103.12406248124964,18.93119712822255],[-103.00166003320068,19.059832868617363],[-102.96565931318628,19.168157702634034],[-102.9584591691834,19.171542853697062],[-102.75685513710275,19.25617163027259],[-102.64885297705955,19.23586072389446],[-102.56965139302787,19.411888579171574],[-102.72085441708835,19.577760981259615],[-102.72085441708835,19.58114613232263],[-102.82165643312867,19.780870045040885],[-102.7352547050941,19.899350332246627],[-102.8072561451229,19.960283051381012],[-103.04486089721796,19.997519713074254],[-102.96565931318628,20.126155453469053],[-102.8432568651373,20.116000000279996],[-102.45444908898179,20.33603481937638],[-102.44724894497891,20.339419970439394],[-102.42564851297027,20.33603481937638],[-102.41844836896739,20.33264966831335],[-102.11604232084643,20.38004178319565],[-102.10884217684355,20.38004178319565],[-102.10884217684355,20.376656632132637],[-102.10164203284067,20.38004178319565],[-102.09444188883779,20.38342693425868],[-102.00084001680034,20.356345725754508],[-102.00084001680034,20.359730876817522],[-101.9072381447629,20.204013927918552],[-101.66963339266786,20.217554532170624],[-101.5472309446189,20.33264966831335],[-101.41042820856418,20.204013927918552],[-101.39602792055842,20.051682130082582],[-101.2232244644893,20.01106031732634],[-101.07202144042881,20.088918791775825],[-101.00002000040001,19.967053353507055],[-101.00002000040001,19.96366820244404],[-100.74801496029922,19.912890936498712],[-100.6112122242445,19.98059395775914],[-100.53201064021282,19.950127598191955],[-100.36640732814658,19.99074941094821],[-100.38800776015522,20.082148489649782],[-100.35200704014082,20.28864270449408],[-100.17920358407169,20.204013927918552],[-100.14320286405729,20.05506728114561],[-100.15040300806017,20.05506728114561],[-100.12880257605153,19.912890936498712],[-100.16480329606593,19.713167023780457],[-100.26560531210625,19.696241268465357],[-100.18640372807457,19.44235493873876],[-100.29440588811777,19.39496282385646],[-100.32320646412929,19.242631026020504],[-100.40960819216386,19.063218019680377],[-100.48160963219266,19.029366509050163],[-100.48160963219266,19.02598135798715],[-100.6112122242445,18.88380501334025],[-100.61841236824738,18.880419862277236],[-100.77681553631074,18.714547460189195],[-100.78401568031362,18.707777158063152],[-100.74081481629634,18.518208698533954],[-100.58961179223586,18.416654166643326],[-100.65441308826178,18.359106598571955],[-100.78401568031362,18.46743143258864],[-100.98561971239425,18.48774233896677],[-100.99281985639713,18.491127490029783],[-101.27362547250947,18.54190475597511],[-101.5112302246045,18.48774233896677],[-101.62643252865058,18.599452324046467],[-101.72003440068802,18.612992928298553],[-101.88563771275426,18.535134453849068],[-101.86403728074562,18.284633275185485],[-101.98643972879458,18.203389649672985],[-102.12324246484931,18.18646389435787],[-102.13044260885219,18.1898490454209],[-102.18084361687235,18.098449966719315],[-102.13044260885219,17.952888471009402],[-102.18084361687235,17.915651809316174],[-102.48324966499331,18.02059149226983],[-102.71365427308547,18.057828153963072],[-102.9944598891978,18.176308441168814],[-103.25366507330148,18.23385600924017],[-103.50567011340227,18.338795692193827],[-103.57767155343107,18.501282943218854],[-103.73607472149443,18.687466251685024]]]}},{"type":"Feature","properties":{"name":"Jalisco","cartodb_id":15,"created_at":"2013-12-01T18:59:38+0100","updated_at":"2013-12-01T18:59:38+0100"},"geometry":{"type":"Polygon","coordinates":[[[-105.27690553811077,20.671164774615477],[-105.08250165003301,20.931821406468117],[-104.99609992199845,20.914895651153003],[-104.75129502590053,21.01306503198063],[-104.52809056181124,20.881044140522803],[-104.52089041780836,20.881044140522803],[-104.362487249745,20.840422327766547],[-104.24008480169604,20.992754125602502],[-104.20408408168164,21.192478038320758],[-103.92327846556933,21.23648500214003],[-103.92327846556933,21.233099851077014],[-103.74327486549731,21.348194987219728],[-103.75047500950019,21.47683072761454],[-103.82967659353189,21.49714163399267],[-103.9304786095722,21.639317978639554],[-103.88727774555493,21.696865546710924],[-104.03128062561252,21.791649776475523],[-104.1464829296586,21.80180522966458],[-104.24728494569892,21.967677631752622],[-104.362487249745,22.001529142382836],[-104.362487249745,22.143705487029735],[-104.2904858097162,22.346814550811004],[-104.18968379367588,22.468679989079774],[-104.18968379367588,22.47206514014279],[-104.0744814896298,22.37728091037819],[-103.93767875357509,22.47206514014279],[-103.9304786095722,22.475450291205817],[-104.002480049601,22.529612708214145],[-104.06008120162404,22.695485110302187],[-104.01688033760676,22.746262376247515],[-103.77927558551171,22.7293366209324],[-103.76487529750595,22.6176266358527],[-103.8584771695434,22.57361967203343],[-103.88727774555493,22.390821514630275],[-103.88727774555493,22.38743636356726],[-103.77207544150883,22.556693916718316],[-103.6064721294426,22.560079067781345],[-103.59927198543971,22.26895607636152],[-103.66407328146563,22.157246091281806],[-103.462469249385,22.106468825336492],[-103.38326766535332,22.228334263605262],[-103.36886737734756,22.35019970187402],[-103.18166363327268,22.390821514630275],[-103.05926118522372,22.22156396147922],[-103.102462049241,22.14709063809275],[-103.102462049241,22.143705487029735],[-103.18886377727556,21.971062782815636],[-103.28966579331588,21.97783308494168],[-103.41926838536772,21.899974610492194],[-103.59207184143683,21.558074353127054],[-103.6784735694714,21.554689202064026],[-103.68567371347427,21.558074353127054],[-103.642472849457,21.222944397887943],[-103.57767155343107,21.1213898659973],[-103.40486809736196,21.1044641106822],[-103.39766795335908,21.101078959619173],[-103.36886737734756,21.05030169367386],[-103.05926118522372,21.101078959619173],[-103.0664613292266,21.101078959619173],[-103.08086161723236,21.202633491509815],[-102.9944598891978,21.260181059581186],[-102.67765355307107,21.344809836156713],[-102.62725254505091,21.507297087181726],[-102.7712554251085,21.602081316946325],[-102.74245484909699,21.720561604152067],[-102.7352547050941,21.717176453089053],[-102.72085441708835,21.720561604152067],[-102.55525110502211,21.744257661593224],[-102.32484649692995,21.622392223324454],[-102.14484289685795,21.70702099989998],[-102.02244044880898,21.862737948798966],[-101.87843756875138,21.910130063681265],[-101.86403728074562,22.01506974663492],[-101.86403728074562,22.018454897697936],[-101.86403728074562,22.028610350887007],[-101.74883497669954,22.01506974663492],[-101.7272345446909,22.001529142382836],[-101.56883137662754,21.916900365807308],[-101.5112302246045,21.798420078601552],[-101.54003080061602,21.778109172223438],[-101.6192323846477,21.547918899937983],[-101.6192323846477,21.54453374887497],[-101.66243324866498,21.4057425552911],[-101.64083281665634,21.297417721274414],[-101.75603512070242,21.270336512770243],[-101.82083641672834,21.1044641106822],[-102.08004160083203,20.830266874577475],[-101.97203944078882,20.65762417036339],[-102.09444188883779,20.38342693425868],[-102.10164203284067,20.38004178319565],[-102.10884217684355,20.38004178319565],[-102.10884217684355,20.376656632132637],[-102.11604232084643,20.38004178319565],[-102.41844836896739,20.33264966831335],[-102.42564851297027,20.33603481937638],[-102.44724894497891,20.339419970439394],[-102.45444908898179,20.33603481937638],[-102.8432568651373,20.116000000279996],[-102.96565931318628,20.126155453469053],[-103.04486089721796,19.997519713074254],[-102.8072561451229,19.960283051381012],[-102.7352547050941,19.899350332246627],[-102.82165643312867,19.780870045040885],[-102.72085441708835,19.58114613232263],[-102.72085441708835,19.577760981259615],[-102.56965139302787,19.411888579171574],[-102.64885297705955,19.23586072389446],[-102.75685513710275,19.25617163027259],[-102.9584591691834,19.171542853697062],[-102.96565931318628,19.168157702634034],[-103.00166003320068,19.059832868617363],[-103.12406248124964,18.93119712822255],[-103.2104642092842,19.002285300545992],[-103.49126982539651,18.965048638852764],[-103.52007040140803,19.059832868617363],[-103.48406968139363,19.340800406848118],[-103.69287385747715,19.493132204684088],[-103.81527630552613,19.41527373023459],[-104.06728134562692,19.493132204684088],[-104.13928278565572,19.317104349406975],[-104.13928278565572,19.31371919834396],[-104.3984879697594,19.269712234524675],[-104.40568811376228,19.269712234524675],[-104.52089041780836,19.25955678133562],[-104.6144922898458,19.154617098381948],[-104.80889617792357,19.23586072389446],[-105.02490049800997,19.384807370667403],[-105.08250165003301,19.550679772755444],[-105.19770395407909,19.625153096141915],[-105.50011000220005,19.997519713074254],[-105.54331086621734,20.200628776855524],[-105.68731374627494,20.36311602788055],[-105.60811216224326,20.47482601296025],[-105.34890697813957,20.505292372527435],[-105.24810496209925,20.569610242724835],[-105.27690553811077,20.671164774615477]]]}},{"type":"Feature","properties":{"name":"Chiapas","cartodb_id":16,"created_at":"2013-12-01T18:59:38+0100","updated_at":"2013-12-01T18:59:38+0100"},"geometry":{"type":"Polygon","coordinates":[[[-91.6542330846617,17.634684271085405],[-91.6542330846617,17.63129912002239],[-91.63263265265306,17.546670343446863],[-91.63983279665594,17.543285192383834],[-91.66863337266746,17.475582171123406],[-91.67583351667034,17.472197020060392],[-91.41662833256666,17.37402763923278],[-91.38062761255226,17.316480071161408],[-91.38062761255226,17.309709769035365],[-91.42382847656954,17.302939466909322],[-91.42382847656954,17.29616916478328],[-91.4382287645753,17.25216220096401],[-91.27262545250906,17.177688877577538],[-91.17182343646874,17.015201626552525],[-90.92701854037082,16.825633167023327],[-90.76141522830457,16.76470044788894],[-90.68221364427289,16.69022712450247],[-90.58861177223545,16.4701923054061],[-90.40140802816057,16.399104133082645],[-90.45900918018361,16.202765371427418],[-90.43740874817497,16.074129631032605],[-91.73343466869338,16.074129631032605],[-92.20864417288347,15.261693375907512],[-92.06464129282587,15.075510067441343],[-92.14384287685755,14.980725837676744],[-92.17984359687195,14.848704946218916],[-92.14384287685755,14.662521637752747],[-92.22304446088923,14.533885897357933],[-92.4102482049641,14.69637314838296],[-92.8854577091542,15.190605203584056],[-93.29586591731835,15.562971820516395],[-93.55507110142204,15.76608088429768],[-93.80707614152284,15.93195328638572],[-94.01588031760636,16.009811760835206],[-94.1094821896438,16.17906931398626],[-94.05188103762076,16.33140111182223],[-94.13828276565532,16.46342200328006],[-93.86467729354588,17.13706706482128],[-93.80707614152284,17.23185129458588],[-93.6054721094422,17.316480071161408],[-93.51187023740476,17.49250792643852],[-93.50467009340188,17.495893077501535],[-93.36066721334427,17.72608334978699],[-93.36786735734715,17.72608334978699],[-93.33186663733275,17.92919241356826],[-93.26706534130683,17.97658452845056],[-93.14466289325787,17.932577564631274],[-92.98625972519451,17.51281883281665],[-92.85665713314268,17.499278228564563],[-92.75585511710236,17.34356127966558],[-92.6694533890678,17.458656415808306],[-92.5182503650073,17.57375155195102],[-92.35264705294107,17.617758515770305],[-92.24464489289787,17.72608334978699],[-92.22304446088923,17.749779407228132],[-91.97103942078843,17.90888150719013],[-91.81983639672795,17.898726054001074],[-91.79103582071643,17.74300910510209],[-91.6542330846617,17.634684271085405]]]}},{"type":"Feature","properties":{"name":"Tabasco","cartodb_id":17,"created_at":"2013-12-01T18:59:38+0100","updated_at":"2013-12-01T18:59:38+0100"},"geometry":{"type":"Polygon","coordinates":[[[-93.6414728294566,17.46204156687132],[-93.61987239744796,17.550055494509877],[-93.62707254145084,17.550055494509877],[-93.73507470149404,17.63129912002239],[-93.73507470149404,17.634684271085405],[-93.75667513350268,17.682076385967704],[-93.75667513350268,17.685461537030733],[-93.77827556551132,17.692231839156776],[-93.7854757095142,17.692231839156776],[-93.80707614152284,17.70577244340886],[-93.81427628552572,17.702387292345833],[-93.83587671753436,17.71592789659792],[-93.84307686153724,17.71592789659792],[-93.86467729354588,17.719313047660947],[-93.87187743754876,17.719313047660947],[-93.95827916558332,17.797171522110432],[-93.95827916558332,17.800556673173446],[-93.95827916558332,17.803941824236475],[-94.08068161363228,17.868259694433874],[-94.08068161363228,18.044287549710987],[-94.0734814696294,18.054443002900044],[-94.08068161363228,18.101835117782343],[-94.08788175763516,18.108605419908386],[-94.09508190163804,18.166152987979743],[-94.10228204564092,18.16953813904277],[-94.13108262165244,18.213545102862042],[-93.41106822136443,18.433579921958426],[-92.89985799715996,18.44035022408447],[-92.78465569311388,18.491127490029783],[-92.69825396507932,18.592682021920425],[-92.46784935698714,18.65022958999178],[-92.42464849296987,18.555445360227196],[-92.42464849296987,18.548675058101153],[-92.34544690893819,18.443735375147497],[-92.34544690893819,18.450505677273526],[-92.17264345286907,18.45727597939957],[-92.17984359687195,18.267707519870385],[-92.11504230084603,18.0950648156563],[-91.80543610872219,17.97319937738753],[-91.63983279665594,17.875029996559917],[-91.61103222064442,18.101835117782343],[-91.55343106862138,18.1593826858537],[-91.2222244444889,17.97658452845056],[-90.98461969239386,17.963043924198473],[-90.98461969239386,17.81409727742553],[-90.98461969239386,17.25216220096401],[-91.4382287645753,17.25216220096401],[-91.42382847656954,17.29616916478328],[-91.42382847656954,17.302939466909322],[-91.38062761255226,17.309709769035365],[-91.38062761255226,17.316480071161408],[-91.41662833256666,17.37402763923278],[-91.67583351667034,17.472197020060392],[-91.66863337266746,17.475582171123406],[-91.63983279665594,17.543285192383834],[-91.63263265265306,17.546670343446863],[-91.6542330846617,17.63129912002239],[-91.6542330846617,17.634684271085405],[-91.79103582071643,17.74300910510209],[-91.81983639672795,17.898726054001074],[-91.97103942078843,17.90888150719013],[-92.22304446088923,17.749779407228132],[-92.24464489289787,17.72608334978699],[-92.35264705294107,17.617758515770305],[-92.5182503650073,17.57375155195102],[-92.6694533890678,17.458656415808306],[-92.75585511710236,17.34356127966558],[-92.85665713314268,17.499278228564563],[-92.98625972519451,17.51281883281665],[-93.14466289325787,17.932577564631274],[-93.26706534130683,17.97658452845056],[-93.33186663733275,17.92919241356826],[-93.36786735734715,17.72608334978699],[-93.36066721334427,17.72608334978699],[-93.50467009340188,17.495893077501535],[-93.51187023740476,17.49250792643852],[-93.6054721094422,17.316480071161408],[-93.6414728294566,17.451886113682264],[-93.6414728294566,17.455271264745278],[-93.6414728294566,17.458656415808306],[-93.6414728294566,17.46204156687132]]]}},{"type":"Feature","properties":{"name":"Oaxaca","cartodb_id":18,"created_at":"2013-12-01T18:59:38+0100","updated_at":"2013-12-01T18:59:38+0100"},"geometry":{"type":"Polygon","coordinates":[[[-98.55197103942079,16.317860507570146],[-98.35036700734015,16.44311109690193],[-98.39356787135743,16.548050779855586],[-98.20636412728255,16.588672592611843],[-98.23516470329407,16.707152879817585],[-98.13436268725376,16.724078635132685],[-98.07676153523072,16.845944073401455],[-98.10556211124224,17.08967494993898],[-98.22076441528831,17.123526460569195],[-98.20636412728255,17.22169584139681],[-98.3359667193344,17.455271264745278],[-98.32876657533151,17.53651489025779],[-98.48716974339487,17.682076385967704],[-98.42236844736895,17.86487454337086],[-98.17036340726816,17.902111205064088],[-98.12716254325088,17.986739981639616],[-97.93275865517312,17.966429075261487],[-97.8319566391328,17.90888150719013],[-97.8679573591472,18.145842081601614],[-97.7959559191184,18.284633275185485],[-97.65915318306367,18.294788728374556],[-97.54395087901759,18.037517247584944],[-97.45034900698015,18.061213305026087],[-97.45034900698015,18.064598456089115],[-97.30634612692255,18.1593826858537],[-97.14074281485631,18.16953813904277],[-97.14074281485631,18.166152987979743],[-96.99673993479871,18.230470858177156],[-96.84553691073822,18.244011462429242],[-96.73033460669214,18.399728411328212],[-96.68713374267486,18.48774233896677],[-96.68713374267486,18.491127490029783],[-96.65113302266046,18.65022958999178],[-96.4567291345827,18.568985964479282],[-96.4207284145683,18.501282943218854],[-96.4207284145683,18.497897792155825],[-96.29112582251646,18.260937217744342],[-96.28392567851358,18.257552066681328],[-96.16152323046462,18.13230147734953],[-95.83031660633213,18.128916326286515],[-95.80151603032061,17.949503319946388],[-95.86631732634653,17.682076385967704],[-95.7727154543091,17.607603062581234],[-95.77991559831197,17.60421791151822],[-95.69351387027741,17.522974286005706],[-95.57831156623133,17.53651489025779],[-95.42710854217086,17.64822487533749],[-95.23990479809598,17.739623954039075],[-95.25430508610174,17.60083276045519],[-95.07430148602973,17.37402763923278],[-94.93029860597213,17.32663552435048],[-94.92309846196925,17.19461463289265],[-93.86467729354588,17.13706706482128],[-94.13828276565532,16.46342200328006],[-94.05188103762076,16.33140111182223],[-94.1094821896438,16.17906931398626],[-94.01588031760636,16.009811760835206],[-94.20308406168124,16.097825688473762],[-94.46228924578493,16.17906931398626],[-94.88709774195485,16.212920824616475],[-95.2327046540931,16.158758407608147],[-95.43430868617374,15.975960250204992],[-95.93111862237245,15.837169056621121],[-96.2407248144963,15.684837258785166],[-96.59353187063742,15.67129665453308],[-96.83833676673534,15.732229373667465],[-97.05434108682175,15.854094811936221],[-97.27034540690815,15.938723588511763],[-97.78155563111264,15.97934540126802],[-98.20636412728255,16.22984657993159],[-98.55197103942079,16.317860507570146]]]}},{"type":"Feature","properties":{"name":"Guanajuato","cartodb_id":19,"created_at":"2013-12-01T18:59:38+0100","updated_at":"2013-12-01T18:59:38+0100"},"geometry":{"type":"Polygon","coordinates":[[[-102.00084001680034,20.356345725754508],[-102.09444188883779,20.38342693425868],[-101.97203944078882,20.65762417036339],[-102.08004160083203,20.830266874577475],[-101.82083641672834,21.1044641106822],[-101.75603512070242,21.270336512770243],[-101.64083281665634,21.297417721274414],[-101.66243324866498,21.4057425552911],[-101.6192323846477,21.54453374887497],[-101.6192323846477,21.547918899937983],[-101.54003080061602,21.778109172223438],[-101.4752295045901,21.825501287105723],[-101.3672273445469,21.83904189135781],[-101.31682633652674,21.835656740294795],[-101.16562331246625,21.75779826584531],[-100.97841956839137,21.75441311478228],[-100.85601712034241,21.619007072261425],[-100.58961179223586,21.51406738930777],[-100.46000920018402,21.54453374887497],[-100.45280905618114,21.669784338206753],[-100.27280545610913,21.686710093521853],[-100.06400128002561,21.52422284249684],[-99.94159883197665,21.463290123362455],[-99.77599551991041,21.49375648292964],[-99.77599551991041,21.409127706354113],[-99.77599551991041,21.4057425552911],[-99.73999479989601,21.23648500214003],[-99.81199623992481,21.165396829816586],[-100.01360027200545,21.18909288725773],[-100.02080041600833,21.01306503198063],[-100.07840156803137,20.948747161783217],[-100.33040660813217,20.89119959371186],[-100.4672093441869,20.908125349026975],[-100.5752115042301,20.820111421388418],[-100.58961179223586,20.715171738434762],[-100.47440948818978,20.390197236384708],[-100.35200704014082,20.28864270449408],[-100.38800776015522,20.082148489649782],[-100.36640732814658,19.99074941094821],[-100.53201064021282,19.950127598191955],[-100.6112122242445,19.98059395775914],[-100.74801496029922,19.912890936498712],[-101.00002000040001,19.96366820244404],[-101.00002000040001,19.967053353507055],[-101.07202144042881,20.088918791775825],[-101.2232244644893,20.01106031732634],[-101.39602792055842,20.051682130082582],[-101.41042820856418,20.204013927918552],[-101.5472309446189,20.33264966831335],[-101.66963339266786,20.217554532170624],[-101.9072381447629,20.204013927918552],[-102.00084001680034,20.359730876817522],[-102.00084001680034,20.356345725754508]]]}},{"type":"Feature","properties":{"name":"Aguascalientes","cartodb_id":20,"created_at":"2013-12-01T18:59:38+0100","updated_at":"2013-12-01T18:59:38+0100"},"geometry":{"type":"Polygon","coordinates":[[[-101.86403728074562,22.028610350887007],[-101.86403728074562,22.018454897697936],[-101.86403728074562,22.01506974663492],[-101.87843756875138,21.910130063681265],[-102.02244044880898,21.862737948798966],[-102.14484289685795,21.70702099989998],[-102.32484649692995,21.622392223324454],[-102.55525110502211,21.744257661593224],[-102.72085441708835,21.720561604152067],[-102.7352547050941,21.717176453089053],[-102.74245484909699,21.720561604152067],[-102.85045700914019,21.798420078601552],[-102.8432568651373,21.933826121122408],[-102.67045340906819,22.150475789155763],[-102.67045340906819,22.29265213380266],[-102.52645052901059,22.289266982739647],[-102.46884937698755,22.35019970187402],[-102.25284505690115,22.390821514630275],[-102.02964059281186,22.289266982739647],[-101.97203944078882,22.116624278525563],[-101.86403728074562,22.028610350887007]]]}},{"type":"Feature","properties":{"name":"Querétaro","cartodb_id":21,"created_at":"2013-12-01T18:59:38+0100","updated_at":"2013-12-01T18:59:38+0100"},"geometry":{"type":"Polygon","coordinates":[[[-100.1360027200544,20.041526676893525],[-100.14320286405729,20.048296979019568],[-100.14320286405729,20.051682130082582],[-100.14320286405729,20.05506728114561],[-100.17920358407169,20.204013927918552],[-100.35200704014082,20.28864270449408],[-100.47440948818978,20.390197236384708],[-100.58961179223586,20.715171738434762],[-100.5752115042301,20.820111421388418],[-100.4672093441869,20.908125349026975],[-100.33040660813217,20.89119959371186],[-100.07840156803137,20.948747161783217],[-100.02080041600833,21.01306503198063],[-100.01360027200545,21.18909288725773],[-99.81199623992481,21.165396829816586],[-99.73999479989601,21.23648500214003],[-99.77599551991041,21.4057425552911],[-99.77599551991041,21.409127706354113],[-99.77599551991041,21.49375648292964],[-99.74719494389889,21.530993144622883],[-99.75439508790177,21.54114859781194],[-99.66079321586433,21.56822980631611],[-99.55279105582113,21.42943861273224],[-99.43758875177504,21.44974951911037],[-99.43038860777216,21.442979216984327],[-99.40158803176064,21.42943861273224],[-99.40158803176064,21.436208914858284],[-99.379987599752,21.480215878677555],[-99.38718774375488,21.483601029740583],[-99.17838356767136,21.66301403608071],[-99.0559811196224,21.283877117022328],[-99.04158083161664,21.178937434068672],[-99.25758515170304,21.1044641106822],[-99.36558731174624,21.023220485169688],[-99.43758875177504,20.870888687333732],[-99.54559091181825,20.745638098001947],[-99.50239004780097,20.65762417036339],[-99.82639652793057,20.542529034220678],[-99.86239724794497,20.268331798115952],[-99.89839796795937,20.281872402368037],[-99.91279825596513,20.28525755343105],[-99.94159883197665,20.183703021540424],[-99.94159883197665,20.180317870477396],[-99.93439868797377,20.163392115162296],[-99.93439868797377,20.160006964099267],[-99.92719854397089,20.065222734334668],[-100.09280185603713,20.024600921578426],[-100.10000200004,20.02798607264144],[-100.1360027200544,20.041526676893525]]]}},{"type":"Feature","properties":{"name":"San Luis Potosí","cartodb_id":22,"created_at":"2013-12-01T18:59:38+0100","updated_at":"2013-12-01T18:59:38+0100"},"geometry":{"type":"Polygon","coordinates":[[[-99.01278025560512,21.294032570211385],[-99.019980399608,21.29064741914837],[-99.02718054361088,21.283877117022328],[-99.03438068761376,21.283877117022328],[-99.0559811196224,21.283877117022328],[-99.17838356767136,21.66301403608071],[-99.38718774375488,21.483601029740583],[-99.379987599752,21.480215878677555],[-99.40158803176064,21.436208914858284],[-99.40158803176064,21.42943861273224],[-99.43038860777216,21.442979216984327],[-99.43758875177504,21.44974951911037],[-99.55279105582113,21.42943861273224],[-99.66079321586433,21.56822980631611],[-99.75439508790177,21.54114859781194],[-99.74719494389889,21.530993144622883],[-99.77599551991041,21.49375648292964],[-99.94159883197665,21.463290123362455],[-100.06400128002561,21.52422284249684],[-100.27280545610913,21.686710093521853],[-100.45280905618114,21.669784338206753],[-100.46000920018402,21.54453374887497],[-100.58961179223586,21.51406738930777],[-100.85601712034241,21.619007072261425],[-100.97841956839137,21.75441311478228],[-101.16562331246625,21.75779826584531],[-101.31682633652674,21.835656740294795],[-101.3672273445469,21.83904189135781],[-101.4752295045901,21.825501287105723],[-101.49682993659874,21.808575531790623],[-101.34562691253826,22.00491429344585],[-101.3312266245325,22.20125305510109],[-101.37442748854978,22.252030321046405],[-101.37442748854978,22.45513938482769],[-101.28802576051523,22.509301801836017],[-101.30242604852099,22.61085633372666],[-101.41042820856418,22.746262376247515],[-101.56883137662754,22.65824844860896],[-101.6552331046621,22.512686952899045],[-101.78483569671394,22.465294838016746],[-101.9432388647773,22.644707844356873],[-102.19524390487811,22.864742663453256],[-102.25284505690115,23.07462202936057],[-102.21684433688675,23.125399295305897],[-102.29604592091843,23.31835290589811],[-102.0152403048061,23.37251532290645],[-101.77763555271106,23.44698864629291],[-101.19442388847777,23.91752464405286],[-101.21602432048643,24.1612555205904],[-100.94241884837697,24.279735807796143],[-100.74081481629634,24.45914881413627],[-100.60401208024162,24.401601246064914],[-100.63281265625314,24.2255733907878],[-100.52481049620994,24.06985644188883],[-100.56081121622434,23.92090979511589],[-100.44560891217826,23.677178918578363],[-100.51761035220706,23.416522286725723],[-100.37360747214946,23.264190488889767],[-100.22960459209185,23.25064988463768],[-100.12160243204865,23.237109280385596],[-100.10720214404289,23.230338978259553],[-100.10000200004,23.006919008100155],[-100.04240084801697,22.9189050804616],[-100.02080041600833,22.725951469869386],[-99.84799695993921,22.678559354987087],[-99.68239364787297,22.6819445060501],[-99.49518990379809,22.62101178691573],[-99.32958659173184,22.634552391167816],[-99.2359847196944,22.414517572071432],[-98.93357867157344,22.394206665693304],[-98.88317766355328,22.35697000400006],[-98.67437348746977,22.40436211888236],[-98.68157363147265,22.370510608252147],[-98.34316686333727,22.23848971679432],[-98.42956859137183,22.133550033840663],[-98.46556931138623,21.964292480689608],[-98.54477089541791,21.859352797735937],[-98.45836916738335,21.764568567971352],[-98.60237204744095,21.669784338206753],[-98.62397247944959,21.585155561631225],[-98.51597031940639,21.459904972299427],[-98.51597031940639,21.456519821236412],[-98.51597031940639,21.40235740422807],[-98.50877017540351,21.398972253165056],[-98.50157003140063,21.388816799975984],[-98.63117262345249,21.314343476589514],[-98.62397247944959,21.3109583255265],[-98.60237204744095,21.2161740957619],[-98.72477449548992,21.185707736194715],[-98.72477449548992,21.182322585131686],[-98.82557651153024,21.162011678753558],[-98.92637852757056,21.294032570211385],[-99.01278025560512,21.294032570211385]]]}},{"type":"Feature","properties":{"name":"Tlaxcala","cartodb_id":23,"created_at":"2013-12-01T18:59:38+0100","updated_at":"2013-12-01T18:59:38+0100"},"geometry":{"type":"Polygon","coordinates":[[[-98.65277305546113,19.466050996179916],[-98.70317406348128,19.56422037700753],[-98.70317406348128,19.567605528070544],[-98.66717334346689,19.604842189763787],[-98.58077161543231,19.638693700394],[-98.37916758335167,19.6082273408268],[-98.25676513530271,19.716552174843486],[-98.1559631192624,19.669160059961186],[-98.04076081521632,19.706396721654414],[-97.7959559191184,19.47282129830596],[-97.63755275105503,19.361111313226246],[-97.68795375907519,19.28663798983979],[-97.86075721514432,19.28663798983979],[-97.92555851117024,19.171542853697062],[-98.03356067121344,19.215549817516333],[-98.14156283125664,19.120765587751748],[-98.14876297525952,19.11738043668872],[-98.36476729534591,19.225705270705404],[-98.52317046340927,19.459280694053874],[-98.65277305546113,19.466050996179916]]]}},{"type":"Feature","properties":{"name":"Puebla","cartodb_id":24,"created_at":"2013-12-01T18:59:38+0100","updated_at":"2013-12-01T18:59:38+0100"},"geometry":{"type":"Polygon","coordinates":[[[-98.70317406348128,18.497897792155825],[-98.71037420748416,18.497897792155825],[-98.7319746394928,18.77548017932358],[-98.63837276745537,19.009055602672035],[-98.63117262345249,19.015825904798078],[-98.65277305546113,19.37803706854136],[-98.659973199464,19.381422219604374],[-98.65277305546113,19.466050996179916],[-98.52317046340927,19.459280694053874],[-98.36476729534591,19.225705270705404],[-98.14876297525952,19.11738043668872],[-98.14156283125664,19.120765587751748],[-98.03356067121344,19.215549817516333],[-97.92555851117024,19.171542853697062],[-97.86075721514432,19.28663798983979],[-97.68795375907519,19.28663798983979],[-97.63755275105503,19.361111313226246],[-97.7959559191184,19.47282129830596],[-98.04076081521632,19.706396721654414],[-98.1559631192624,19.669160059961186],[-98.25676513530271,19.716552174843486],[-98.31436628732575,19.855343368427356],[-98.10556211124224,20.13969605772114],[-98.17756355127104,20.25817634492688],[-98.14876297525952,20.33264966831335],[-98.14156283125664,20.33264966831335],[-97.98315966319328,20.515447825716507],[-97.91835836716736,20.576380544850878],[-97.88235764715296,20.833652025640504],[-97.72395447908958,20.77271930650612],[-97.72395447908958,20.76933415544309],[-97.73835476709534,20.647468717174334],[-97.6807536150723,20.556069638472763],[-97.55835116702335,20.505292372527435],[-97.66635332706655,20.410508142762836],[-97.74555491109822,20.275102100241995],[-97.66635332706655,20.17016241728834],[-97.65915318306367,20.16677726622531],[-97.59435188703775,20.082148489649782],[-97.39994799895999,20.24125058961178],[-97.26314526290527,20.180317870477396],[-97.25594511890239,20.17693271941438],[-97.13354267085343,20.12277030240604],[-97.26314526290527,19.977208806696126],[-97.34234684693695,19.669160059961186],[-97.42874857497151,19.614997642952844],[-97.35674713494271,19.445740089801788],[-97.35674713494271,19.44235493873876],[-97.12634252685055,19.306948896217918],[-96.98953979079583,19.279867687713747],[-96.98953979079583,19.276482536650718],[-97.10474209484191,19.168157702634034],[-97.26314526290527,19.10045468137362],[-97.25594511890239,18.924426826096507],[-97.34954699093983,18.79579108570171],[-97.34234684693695,18.684081100621995],[-97.19114382287647,18.62653353255064],[-97.09034180683615,18.48774233896677],[-96.95353907078143,18.552060209164168],[-96.86713734274686,18.518208698533954],[-96.86713734274686,18.51482354747094],[-96.84553691073822,18.497897792155825],[-96.83833676673534,18.49451264109281],[-96.73033460669214,18.399728411328212],[-96.84553691073822,18.244011462429242],[-96.99673993479871,18.230470858177156],[-97.14074281485631,18.166152987979743],[-97.14074281485631,18.16953813904277],[-97.30634612692255,18.1593826858537],[-97.45034900698015,18.064598456089115],[-97.45034900698015,18.061213305026087],[-97.54395087901759,18.037517247584944],[-97.65915318306367,18.294788728374556],[-97.7959559191184,18.284633275185485],[-97.8679573591472,18.145842081601614],[-97.8319566391328,17.90888150719013],[-97.93275865517312,17.966429075261487],[-98.12716254325088,17.986739981639616],[-98.17036340726816,17.902111205064088],[-98.42236844736895,17.86487454337086],[-98.42956859137183,17.9833548305766],[-98.64557291145825,17.935962715694302],[-98.95517910358208,18.1898490454209],[-99.06318126362528,18.332025390067784],[-98.84717694353888,18.477586885777697],[-98.71037420748416,18.44712052621051],[-98.70317406348128,18.44712052621051],[-98.70317406348128,18.497897792155825]]]}},{"type":"Feature","properties":{"name":"Hidalgo","cartodb_id":25,"created_at":"2013-12-01T18:59:38+0100","updated_at":"2013-12-01T18:59:38+0100"},"geometry":{"type":"Polygon","coordinates":[[[-99.86239724794497,20.264946647052923],[-99.82639652793057,20.542529034220678],[-99.50239004780097,20.65762417036339],[-99.54559091181825,20.745638098001947],[-99.43758875177504,20.870888687333732],[-99.36558731174624,21.023220485169688],[-99.25758515170304,21.1044641106822],[-99.04158083161664,21.178937434068672],[-99.0559811196224,21.283877117022328],[-99.03438068761376,21.283877117022328],[-99.02718054361088,21.283877117022328],[-99.019980399608,21.29064741914837],[-99.01278025560512,21.294032570211385],[-98.92637852757056,21.294032570211385],[-98.82557651153024,21.162011678753558],[-98.72477449548992,21.182322585131686],[-98.72477449548992,21.185707736194715],[-98.60237204744095,21.2161740957619],[-98.62397247944959,21.3109583255265],[-98.63117262345249,21.314343476589514],[-98.50157003140063,21.388816799975984],[-98.48716974339487,21.398972253165056],[-98.47996959939199,21.395587102102027],[-98.54477089541791,21.270336512770243],[-98.4079681593632,21.155241376627515],[-98.40076801536031,21.155241376627515],[-98.29996599932,21.182322585131686],[-98.29996599932,21.185707736194715],[-98.27836556731135,21.14170077237543],[-98.27836556731135,21.138315621312415],[-98.2639652793056,21.14170077237543],[-98.25676513530271,21.134930470249387],[-98.14876297525952,21.0875383553671],[-98.25676513530271,20.887814442648846],[-98.44396887937759,20.837037176703518],[-98.50877017540351,20.73548264481289],[-98.50877017540351,20.732097493749862],[-98.47996959939199,20.589921149102963],[-98.59517190343807,20.498522070401393],[-98.53757075141503,20.346190272565437],[-98.45836916738335,20.33264966831335],[-98.12716254325088,20.58653599803995],[-98.12716254325088,20.589921149102963],[-97.98315966319328,20.515447825716507],[-98.14156283125664,20.33264966831335],[-98.14876297525952,20.33264966831335],[-98.17756355127104,20.25817634492688],[-98.10556211124224,20.13969605772114],[-98.31436628732575,19.855343368427356],[-98.25676513530271,19.716552174843486],[-98.37916758335167,19.6082273408268],[-98.58077161543231,19.638693700394],[-98.66717334346689,19.604842189763787],[-98.60237204744095,19.770714591851828],[-98.74637492749856,19.875654274805484],[-98.9119782395648,19.872269123742456],[-98.91917838356768,19.872269123742456],[-99.00558011160224,20.051682130082582],[-99.14958299165984,20.02798607264144],[-99.3079861597232,19.797795800356],[-99.48078961579232,19.90612063437267],[-99.43758875177504,19.997519713074254],[-99.53119062381249,20.163392115162296],[-99.71839436788737,20.16677726622531],[-99.86239724794497,20.264946647052923]]]}},{"type":"Feature","properties":{"name":"Veracruz de Ignacio de la Llave","cartodb_id":26,"created_at":"2013-12-01T18:59:38+0100","updated_at":"2013-12-01T18:59:38+0100"},"geometry":{"type":"Polygon","coordinates":[[[-97.25594511890239,20.17693271941438],[-97.26314526290527,20.180317870477396],[-97.39994799895999,20.24125058961178],[-97.59435188703775,20.082148489649782],[-97.65915318306367,20.16677726622531],[-97.66635332706655,20.17016241728834],[-97.74555491109822,20.275102100241995],[-97.66635332706655,20.410508142762836],[-97.55835116702335,20.505292372527435],[-97.6807536150723,20.556069638472763],[-97.73835476709534,20.647468717174334],[-97.72395447908958,20.76933415544309],[-97.72395447908958,20.77271930650612],[-97.88235764715296,20.833652025640504],[-97.91835836716736,20.576380544850878],[-97.98315966319328,20.515447825716507],[-98.12716254325088,20.589921149102963],[-98.12716254325088,20.58653599803995],[-98.45836916738335,20.33264966831335],[-98.53757075141503,20.346190272565437],[-98.59517190343807,20.498522070401393],[-98.47996959939199,20.589921149102963],[-98.50877017540351,20.732097493749862],[-98.50877017540351,20.73548264481289],[-98.44396887937759,20.837037176703518],[-98.25676513530271,20.887814442648846],[-98.14876297525952,21.0875383553671],[-98.25676513530271,21.134930470249387],[-98.2639652793056,21.14170077237543],[-98.27836556731135,21.138315621312415],[-98.27836556731135,21.14170077237543],[-98.29996599932,21.185707736194715],[-98.29996599932,21.182322585131686],[-98.40076801536031,21.155241376627515],[-98.4079681593632,21.155241376627515],[-98.54477089541791,21.270336512770243],[-98.47996959939199,21.395587102102027],[-98.48716974339487,21.398972253165056],[-98.50157003140063,21.388816799975984],[-98.50877017540351,21.398972253165056],[-98.51597031940639,21.40235740422807],[-98.51597031940639,21.456519821236412],[-98.51597031940639,21.459904972299427],[-98.62397247944959,21.585155561631225],[-98.60237204744095,21.669784338206753],[-98.45836916738335,21.764568567971352],[-98.54477089541791,21.859352797735937],[-98.46556931138623,21.964292480689608],[-98.42956859137183,22.133550033840663],[-98.34316686333727,22.23848971679432],[-98.68157363147265,22.370510608252147],[-98.67437348746977,22.40436211888236],[-98.49436988739775,22.428058176323518],[-98.48716974339487,22.42467302526049],[-98.37916758335167,22.38743636356726],[-98.21356427128543,22.465294838016746],[-97.89675793515872,22.22156396147922],[-97.7959559191184,22.258800623172448],[-97.70955419108383,21.971062782815636],[-97.50795015900319,21.713791302026024],[-97.32794655893119,21.56822980631611],[-97.42154843096863,21.3109583255265],[-97.42154843096863,21.222944397887943],[-97.19834396687935,20.70501628524569],[-97.13354267085343,20.600076602292035],[-96.98233964679295,20.46467055977118],[-96.44952899057982,19.85195821736434],[-96.37752755055102,19.5608352259445],[-96.3127262545251,19.482976751495016],[-96.30552611052222,19.334030104722075],[-96.1327226544531,19.21893496857936],[-96.07512150243006,19.06998832180642],[-95.96711934238685,19.05306256649132],[-95.88791775835517,18.846568351647022],[-95.57111142222846,18.71793261125221],[-95.1967039340787,18.704392007000123],[-94.95189903798077,18.548675058101153],[-94.82229644592893,18.54190475597511],[-94.73589471789437,18.389572958139155],[-94.62789255785117,18.291403577311527],[-94.60629212584253,18.200004498609957],[-94.46948938978781,18.149227232664643],[-94.13108262165244,18.213545102862042],[-94.10228204564092,18.16953813904277],[-94.09508190163804,18.166152987979743],[-94.08788175763516,18.108605419908386],[-94.08068161363228,18.101835117782343],[-94.0734814696294,18.054443002900044],[-94.08068161363228,18.044287549710987],[-94.08068161363228,17.868259694433874],[-93.95827916558332,17.803941824236475],[-93.95827916558332,17.800556673173446],[-93.95827916558332,17.797171522110432],[-93.87187743754876,17.719313047660947],[-93.86467729354588,17.719313047660947],[-93.84307686153724,17.71592789659792],[-93.83587671753436,17.71592789659792],[-93.81427628552572,17.702387292345833],[-93.80707614152284,17.70577244340886],[-93.7854757095142,17.692231839156776],[-93.77827556551132,17.692231839156776],[-93.75667513350268,17.685461537030733],[-93.75667513350268,17.682076385967704],[-93.73507470149404,17.634684271085405],[-93.73507470149404,17.63129912002239],[-93.62707254145084,17.550055494509877],[-93.61987239744796,17.550055494509877],[-93.6414728294566,17.46204156687132],[-93.6414728294566,17.458656415808306],[-93.6414728294566,17.455271264745278],[-93.6414728294566,17.451886113682264],[-93.6054721094422,17.316480071161408],[-93.80707614152284,17.23185129458588],[-93.86467729354588,17.13706706482128],[-94.92309846196925,17.19461463289265],[-94.93029860597213,17.32663552435048],[-95.07430148602973,17.37402763923278],[-95.25430508610174,17.60083276045519],[-95.23990479809598,17.739623954039075],[-95.42710854217086,17.64822487533749],[-95.57831156623133,17.53651489025779],[-95.69351387027741,17.522974286005706],[-95.77991559831197,17.60421791151822],[-95.7727154543091,17.607603062581234],[-95.86631732634653,17.682076385967704],[-95.80151603032061,17.949503319946388],[-95.83031660633213,18.128916326286515],[-96.16152323046462,18.13230147734953],[-96.28392567851358,18.257552066681328],[-96.29112582251646,18.260937217744342],[-96.4207284145683,18.497897792155825],[-96.4207284145683,18.501282943218854],[-96.4567291345827,18.568985964479282],[-96.65113302266046,18.65022958999178],[-96.68713374267486,18.491127490029783],[-96.68713374267486,18.48774233896677],[-96.73033460669214,18.399728411328212],[-96.83833676673534,18.49451264109281],[-96.84553691073822,18.497897792155825],[-96.86713734274686,18.51482354747094],[-96.86713734274686,18.518208698533954],[-96.95353907078143,18.552060209164168],[-97.09034180683615,18.48774233896677],[-97.19114382287647,18.62653353255064],[-97.34234684693695,18.684081100621995],[-97.34954699093983,18.79579108570171],[-97.25594511890239,18.924426826096507],[-97.26314526290527,19.10045468137362],[-97.10474209484191,19.168157702634034],[-96.98953979079583,19.276482536650718],[-96.98953979079583,19.279867687713747],[-97.12634252685055,19.306948896217918],[-97.35674713494271,19.44235493873876],[-97.35674713494271,19.445740089801788],[-97.42874857497151,19.614997642952844],[-97.34234684693695,19.669160059961186],[-97.26314526290527,19.977208806696126],[-97.13354267085343,20.12277030240604],[-97.25594511890239,20.17693271941438]]]}},{"type":"Feature","properties":{"name":"Nuevo León","cartodb_id":27,"created_at":"2013-12-01T18:59:38+0100","updated_at":"2013-12-01T18:59:38+0100"},"geometry":{"type":"Polygon","coordinates":[[[-100.10000200004,23.230338978259553],[-100.12160243204865,23.237109280385596],[-100.22960459209185,23.25064988463768],[-100.37360747214946,23.264190488889767],[-100.51761035220706,23.416522286725723],[-100.44560891217826,23.677178918578363],[-100.56081121622434,23.92090979511589],[-100.52481049620994,24.06985644188883],[-100.63281265625314,24.2255733907878],[-100.60401208024162,24.401601246064914],[-100.74081481629634,24.45914881413627],[-100.79841596831938,24.557318194963884],[-100.8272165443309,24.834900582131624],[-100.72641452829058,24.919529358707166],[-100.82001640032802,24.99738783315665],[-100.80561611232226,25.166645386307707],[-100.60401208024162,25.254659313946263],[-100.33040660813217,25.186956292685835],[-100.25120502410049,25.30543657989159],[-100.4672093441869,25.335902939458776],[-100.45280905618114,25.41376141390826],[-100.58241164823298,25.471308981979632],[-100.77681553631074,25.64733683725673],[-100.8632172643453,25.819979541470815],[-100.91361827236545,26.077251022260427],[-101.05042100842017,26.16865010096201],[-101.20882417648353,26.368374013680267],[-100.7552151043021,26.73397032848655],[-100.69041380827618,26.612104890217793],[-100.5392107842157,26.805058500810006],[-100.5392107842157,27.048789377347532],[-100.67601352027042,27.082640887977746],[-100.80561611232226,27.048789377347532],[-100.83441668833377,27.194350873057445],[-100.67601352027042,27.333142066641315],[-100.41680833616674,27.3940747857757],[-100.35200704014082,27.685197777195526],[-100.18640372807457,27.800292913338254],[-99.99919998399969,27.614109604872084],[-99.84079681593633,27.76982655377107],[-99.72559451189025,27.678427475069483],[-99.92719854397089,27.549791734674685],[-99.76159523190465,27.43808174959497],[-99.74719494389889,27.27559449856996],[-99.65359307186145,27.065715132662646],[-99.73279465589313,26.92015363695272],[-99.58879177583553,26.862606068881362],[-99.61759235184705,26.727200026360507],[-99.39438788775776,26.59517913490268],[-99.43038860777216,26.351448258365153],[-99.25758515170304,26.25327887753754],[-99.17118342366848,26.09417677757554],[-99.02074637237426,26.097201806185044],[-98.89757795155904,25.968926188243756],[-98.82557651153024,26.04678466269324],[-98.58797175943519,26.016318303126056],[-98.58077161543231,25.488234737294732],[-98.42236844736895,25.447612924538475],[-98.93357867157344,25.07186115654312],[-99.0919818396368,25.075246307606136],[-99.09918198363968,25.075246307606136],[-99.15678313566272,24.916144207644138],[-99.29358587171744,24.80443422256444],[-99.73279465589313,24.55393304390087],[-99.63919278385569,24.50654092901857],[-99.58879177583553,24.350823980119586],[-99.65359307186145,24.117248556771116],[-99.4879897597952,23.961531607872146],[-99.49518990379809,23.880287982359633],[-99.61759235184705,23.758422544090863],[-99.86239724794497,23.775348299405977],[-99.96319926398529,23.555313480309593],[-99.91999839996801,23.37928562503248],[-100.07840156803137,23.396211380347594],[-100.10000200004,23.230338978259553]]]}},{"type":"Feature","properties":{"name":"Coahuila de Zaragoza","cartodb_id":28,"created_at":"2013-12-01T18:59:38+0100","updated_at":"2013-12-01T18:59:38+0100"},"geometry":{"type":"Polygon","coordinates":[[[-100.79841596831938,24.557318194963884],[-100.95681913638273,24.543777590711798],[-101.12962259245185,24.62502121622431],[-101.18722374447489,24.750271805556096],[-101.34562691253826,24.814589675753496],[-101.46082921658434,24.73673120130401],[-101.60483209664194,24.834900582131624],[-101.77043540870818,24.87552239488788],[-101.84963699273986,25.01769873953478],[-102.29604592091843,25.126023573551464],[-102.46164923298467,25.115868120362393],[-102.44724894497891,25.000772984219665],[-102.67045340906819,25.06509085441708],[-102.85045700914019,24.770582711934225],[-102.92245844916899,24.780738165123296],[-102.92965859317187,24.777353014060267],[-103.05206104122084,24.81120452469048],[-103.05926118522372,24.814589675753496],[-103.26086521730436,24.963536322526437],[-103.26806536130724,25.06170570335405],[-103.36166723334468,25.10909781823635],[-103.4984699693994,25.312206882017634],[-103.36886737734756,25.41714656497129],[-103.49126982539651,25.539012003240046],[-103.36166723334468,25.671032894697873],[-103.34726694533892,26.14156889245784],[-103.26086521730436,26.283745237104725],[-103.3184663693274,26.361603711554224],[-103.37606752135044,26.601949437028722],[-103.70007400148003,26.723814875297492],[-103.85127702554053,26.896457579511576],[-103.74327486549731,27.02170816884336],[-103.88007760155205,27.312831160263187],[-103.85127702554053,27.549791734674685],[-103.93767875357509,27.796907762275225],[-103.94487889757796,27.928928653733067],[-103.86567731354629,28.111726811136208],[-103.642472849457,28.51117463657272],[-103.59927198543971,28.63981037696753],[-103.51287025740515,28.663506434408674],[-103.30406608132164,29.00540669177383],[-103.16726334526692,28.971555181143614],[-102.9152583051661,29.191590000239984],[-102.8072561451229,29.52333480441608],[-102.67765355307107,29.74336962351245],[-102.40404808096163,29.76368052989058],[-102.30324606492131,29.878775666033306],[-102.13044260885219,29.797532040520792],[-101.57603152063042,29.77045083201662],[-101.45362907258146,29.787376587331735],[-101.14402288045761,29.472557538470753],[-100.79841596831938,29.249137568311355],[-100.66161323226466,29.073109713034242],[-100.63281265625314,28.903852159883186],[-100.53201064021282,28.805682779055573],[-100.51041020820418,28.683817340786803],[-100.38800776015522,28.514559787635733],[-100.29440588811777,28.27759921322425],[-100.09280185603713,28.148963472829436],[-99.89839796795937,27.912002898417953],[-99.84079681593633,27.76982655377107],[-99.99919998399969,27.614109604872084],[-100.18640372807457,27.800292913338254],[-100.35200704014082,27.685197777195526],[-100.41680833616674,27.3940747857757],[-100.67601352027042,27.333142066641315],[-100.83441668833377,27.194350873057445],[-100.80561611232226,27.048789377347532],[-100.67601352027042,27.082640887977746],[-100.5392107842157,27.048789377347532],[-100.5392107842157,26.805058500810006],[-100.69041380827618,26.612104890217793],[-100.7552151043021,26.73397032848655],[-101.20882417648353,26.368374013680267],[-101.05042100842017,26.16865010096201],[-100.91361827236545,26.077251022260427],[-100.8632172643453,25.819979541470815],[-100.77681553631074,25.64733683725673],[-100.58241164823298,25.471308981979632],[-100.45280905618114,25.41376141390826],[-100.4672093441869,25.335902939458776],[-100.25120502410049,25.30543657989159],[-100.33040660813217,25.186956292685835],[-100.60401208024162,25.254659313946263],[-100.80561611232226,25.166645386307707],[-100.82001640032802,24.99738783315665],[-100.72641452829058,24.919529358707166],[-100.8272165443309,24.834900582131624],[-100.79841596831938,24.557318194963884]]]}},{"type":"Feature","properties":{"name":"Tamaulipas","cartodb_id":29,"created_at":"2013-12-01T18:59:38+0100","updated_at":"2013-12-01T18:59:38+0100"},"geometry":{"type":"Polygon","coordinates":[[[-98.67437348746977,22.40436211888236],[-98.88317766355328,22.35697000400006],[-98.93357867157344,22.394206665693304],[-99.2359847196944,22.414517572071432],[-99.32958659173184,22.634552391167816],[-99.49518990379809,22.62101178691573],[-99.68239364787297,22.6819445060501],[-99.84799695993921,22.678559354987087],[-100.02080041600833,22.725951469869386],[-100.04240084801697,22.9189050804616],[-100.10000200004,23.006919008100155],[-100.10720214404289,23.230338978259553],[-100.10000200004,23.230338978259553],[-100.07840156803137,23.396211380347594],[-99.91999839996801,23.37928562503248],[-99.96319926398529,23.555313480309593],[-99.86239724794497,23.775348299405977],[-99.61759235184705,23.758422544090863],[-99.49518990379809,23.880287982359633],[-99.4879897597952,23.961531607872146],[-99.65359307186145,24.117248556771116],[-99.58879177583553,24.350823980119586],[-99.63919278385569,24.50654092901857],[-99.73279465589313,24.55393304390087],[-99.29358587171744,24.80443422256444],[-99.15678313566272,24.916144207644138],[-99.09918198363968,25.075246307606136],[-99.0919818396368,25.075246307606136],[-98.93357867157344,25.07186115654312],[-98.42236844736895,25.447612924538475],[-98.58077161543231,25.488234737294732],[-98.58797175943519,26.016318303126056],[-98.82557651153024,26.04678466269324],[-98.89757795155904,25.968926188243756],[-99.02074637237426,26.097201806185044],[-99.17118342366848,26.09417677757554],[-99.25758515170304,26.25327887753754],[-99.43038860777216,26.351448258365153],[-99.39438788775776,26.59517913490268],[-99.61759235184705,26.727200026360507],[-99.58879177583553,26.862606068881362],[-99.73279465589313,26.92015363695272],[-99.65359307186145,27.065715132662646],[-99.74719494389889,27.27559449856996],[-99.76159523190465,27.43808174959497],[-99.92719854397089,27.549791734674685],[-99.72559451189025,27.678427475069483],[-99.55279105582113,27.614109604872084],[-99.44478889577792,27.258668743254844],[-99.4519890397808,27.06910028372566],[-99.32238644772896,26.916768485889705],[-99.20718414368288,26.723814875297492],[-99.17118342366848,26.537631566831323],[-99.0919818396368,26.405610675373495],[-98.79677593551872,26.361603711554224],[-98.65277305546113,26.236353122222425],[-98.43676873537471,26.219427366907325],[-98.1919638392768,26.053554964819284],[-97.99035980719616,26.06709556907137],[-97.65915318306367,26.03662920950417],[-97.52235044700895,25.887682562731243],[-97.14794295885919,25.952000432928642],[-97.19834396687935,25.63041108194163],[-97.49354987099743,25.10909781823635],[-97.65195303906079,24.61825091409827],[-97.69515390307807,24.421912152443042],[-97.73835476709534,23.981842514250275],[-97.73835476709534,23.68733437176742],[-97.76715534310686,23.43006289097781],[-97.76715534310686,22.8715129655793],[-97.85355707114144,22.634552391167816],[-97.86075721514432,22.47206514014279],[-97.7959559191184,22.258800623172448],[-97.89675793515872,22.22156396147922],[-98.21356427128543,22.465294838016746],[-98.37916758335167,22.38743636356726],[-98.48716974339487,22.42467302526049],[-98.49436988739775,22.428058176323518],[-98.67437348746977,22.40436211888236]]]}},{"type":"Feature","properties":{"name":"Yucatán","cartodb_id":30,"created_at":"2013-12-01T18:59:38+0100","updated_at":"2013-12-01T18:59:38+0100"},"geometry":{"type":"Polygon","coordinates":[[[-89.29978599571993,19.550679772755444],[-89.47978959579193,19.716552174843486],[-89.58059161183225,19.85195821736434],[-89.60219204384089,19.997519713074254],[-90.00540010800216,20.488366617212336],[-90.0702014040281,20.424048747014922],[-90.23580471609434,20.47144086189722],[-90.23580471609434,20.545914185283692],[-90.38700774015481,20.556069638472763],[-90.40140802816057,20.84380747882956],[-90.34380687613753,21.00290957879156],[-90.08460169203386,21.158626527690544],[-89.89739794795896,21.233099851077014],[-89.52299045980921,21.314343476589514],[-88.85337706754136,21.395587102102027],[-88.61577231544632,21.52422284249684],[-88.32776655533112,21.55130405100101],[-88.15496309926199,21.622392223324454],[-87.9389587791756,21.605466468009354],[-87.76615532310647,21.537763446748926],[-87.53575071501432,21.490371331866626],[-87.53575071501432,20.999524427728545],[-87.74455489109783,20.654239019300377],[-88.13336266725335,20.281872402368037],[-88.26296525930519,20.292027855557095],[-88.4429688593772,20.237865438548752],[-88.77417548350968,20.014445468389354],[-88.82457649152984,19.8790394258685],[-88.97577951559032,19.818106706734127],[-89.29978599571993,19.550679772755444]]]}},{"type":"Feature","properties":{"name":"Campeche","cartodb_id":31,"created_at":"2013-12-01T18:59:38+0100","updated_at":"2013-12-01T18:59:38+0100"},"geometry":{"type":"Polygon","coordinates":[[[-90.40140802816057,20.84380747882956],[-90.38700774015481,20.556069638472763],[-90.23580471609434,20.545914185283692],[-90.23580471609434,20.47144086189722],[-90.0702014040281,20.424048747014922],[-90.00540010800216,20.488366617212336],[-89.60219204384089,19.997519713074254],[-89.58059161183225,19.85195821736434],[-89.47978959579193,19.716552174843486],[-89.29978599571993,19.550679772755444],[-89.14858297165944,19.42542918342366],[-89.14858297165944,18.294788728374556],[-89.19898397967961,18.145842081601614],[-89.14858297165944,17.952888471009402],[-89.14858297165944,17.81409727742553],[-90.27900558011162,17.81409727742553],[-90.98461969239386,17.81409727742553],[-90.98461969239386,17.963043924198473],[-91.2222244444889,17.97658452845056],[-91.55343106862138,18.1593826858537],[-91.61103222064442,18.101835117782343],[-91.63983279665594,17.875029996559917],[-91.80543610872219,17.97319937738753],[-92.11504230084603,18.0950648156563],[-92.17984359687195,18.267707519870385],[-92.17264345286907,18.45727597939957],[-92.34544690893819,18.450505677273526],[-92.34544690893819,18.443735375147497],[-92.42464849296987,18.548675058101153],[-92.42464849296987,18.555445360227196],[-92.46784935698714,18.65022958999178],[-91.95663913278267,18.69762170487408],[-91.92063841276827,18.646844438928767],[-91.7262345246905,18.684081100621995],[-91.49582991659834,18.789020783575666],[-91.38782775655514,18.897345617592336],[-91.19342386847738,18.988744696293907],[-90.8982179643593,19.185083457949148],[-90.72541450829017,19.35095586003719],[-90.70381407628153,19.68270066421327],[-90.45180903618073,19.950127598191955],[-90.48780975619513,20.048296979019568],[-90.5022100442009,20.50190722146442],[-90.40140802816057,20.84380747882956]]]}},{"type":"Feature","properties":{"name":"Quintana Roo","cartodb_id":32,"created_at":"2013-12-01T18:59:38+0100","updated_at":"2013-12-01T18:59:38+0100"},"geometry":{"type":"MultiPolygon","coordinates":[[[[-89.14858297165944,17.952888471009402],[-89.19898397967961,18.145842081601614],[-89.14858297165944,18.294788728374556],[-89.14858297165944,19.42542918342366],[-89.29978599571993,19.550679772755444],[-88.97577951559032,19.818106706734127],[-88.82457649152984,19.8790394258685],[-88.77417548350968,20.014445468389354],[-88.4429688593772,20.237865438548752],[-88.26296525930519,20.292027855557095],[-88.13336266725335,20.281872402368037],[-87.74455489109783,20.654239019300377],[-87.53575071501432,20.999524427728545],[-87.53575071501432,21.490371331866626],[-87.23334466689334,21.4226683106062],[-87.11094221884439,21.470060425488498],[-87.1037420748415,21.585155561631225],[-86.95973919478391,21.527607993559855],[-86.85173703474071,21.253410757455143],[-86.75093501870039,21.1213898659973],[-86.84453689073783,20.904740197963946],[-87.02454049080983,20.671164774615477],[-87.2477449548991,20.484981466149307],[-87.4277485549711,20.220939683233652],[-87.47814956299128,20.09230394283884],[-87.46374927498552,19.88919487905757],[-87.74455489109783,19.587916434448672],[-87.614952299046,19.55406492381846],[-87.41334826696534,19.601457038700758],[-87.44214884297688,19.466050996179916],[-87.63655273105464,19.37465191747833],[-87.67975359507192,19.198624062201233],[-87.52855057101144,19.22909042176842],[-87.55015100302008,19.07337347286945],[-87.62935258705176,18.94135258141162],[-87.71575431508631,18.704392007000123],[-87.76615532310647,18.406498713454255],[-87.84535690713815,18.227085707114128],[-88.03256065121303,18.1593826858537],[-88.03256065121303,18.413269015580298],[-88.24856497129943,18.416654166643326],[-88.24856497129943,18.474201734714683],[-88.4789695793916,18.491127490029783],[-88.60857217144344,18.23385600924017],[-88.694973899478,18.1898490454209],[-88.71657433148664,18.061213305026087],[-88.8029760595212,17.959658773135445],[-88.91817836356728,17.915651809316174],[-89.04778095561912,18.00366573695473],[-89.14858297165944,17.952888471009402]]],[[[-86.94533890677815,20.51883297677952],[-86.72933458669175,20.562839940598792],[-86.93093861877239,20.312338761935223],[-87.02454049080983,20.349575423628465],[-86.94533890677815,20.51883297677952]]]]}},{"type":"Feature","properties":{"name":"Guerrero","cartodb_id":2,"created_at":"2013-12-01T18:59:38+0100","updated_at":"2013-12-01T18:59:38+0100"},"geometry":{"type":"Polygon","coordinates":[[[-102.13044260885219,17.952888471009402],[-102.18084361687235,18.098449966719315],[-102.13044260885219,18.1898490454209],[-102.12324246484931,18.18646389435787],[-101.98643972879458,18.203389649672985],[-101.86403728074562,18.284633275185485],[-101.88563771275426,18.535134453849068],[-101.72003440068802,18.612992928298553],[-101.62643252865058,18.599452324046467],[-101.5112302246045,18.48774233896677],[-101.27362547250947,18.54190475597511],[-100.99281985639713,18.491127490029783],[-100.98561971239425,18.48774233896677],[-100.78401568031362,18.46743143258864],[-100.65441308826178,18.359106598571955],[-100.58961179223586,18.416654166643326],[-100.74081481629634,18.518208698533954],[-100.78401568031362,18.707777158063152],[-100.77681553631074,18.714547460189195],[-100.61841236824738,18.880419862277236],[-100.6112122242445,18.88380501334025],[-100.45280905618114,18.782250481449623],[-100.45280905618114,18.778865330386594],[-100.44560891217826,18.778865330386594],[-100.43840876817538,18.778865330386594],[-100.48880977619554,18.640074136802724],[-100.38800776015522,18.426809619832383],[-100.30160603212065,18.37264720282404],[-100.09280185603713,18.521593849596982],[-99.78319566391329,18.640074136802724],[-99.73999479989601,18.738243517630337],[-99.49518990379809,18.721317762315238],[-99.48078961579232,18.69762170487408],[-99.48078961579232,18.694236553811066],[-99.32958659173184,18.460661130462597],[-99.13518270365408,18.46404628152561],[-99.06318126362528,18.332025390067784],[-98.95517910358208,18.1898490454209],[-98.64557291145825,17.935962715694302],[-98.42956859137183,17.9833548305766],[-98.42236844736895,17.86487454337086],[-98.48716974339487,17.682076385967704],[-98.32876657533151,17.53651489025779],[-98.3359667193344,17.455271264745278],[-98.20636412728255,17.22169584139681],[-98.22076441528831,17.123526460569195],[-98.10556211124224,17.08967494993898],[-98.07676153523072,16.845944073401455],[-98.13436268725376,16.724078635132685],[-98.23516470329407,16.707152879817585],[-98.20636412728255,16.588672592611843],[-98.39356787135743,16.548050779855586],[-98.35036700734015,16.44311109690193],[-98.55197103942079,16.317860507570146],[-98.77517550351008,16.55482108198163],[-98.9119782395648,16.5345101756035],[-99.43758875177504,16.680071671313414],[-99.60319206384129,16.683456822376442],[-99.76159523190465,16.744389541510813],[-99.95599911998241,16.893336188283754],[-101.0432208644173,17.272473107342137],[-101.20162403248065,17.428190056241107],[-101.42482849656994,17.51958913494269],[-101.45362907258146,17.580521854077062],[-101.64083281665634,17.66853578171562],[-101.82083641672834,17.895340902938045],[-102.03684073681474,17.990125132702644],[-102.13044260885219,17.952888471009402]]]}},{"type":"Feature","properties":{"name":"Distrito Federal","cartodb_id":1,"created_at":"2013-12-01T18:59:38+0100","updated_at":"2013-12-01T18:59:38+0100"},"geometry":{"type":"Polygon","coordinates":[[[-98.97677953559072,19.07337347286945],[-99.06318126362528,19.04967741542829],[-99.27918558371168,19.130921040940805],[-99.35838716774336,19.306948896217918],[-99.22878457569152,19.418658881297617],[-99.20718414368288,19.51682826212523],[-99.10638212764256,19.56422037700753],[-99.11358227164544,19.557450074881487],[-99.0559811196224,19.39834797491949],[-98.95517910358208,19.323874651533018],[-98.97677953559072,19.07337347286945]]]}},{"type":"Feature","properties":{"name":"México","cartodb_id":3,"created_at":"2013-12-01T18:59:38+0100","updated_at":"2013-12-01T18:59:38+0100"},"geometry":{"type":"Polygon","coordinates":[[[-100.45280905618114,18.782250481449623],[-100.6112122242445,18.88380501334025],[-100.48160963219266,19.02598135798715],[-100.48160963219266,19.029366509050163],[-100.40960819216386,19.063218019680377],[-100.32320646412929,19.242631026020504],[-100.29440588811777,19.39496282385646],[-100.18640372807457,19.44235493873876],[-100.26560531210625,19.696241268465357],[-100.16480329606593,19.713167023780457],[-100.12880257605153,19.912890936498712],[-100.15040300806017,20.05506728114561],[-100.14320286405729,20.051682130082582],[-100.14320286405729,20.048296979019568],[-100.1360027200544,20.041526676893525],[-100.10000200004,20.02798607264144],[-100.09280185603713,20.024600921578426],[-99.92719854397089,20.065222734334668],[-99.93439868797377,20.160006964099267],[-99.93439868797377,20.163392115162296],[-99.94159883197665,20.180317870477396],[-99.94159883197665,20.183703021540424],[-99.91279825596513,20.28525755343105],[-99.89839796795937,20.281872402368037],[-99.86239724794497,20.268331798115952],[-99.86239724794497,20.264946647052923],[-99.71839436788737,20.16677726622531],[-99.53119062381249,20.163392115162296],[-99.43758875177504,19.997519713074254],[-99.48078961579232,19.90612063437267],[-99.3079861597232,19.797795800356],[-99.14958299165984,20.02798607264144],[-99.00558011160224,20.051682130082582],[-98.91917838356768,19.872269123742456],[-98.9119782395648,19.872269123742456],[-98.74637492749856,19.875654274805484],[-98.60237204744095,19.770714591851828],[-98.66717334346689,19.604842189763787],[-98.70317406348128,19.567605528070544],[-98.70317406348128,19.56422037700753],[-98.65277305546113,19.466050996179916],[-98.659973199464,19.381422219604374],[-98.65277305546113,19.37803706854136],[-98.63117262345249,19.015825904798078],[-98.65277305546113,19.00567045160902],[-98.71757435148704,18.944737732474636],[-98.84717694353888,18.954893185663707],[-98.97677953559072,19.07337347286945],[-98.95517910358208,19.323874651533018],[-99.0559811196224,19.39834797491949],[-99.11358227164544,19.557450074881487],[-99.10638212764256,19.56422037700753],[-99.20718414368288,19.51682826212523],[-99.22878457569152,19.418658881297617],[-99.35838716774336,19.306948896217918],[-99.27918558371168,19.130921040940805],[-99.3079861597232,18.95150803460068],[-99.43038860777216,18.877034711214208],[-99.49518990379809,18.721317762315238],[-99.73999479989601,18.738243517630337],[-99.78319566391329,18.640074136802724],[-100.09280185603713,18.521593849596982],[-100.30160603212065,18.37264720282404],[-100.38800776015522,18.426809619832383],[-100.48880977619554,18.640074136802724],[-100.43840876817538,18.778865330386594],[-100.44560891217826,18.778865330386594],[-100.45280905618114,18.778865330386594],[-100.45280905618114,18.782250481449623]]]}},{"type":"Feature","properties":{"name":"Morelos","cartodb_id":4,"created_at":"2013-12-01T18:59:38+0100","updated_at":"2013-12-01T18:59:38+0100"},"geometry":{"type":"Polygon","coordinates":[[[-99.06318126362528,18.332025390067784],[-99.13518270365408,18.46404628152561],[-99.32958659173184,18.460661130462597],[-99.48078961579232,18.694236553811066],[-99.48078961579232,18.69762170487408],[-99.49518990379809,18.721317762315238],[-99.43038860777216,18.877034711214208],[-99.3079861597232,18.95150803460068],[-99.27918558371168,19.130921040940805],[-99.06318126362528,19.04967741542829],[-98.97677953559072,19.07337347286945],[-98.84717694353888,18.954893185663707],[-98.71757435148704,18.944737732474636],[-98.65277305546113,19.00567045160902],[-98.63837276745537,19.009055602672035],[-98.7319746394928,18.77548017932358],[-98.71037420748416,18.497897792155825],[-98.70317406348128,18.497897792155825],[-98.70317406348128,18.44712052621051],[-98.71037420748416,18.44712052621051],[-98.84717694353888,18.477586885777697],[-99.06318126362528,18.332025390067784]]]}},{"type":"Feature","properties":{"name":"Sinaloa","cartodb_id":5,"created_at":"2013-12-01T18:59:38+0100","updated_at":"2013-12-01T18:59:38+0100"},"geometry":{"type":"Polygon","coordinates":[[[-109.25858517170344,26.320981898797967],[-109.0929818596372,26.31759674773494],[-108.8409768195364,26.473313696633923],[-108.86977739554791,26.551172171083408],[-108.63217264345288,26.676422760415193],[-108.46656933138664,26.970930902898047],[-108.50257005140104,26.987856658213147],[-108.1929638592772,27.031863622032432],[-108.2289645792916,26.90322788163762],[-108.09216184323687,26.869376371007405],[-108.0057601152023,26.76105153699072],[-108.07056141122823,26.63241579659592],[-108.07056141122823,26.629030645532893],[-107.95535910718215,26.51055035832715],[-108.01296025920519,26.43946218600371],[-107.85455709114183,26.195731309466183],[-107.50895017900359,26.11448768395367],[-107.41534830696615,26.14156889245784],[-107.30734614692295,26.077251022260427],[-107.2929458589172,25.92491922442447],[-107.06254125082502,25.75904682233643],[-106.9977399547991,25.660877441508816],[-107.20654413088262,25.41714656497129],[-107.12734254685094,25.190341443748864],[-107.12734254685094,25.051550250164993],[-106.71693433868678,24.67241333110661],[-106.5297305946119,24.296661563111243],[-106.37132742654853,24.30004671417427],[-106.27052541050821,24.374520037560742],[-106.09052181043621,24.286506109922186],[-106.00412008240166,24.15448521846436],[-105.99691993839878,24.04277523338466],[-105.91051821036422,23.998768269565375],[-105.96091921838438,23.839666169603376],[-105.91051821036422,23.589164990939807],[-105.82411648232966,23.609475897317935],[-105.7017140342807,23.423292588851766],[-105.69451389027782,23.311582603772067],[-105.69451389027782,23.308197452709038],[-105.64411288225766,23.138939899557982],[-105.57931158623174,23.108473539990783],[-105.57211144222886,23.108473539990783],[-105.39210784215685,23.08477748254964],[-105.5217104342087,22.7598029804996],[-105.43530870617413,22.583775125222488],[-105.46410928218565,22.505916650773003],[-105.6657133142663,22.583775125222488],[-105.75931518630374,22.536383010340188],[-105.86731734634694,22.709025714554272],[-106.04012080241606,22.841046606012114],[-106.14812296245925,22.9662971953439],[-106.4577291545831,23.24387958251164],[-106.47932958659175,23.328508359087166],[-106.79613592271846,23.683949220704406],[-106.8897377947559,23.843051320666405],[-107.19934398687974,24.10709310358206],[-107.55215104302087,24.34743882905657],[-107.81135622712455,24.4963854758295],[-107.97695953919079,24.631791518350354],[-108.02016040320807,24.73673120130401],[-108.2289645792916,25.027854192723836],[-108.45216904338088,25.25804446500929],[-108.60337206744136,25.329132637332734],[-109.0209804196084,25.43745747134942],[-109.20818416368328,25.616870477689545],[-109.39538790775816,25.637181384067674],[-109.44578891577832,25.962155886117714],[-109.25858517170344,26.320981898797967]]]}}]}