{"type":"FeatureCollection","features":[{"type":"Feature","id":"MN","properties":{"ct":[-94.3,46.32],"gu":"USA","id":"MN","postal":"MN","name":"Minnesota"},"geometry":{"type":"Polygon","coordinates":[[[-92.00720072007199,46.712171217121714],[-92.28022802280228,46.652665266526654],[-92.26722672267226,46.09160916091609],[-92.29322932293229,46.1001100110011],[-92.54025402540253,45.98959895989599],[-92.76127612761276,45.887588758875886],[-92.9042904290429,45.70907090709071],[-92.68326832683267,45.522052205220525],[-92.76127612761276,45.267026702670265],[-92.76127612761276,44.99499949995],[-92.80028002800279,44.77397739773978],[-92.50125012501249,44.58695869586959],[-92.38423842384238,44.57845784578458],[-92.05920592059205,44.43394339433944],[-91.95519551955195,44.36593659365937],[-91.87718771877186,44.255425542554256],[-91.63016301630162,44.08540854085409],[-91.29212921292128,43.94089408940894],[-91.25312531253124,43.855885588558856],[-91.25312531253124,43.61786178617862],[-91.22712271227122,43.4988498849885],[-92.54025402540253,43.515851585158515],[-93.99639963996398,43.515851585158515],[-95.36153615361535,43.4988498849885],[-96.45364536453644,43.4988498849885],[-96.44064406440643,44.43394339433944],[-96.55765576557656,45.3945394539454],[-96.73967396739673,45.47104710471047],[-96.83068306830683,45.624062406240625],[-96.77867786778677,45.76007600760076],[-96.55765576557656,45.87058705870587],[-96.54465446544654,46.01510151015101],[-96.54465446544654,46.2021202120212],[-96.59665966596658,46.35513551355135],[-96.68766876687668,46.51665166516652],[-96.73967396739673,46.72067206720672],[-96.73967396739673,46.94169416941694],[-96.77867786778677,47.001200120012],[-96.81768176817681,47.29022902290229],[-96.83068306830683,47.42624262426243],[-96.84368436843684,47.54525452545255],[-96.89568956895688,47.74927492749275],[-97.01270127012701,47.953295329532956],[-97.12971297129712,48.14031403140314],[-97.14271427142714,48.31883188318832],[-97.15571557155715,48.51435143514352],[-97.12971297129712,48.641864186418644],[-97.11671167116711,48.760876087608764],[-97.2077207720772,48.905390539053904],[-97.23372337233722,48.998899889989],[-96.16761676167616,48.998899889989],[-95.15351535153515,48.998899889989],[-95.15351535153515,49.262426242624265],[-95.15351535153515,49.381438143814385],[-94.98449844984498,49.38993899389939],[-94.8154815481548,49.38993899389939],[-94.76347634763475,49.21992199219922],[-94.64646464646464,48.83738373837384],[-94.33443344334432,48.66736673667367],[-93.91839183918391,48.63336333633364],[-93.63236323632363,48.60786078607861],[-92.6052605260526,48.44634463446345],[-91.95519551955195,48.24232423242324],[-91.64316431643164,48.14031403140314],[-91.33113311331132,48.19131913191319],[-90.82408240824081,48.26782678267827],[-89.60196019601959,48.012801280128016],[-90.61606160616061,47.68126812681268],[-91.33113311331132,47.28172817281728],[-92.00720072007199,46.856685668566854],[-92.00720072007199,46.712171217121714]]]}},{"type":"Feature","id":"MT","properties":{"ct":[-109.66,47.05],"gu":"USA","id":"MT","postal":"MT","name":"Montana"},"geometry":{"type":"Polygon","coordinates":[[[-104.09840984098409,48.998899889989],[-104.07240724072406,47.171217121712175],[-104.02040204020402,45.95559555955596],[-104.07240724072406,45.03750375037504],[-105.74957495749574,45.05450545054506],[-107.54375437543754,45.046004600460044],[-109.1039103910391,45.05450545054506],[-111.06710671067106,45.046004600460044],[-111.06710671067106,44.54445444544454],[-111.08010801080107,44.501950195019504],[-111.1971197119712,44.561456145614564],[-111.28812881288128,44.6974697469747],[-111.4051405140514,44.73147314731473],[-111.54815481548154,44.52745274527453],[-111.76917691769177,44.501950195019504],[-112.34123412341233,44.561456145614564],[-112.36723672367236,44.459445944594464],[-112.69226922692269,44.501950195019504],[-112.87428742874287,44.35743574357436],[-113.05630563056305,44.620962096209624],[-113.17331733173317,44.765476547654764],[-113.38133813381337,44.79097909790979],[-113.43334333433343,44.85898589858986],[-113.49834983498349,45.122512251225125],[-113.68036803680367,45.25002500250025],[-113.79737973797378,45.564556455645565],[-113.91439143914391,45.7005700570057],[-114.03140314031403,45.726072607260726],[-114.13541354135413,45.59005900590059],[-114.33043304330432,45.47104710471047],[-114.51245124512451,45.57305730573057],[-114.52545254525452,45.828082808280826],[-114.4084408440844,45.887588758875886],[-114.48644864486448,46.15111511151115],[-114.3954395439544,46.40614061406141],[-114.27842784278427,46.635663566356634],[-114.59045904590458,46.64416441644165],[-114.83748374837484,46.78867886788679],[-115.12351235123512,47.094709470947095],[-115.29252925292529,47.24772477247725],[-115.5135513551355,47.34123412341234],[-115.7085708570857,47.5027502750275],[-115.7085708570857,47.68126812681268],[-115.96859685968596,47.953295329532956],[-116.04660466046604,48.998899889989],[-113.004300430043,48.998899889989],[-110.05300530053005,48.998899889989],[-107.04970497049705,48.998899889989],[-104.09840984098409,48.998899889989]]]}},{"type":"Feature","id":"ND","properties":{"ct":[-100.48,47.46],"gu":"USA","id":"ND","postal":"ND","name":"North Dakota"},"geometry":{"type":"Polygon","coordinates":[[[-97.23372337233722,48.998899889989],[-97.2077207720772,48.905390539053904],[-97.11671167116711,48.760876087608764],[-97.12971297129712,48.641864186418644],[-97.15571557155715,48.51435143514352],[-97.14271427142714,48.31883188318832],[-97.12971297129712,48.14031403140314],[-97.01270127012701,47.953295329532956],[-96.89568956895688,47.74927492749275],[-96.84368436843684,47.54525452545255],[-96.83068306830683,47.42624262426243],[-96.81768176817681,47.29022902290229],[-96.77867786778677,47.001200120012],[-96.73967396739673,46.94169416941694],[-96.73967396739673,46.72067206720672],[-96.68766876687668,46.51665166516652],[-96.59665966596658,46.35513551355135],[-96.54465446544654,46.2021202120212],[-96.54465446544654,46.01510151015101],[-98.44284428442843,45.964096409640966],[-100.06800680068007,45.964096409640966],[-102.12221222122211,45.964096409640966],[-104.02040204020402,45.95559555955596],[-104.07240724072406,47.171217121712175],[-104.09840984098409,48.998899889989],[-104.04640464046403,48.998899889989],[-100.65306530653065,48.998899889989],[-97.23372337233722,48.998899889989]]]}},{"type":"Feature","id":"HI","properties":{"ct":[-155.52,19.6],"gu":"USA","id":"HI","postal":"HI","name":"Hawaii"},"geometry":{"type":"MultiPolygon","coordinates":[[[[-155.4015401540154,20.079007900790078],[-155.2195219521952,19.993999399939995],[-155.06350635063507,19.857985798579858],[-154.8034803480348,19.50945094509451],[-154.82948294829484,19.44994499449945],[-155.2195219521952,19.237423742374236],[-155.54455445544554,19.084408440844086],[-155.6875687568757,18.914391439143916],[-155.93459345934593,19.05890589058906],[-155.9085908590859,19.33943394339434],[-156.07760776077606,19.704970497049704],[-156.02560256025603,19.815481548154814],[-155.84358435843583,19.976997699769978],[-155.92159215921592,20.17251725172517],[-155.85658565856585,20.266026602660265],[-155.77857785778576,20.249024902490248],[-155.4015401540154,20.079007900790078]]],[[[-155.999599959996,20.76757675767577],[-156.07760776077606,20.64006400640064],[-156.4156415641564,20.572057205720572],[-156.5846584658466,20.784578457845786],[-156.7016701670167,20.861086108610863],[-156.7146714671467,20.92909290929093],[-156.61066106610662,21.014101410141013],[-156.25962596259626,20.92059205920592],[-155.999599959996,20.76757675767577]]],[[[-156.75367536753674,21.175617561756177],[-156.7926792679268,21.065106510651066],[-157.3257325732573,21.0991099109911],[-157.24772477247726,21.21812181218122],[-156.75367536753674,21.175617561756177]]],[[[-158.02780278027802,21.71967196719672],[-157.93679367936792,21.65166516651665],[-157.65076507650764,21.32013201320132],[-157.7027702770277,21.26062606260626],[-157.78077807780778,21.277627762776277],[-158.13181318131814,21.311631163116314],[-158.24882488248824,21.54115411541154],[-158.28782878287828,21.575157515751574],[-158.02780278027802,21.71967196719672]]],[[[-159.36693669366937,22.21272127212721],[-159.34093409340934,21.983198319831985],[-159.45794579457944,21.88118811881188],[-159.79597959795979,22.068206820682068],[-159.74397439743973,22.13621362136214],[-159.6009600960096,22.23822382238224],[-159.36693669366937,22.21272127212721]]]]}},{"type":"Feature","id":"ID","properties":{"ct":[-114.65,44.39],"gu":"USA","id":"ID","postal":"ID","name":"Idaho"},"geometry":{"type":"Polygon","coordinates":[[[-116.04660466046604,48.998899889989],[-115.96859685968596,47.953295329532956],[-115.7085708570857,47.68126812681268],[-115.7085708570857,47.5027502750275],[-115.5135513551355,47.34123412341234],[-115.29252925292529,47.24772477247725],[-115.12351235123512,47.094709470947095],[-114.83748374837484,46.78867886788679],[-114.59045904590458,46.64416441644165],[-114.27842784278427,46.635663566356634],[-114.3954395439544,46.40614061406141],[-114.48644864486448,46.15111511151115],[-114.4084408440844,45.887588758875886],[-114.52545254525452,45.828082808280826],[-114.51245124512451,45.57305730573057],[-114.33043304330432,45.47104710471047],[-114.13541354135413,45.59005900590059],[-114.03140314031403,45.726072607260726],[-113.91439143914391,45.7005700570057],[-113.79737973797378,45.564556455645565],[-113.68036803680367,45.25002500250025],[-113.49834983498349,45.122512251225125],[-113.43334333433343,44.85898589858986],[-113.38133813381337,44.79097909790979],[-113.17331733173317,44.765476547654764],[-113.05630563056305,44.620962096209624],[-112.87428742874287,44.35743574357436],[-112.69226922692269,44.501950195019504],[-112.36723672367236,44.459445944594464],[-112.34123412341233,44.561456145614564],[-111.76917691769177,44.501950195019504],[-111.54815481548154,44.52745274527453],[-111.4051405140514,44.73147314731473],[-111.28812881288128,44.6974697469747],[-111.1971197119712,44.561456145614564],[-111.08010801080107,44.501950195019504],[-111.05410541054104,44.48494849484948],[-111.05410541054104,42.002700270027006],[-114.03140314031403,41.99419941994199],[-117.03470347034703,42.002700270027006],[-117.00870087008701,43.796379637963796],[-116.93069306930693,44.08540854085409],[-117.00870087008701,44.21292129212922],[-117.19071907190718,44.28092809280928],[-117.19071907190718,44.44244424442444],[-117.04770477047704,44.663466346634664],[-116.83968396839683,44.86748674867487],[-116.6966696669667,45.19051905190519],[-116.55365536553654,45.445544554455445],[-116.46264626462646,45.57305730573057],[-116.5146514651465,45.726072607260726],[-116.68366836683668,45.81108110811081],[-116.91769176917691,45.998099809981],[-116.9046904690469,46.17661766176618],[-116.995699569957,46.32963296329633],[-117.02170217021703,47.72377237723772],[-117.03470347034703,48.998899889989],[-116.38463846384639,48.998899889989],[-116.04660466046604,48.998899889989]]]}},{"type":"Feature","id":"WA","properties":{"ct":[-120.4,47.38],"gu":"USA","id":"WA","postal":"WA","name":"Washington"},"geometry":{"type":"Polygon","coordinates":[[[-117.03470347034703,48.998899889989],[-117.02170217021703,47.72377237723772],[-116.995699569957,46.32963296329633],[-116.9046904690469,46.17661766176618],[-116.91769176917691,45.998099809981],[-118.97189718971896,45.98959895989599],[-119.33593359335933,45.887588758875886],[-119.59595959595958,45.93009300930093],[-119.79097909790978,45.85358535853585],[-120.15501550155015,45.743074307430746],[-120.61006100610061,45.75157515751575],[-120.83108310831082,45.67506750675068],[-121.05210521052105,45.64106410641064],[-121.2081208120812,45.69206920692069],[-121.55915591559156,45.73457345734573],[-121.79317931793179,45.7005700570057],[-122.17021702170217,45.5985598559856],[-122.41724172417241,45.59005900590059],[-122.65126512651264,45.63256325632563],[-122.72927292729273,45.76857685768577],[-122.75527552755275,45.93859385938594],[-122.93729372937293,46.125612561256126],[-123.22332233223321,46.185118511851186],[-123.47034703470347,46.27862786278628],[-123.78237823782378,46.27862786278628],[-124.003400340034,46.28712871287129],[-124.08140814081408,46.86518651865187],[-124.39343934393439,47.72377237723772],[-124.69246924692469,48.18281828182818],[-124.56245624562456,48.37833783378338],[-123.11931193119312,48.038303830383036],[-122.58625862586258,47.094709470947095],[-122.33923392339233,47.35823582358236],[-122.36523652365236,47.46874687468747],[-122.4952495249525,48.18281828182818],[-122.84628462846284,48.998899889989],[-119.99899989999,48.998899889989],[-118.33483348334832,48.998899889989],[-117.03470347034703,48.998899889989]]]}},{"type":"Feature","id":"AZ","properties":{"ct":[-111.66,34.3],"gu":"USA","id":"AZ","postal":"AZ","name":"Arizona"},"geometry":{"type":"Polygon","coordinates":[[[-109.03890389038904,36.995699569957],[-109.03890389038904,31.342634263426344],[-111.02810281028103,31.334133413341334],[-113.3033303330333,32.03970397039704],[-114.35643564356435,32.37973797379738],[-114.81148114811481,32.52425242524252],[-114.72047204720471,32.71977197719772],[-114.59045904590458,32.71977197719772],[-114.47344734473447,32.91529152915292],[-114.65546554655465,33.05130513051305],[-114.6944694469447,33.204320432043204],[-114.74647464746474,33.382838283828384],[-114.55145514551455,33.61236123612361],[-114.47344734473447,34.07140714071407],[-114.16141614161415,34.27542754275428],[-114.35643564356435,34.462446244624466],[-114.48644864486448,34.64946494649465],[-114.56445644564455,34.82798279827983],[-114.61646164616461,34.96399639963997],[-114.64246424642464,35.04900490049005],[-114.57745774577457,35.253025302530254],[-114.62946294629462,35.44854485448545],[-114.65546554655465,35.635563556355635],[-114.65546554655465,35.856585658565855],[-114.73347334733472,35.992599259925996],[-114.66846684668467,36.11161116111611],[-114.46044604460445,36.11161116111611],[-114.26542654265425,36.04360436043604],[-114.13541354135413,36.001100110011],[-114.07040704070407,36.154115411541156],[-114.01840184018401,36.18811881188119],[-114.03140314031403,36.995699569957],[-112.41924192419242,37.01270127012701],[-110.49504950495049,37.004200420042004],[-109.03890389038904,36.995699569957]]]}},{"type":"Feature","id":"CA","properties":{"ct":[-119.64,37.26],"gu":"USA","id":"CA","postal":"CA","name":"California"},"geometry":{"type":"Polygon","coordinates":[[[-114.64246424642464,35.04900490049005],[-114.61646164616461,34.96399639963997],[-114.56445644564455,34.82798279827983],[-114.48644864486448,34.64946494649465],[-114.35643564356435,34.462446244624466],[-114.16141614161415,34.27542754275428],[-114.47344734473447,34.07140714071407],[-114.55145514551455,33.61236123612361],[-114.74647464746474,33.382838283828384],[-114.6944694469447,33.204320432043204],[-114.65546554655465,33.05130513051305],[-114.47344734473447,32.91529152915292],[-114.59045904590458,32.71977197719772],[-114.72047204720471,32.71977197719772],[-115.99459945994599,32.60926092609261],[-117.03470347034703,32.54125412541254],[-117.12571257125711,32.532753275327536],[-117.2947294729473,33.042804280428044],[-117.94479447944795,33.620862086208625],[-118.4128412841284,33.73987398739874],[-118.51685168516852,34.02890289028903],[-119.07590759075907,34.07990799079908],[-119.43994399439944,34.35193519351935],[-120.36303630363037,34.445444544454446],[-120.62306230623062,34.606960696069606],[-120.62306230623062,34.62396239623963],[-120.74007400740074,35.15951595159516],[-121.32513251325132,35.76307630763076],[-121.7151715171517,36.16261626162616],[-122.54725472547254,37.54825482548255],[-122.53425342534253,37.624762476247625],[-122.50825082508251,37.786278627862785],[-122.93729372937293,38.1008100810081],[-122.95029502950294,38.11781178117812],[-123.28832883288328,38.466346634663466],[-123.73037303730374,38.950895089508954],[-123.86038603860385,39.76697669766977],[-124.05540554055405,39.97099709970997],[-124.39343934393439,40.31103110311031],[-124.25042504250425,40.880588058805884],[-124.17241724172416,41.144114411441144],[-124.2114211421142,42.002700270027006],[-119.99899989999,41.99419941994199],[-119.99899989999,38.993399339933994],[-118.1138113811381,37.641764176417645],[-116.31963196319631,36.32413241324132],[-114.64246424642464,35.04900490049005]]]}},{"type":"Feature","id":"CO","properties":{"ct":[-105.55,39],"gu":"USA","id":"CO","postal":"CO","name":"Colorado"},"geometry":{"type":"Polygon","coordinates":[[[-102.04420442044204,40.00500050005],[-102.04420442044204,38.45784578457846],[-102.04420442044204,36.995699569957],[-103.006300630063,36.995699569957],[-104.20242024202419,36.995699569957],[-105.9055905590559,36.995699569957],[-107.47874787478747,36.995699569957],[-109.03890389038904,36.995699569957],[-109.05190519051905,40.999599959996],[-108.05080508050804,40.999599959996],[-107.04970497049705,40.999599959996],[-105.04750475047504,40.999599959996],[-104.04640464046403,41.00810081008101],[-102.04420442044204,41.00810081008101],[-102.04420442044204,40.03050305030503],[-102.04420442044204,40.00500050005]]]}},{"type":"Feature","id":"NV","properties":{"ct":[-116.65,39.35],"gu":"USA","id":"NV","postal":"NV","name":"Nevada"},"geometry":{"type":"Polygon","coordinates":[[[-117.03470347034703,42.002700270027006],[-114.03140314031403,41.99419941994199],[-114.03140314031403,36.995699569957],[-114.01840184018401,36.18811881188119],[-114.07040704070407,36.154115411541156],[-114.13541354135413,36.001100110011],[-114.26542654265425,36.04360436043604],[-114.46044604460445,36.11161116111611],[-114.66846684668467,36.11161116111611],[-114.73347334733472,35.992599259925996],[-114.65546554655465,35.856585658565855],[-114.65546554655465,35.635563556355635],[-114.62946294629462,35.44854485448545],[-114.57745774577457,35.253025302530254],[-114.64246424642464,35.04900490049005],[-116.31963196319631,36.32413241324132],[-118.1138113811381,37.641764176417645],[-119.99899989999,38.993399339933994],[-119.99899989999,41.99419941994199],[-117.03470347034703,41.99419941994199],[-117.03470347034703,42.002700270027006]]]}},{"type":"Feature","id":"NM","properties":{"ct":[-106.09,34.42],"gu":"USA","id":"NM","postal":"NM","name":"New Mexico"},"geometry":{"type":"Polygon","coordinates":[[[-109.03890389038904,31.342634263426344],[-109.03890389038904,36.995699569957],[-107.47874787478747,36.995699569957],[-105.9055905590559,36.995699569957],[-104.20242024202419,36.995699569957],[-103.006300630063,36.995699569957],[-103.006300630063,36.5026502650265],[-103.006300630063,33.87588758875888],[-103.006300630063,31.997199719972],[-103.92939293929392,31.997199719972],[-105.72357235723571,31.997199719972],[-106.63366336633663,31.997199719972],[-106.62066206620662,31.91219121912191],[-106.50365036503649,31.75067506750675],[-108.24582458245824,31.75067506750675],[-108.24582458245824,31.342634263426344],[-109.03890389038904,31.342634263426344]]]}},{"type":"Feature","id":"OR","properties":{"ct":[-120.54,43.94],"gu":"USA","id":"OR","postal":"OR","name":"Oregon"},"geometry":{"type":"Polygon","coordinates":[[[-116.91769176917691,45.998099809981],[-116.68366836683668,45.81108110811081],[-116.5146514651465,45.726072607260726],[-116.46264626462646,45.57305730573057],[-116.55365536553654,45.445544554455445],[-116.6966696669667,45.19051905190519],[-116.83968396839683,44.86748674867487],[-117.04770477047704,44.663466346634664],[-117.19071907190718,44.44244424442444],[-117.19071907190718,44.28092809280928],[-117.00870087008701,44.21292129212922],[-116.93069306930693,44.08540854085409],[-117.00870087008701,43.796379637963796],[-117.03470347034703,42.002700270027006],[-117.03470347034703,41.99419941994199],[-119.99899989999,41.99419941994199],[-124.2114211421142,42.002700270027006],[-124.53645364536453,42.76777677767777],[-124.14641464146413,43.711371137113716],[-124.01640164016402,44.61246124612461],[-123.89938993899389,45.522052205220525],[-124.003400340034,46.28712871287129],[-123.78237823782378,46.27862786278628],[-123.47034703470347,46.27862786278628],[-123.22332233223321,46.185118511851186],[-122.93729372937293,46.125612561256126],[-122.75527552755275,45.93859385938594],[-122.72927292729273,45.76857685768577],[-122.65126512651264,45.63256325632563],[-122.41724172417241,45.59005900590059],[-122.17021702170217,45.5985598559856],[-121.79317931793179,45.7005700570057],[-121.55915591559156,45.73457345734573],[-121.2081208120812,45.69206920692069],[-121.05210521052105,45.64106410641064],[-120.83108310831082,45.67506750675068],[-120.61006100610061,45.75157515751575],[-120.15501550155015,45.743074307430746],[-119.79097909790978,45.85358535853585],[-119.59595959595958,45.93009300930093],[-119.33593359335933,45.887588758875886],[-118.97189718971896,45.98959895989599],[-116.91769176917691,45.998099809981]]]}},{"type":"Feature","id":"UT","properties":{"ct":[-111.67,39.33],"gu":"USA","id":"UT","postal":"UT","name":"Utah"},"geometry":{"type":"Polygon","coordinates":[[[-114.03140314031403,41.99419941994199],[-111.05410541054104,42.002700270027006],[-111.05410541054104,41.025102510251024],[-109.05190519051905,40.999599959996],[-109.03890389038904,36.995699569957],[-110.49504950495049,37.004200420042004],[-112.41924192419242,37.01270127012701],[-114.03140314031403,36.995699569957],[-114.03140314031403,41.99419941994199]]]}},{"type":"Feature","id":"WY","properties":{"ct":[-107.55,43.03],"gu":"USA","id":"WY","postal":"WY","name":"Wyoming"},"geometry":{"type":"Polygon","coordinates":[[[-111.08010801080107,44.501950195019504],[-111.06710671067106,44.54445444544454],[-111.06710671067106,45.046004600460044],[-109.1039103910391,45.05450545054506],[-107.54375437543754,45.046004600460044],[-105.74957495749574,45.05450545054506],[-104.07240724072406,45.03750375037504],[-104.04640464046403,42.997299729973],[-104.04640464046403,41.00810081008101],[-105.04750475047504,40.999599959996],[-107.04970497049705,40.999599959996],[-108.05080508050804,40.999599959996],[-109.05190519051905,40.999599959996],[-111.05410541054104,41.025102510251024],[-111.05410541054104,42.002700270027006],[-111.05410541054104,44.48494849484948],[-111.08010801080107,44.501950195019504]]]}},{"type":"Feature","id":"AR","properties":{"ct":[-92.44,34.92],"gu":"USA","id":"AR","postal":"AR","name":"Arkansas"},"geometry":{"type":"Polygon","coordinates":[[[-89.66696669666966,36.02660266026603],[-89.67996799679968,35.94159415941594],[-89.77097709770976,35.797079707970795],[-89.95299529952995,35.7035703570357],[-89.99199919991999,35.533553355335535],[-90.14801480148014,35.40604060406041],[-90.13501350135013,35.11701170117012],[-90.25202520252024,35.02350235023503],[-90.26502650265026,34.93849384938494],[-90.44704470447044,34.870487048704874],[-90.44704470447044,34.72597259725973],[-90.59005900590059,34.45394539453945],[-90.69406940694068,34.39443944394439],[-90.87608760876087,34.25842584258426],[-90.98009800980097,34.05440544054405],[-91.2011201120112,33.705870587058705],[-91.22712271227122,33.46784678467847],[-91.1101110111011,33.204320432043204],[-91.16211621162115,33.00880088008801],[-92.00720072007199,33.042804280428044],[-93.09930993099309,33.00880088008801],[-94.06140614061405,33.00880088008801],[-93.99639963996398,33.57835783578358],[-94.23042304230422,33.586858685868584],[-94.42544254425442,33.56985698569857],[-94.47744774477447,33.63786378637864],[-94.45144514451444,34.51345134513451],[-94.42544254425442,35.48254825482548],[-94.63346334633462,36.536653665366536],[-93.4113411341134,36.52815281528153],[-92.3062306230623,36.51965196519652],[-91.25312531253124,36.51965196519652],[-90.1090109010901,36.46014601460146],[-90.03100310031002,36.34113411341134],[-90.14801480148014,36.23062306230623],[-90.25202520252024,36.12011201120112],[-90.31703170317031,36.02660266026603],[-89.66696669666966,36.02660266026603]]]}},{"type":"Feature","id":"IA","properties":{"ct":[-93.51,42.08],"gu":"USA","id":"IA","postal":"IA","name":"Iowa"},"geometry":{"type":"Polygon","coordinates":[[[-96.45364536453644,43.4988498849885],[-95.36153615361535,43.4988498849885],[-93.99639963996398,43.515851585158515],[-92.54025402540253,43.515851585158515],[-91.22712271227122,43.4988498849885],[-91.21412141214121,43.44784478447845],[-91.08410841084108,43.28632863286329],[-91.17511751175117,43.20982098209821],[-91.17511751175117,43.00580058005801],[-91.12311231123111,42.912291229122914],[-91.07110711071107,42.750775077507754],[-90.73307330733073,42.65726572657266],[-90.64206420642063,42.50425042504251],[-90.57705770577057,42.42774277427743],[-90.46004600460046,42.37673767376738],[-90.42104210421041,42.266226622662266],[-90.26502650265026,42.18971897189719],[-90.16101610161016,42.104710471047106],[-90.2130213021302,41.83268326832683],[-90.39503950395039,41.61166116611661],[-90.46004600460046,41.53515351535154],[-90.69406940694068,41.47564756475648],[-91.03210321032103,41.43314331433143],[-91.12311231123111,41.25462546254626],[-90.99309930993098,41.17811781178118],[-90.95409540954094,41.025102510251024],[-91.08410841084108,40.85508550855086],[-91.14911491149114,40.702070207020704],[-91.4091409140914,40.54905490549055],[-91.43514351435142,40.37053705370537],[-91.56515651565155,40.45554555455546],[-91.76017601760175,40.61706170617062],[-92.85228522852285,40.59155915591559],[-93.99639963996398,40.58305830583058],[-94.89348934893489,40.58305830583058],[-95.79057905790579,40.58305830583058],[-95.86858685868586,40.761576157615764],[-95.82958295829582,40.940094009400944],[-95.85558555855584,41.11861186118612],[-95.95959595959596,41.40764076407641],[-96.02460246024602,41.526652665266525],[-96.1026102610261,41.56065606560656],[-96.1026102610261,41.79017901790179],[-96.16761676167616,41.95169516951695],[-96.34963496349634,42.13871387138714],[-96.34963496349634,42.223722372237226],[-96.41464146414641,42.38523852385239],[-96.45364536453644,42.48724872487249],[-96.45364536453644,42.58075807580758],[-96.6096609660966,42.691269126912694],[-96.53165316531653,42.852785278527854],[-96.47964796479647,43.014301430143014],[-96.45364536453644,43.12481248124813],[-96.58365836583657,43.26082608260826],[-96.58365836583657,43.4988498849885],[-96.45364536453644,43.4988498849885]]]}},{"type":"Feature","id":"KS","properties":{"ct":[-98.38,38.48],"gu":"USA","id":"KS","postal":"KS","name":"Kansas"},"geometry":{"type":"Polygon","coordinates":[[[-102.04420442044204,36.995699569957],[-102.04420442044204,38.45784578457846],[-102.04420442044204,40.00500050005],[-100.3020302030203,40.00500050005],[-99.001900190019,40.00500050005],[-96.7006700670067,40.00500050005],[-95.32253225322532,40.00500050005],[-95.08850885088508,39.86898689868987],[-94.95849584958495,39.86898689868987],[-94.93249324932492,39.72447244724472],[-95.06250625062505,39.537453745374535],[-94.99749974997499,39.44394439443944],[-94.86748674867486,39.231423142314235],[-94.6074607460746,39.13791379137914],[-94.62046204620461,38.066806680668066],[-94.62046204620461,36.995699569957],[-95.5045504550455,36.995699569957],[-97.2987298729873,36.995699569957],[-99.1059105910591,36.995699569957],[-100.09400940094008,36.995699569957],[-101.09510951095109,36.995699569957],[-102.04420442044204,36.995699569957]]]}},{"type":"Feature","id":"MO","properties":{"ct":[-92.48,38.38],"gu":"USA","id":"MO","postal":"MO","name":"Missouri"},"geometry":{"type":"Polygon","coordinates":[[[-89.66696669666966,36.02660266026603],[-90.31703170317031,36.02660266026603],[-90.25202520252024,36.12011201120112],[-90.14801480148014,36.23062306230623],[-90.03100310031002,36.34113411341134],[-90.1090109010901,36.46014601460146],[-91.25312531253124,36.51965196519652],[-92.3062306230623,36.51965196519652],[-93.4113411341134,36.52815281528153],[-94.63346334633462,36.536653665366536],[-94.62046204620461,36.995699569957],[-94.62046204620461,38.066806680668066],[-94.6074607460746,39.13791379137914],[-94.86748674867486,39.231423142314235],[-94.99749974997499,39.44394439443944],[-95.06250625062505,39.537453745374535],[-94.93249324932492,39.72447244724472],[-94.95849584958495,39.86898689868987],[-95.08850885088508,39.86898689868987],[-95.32253225322532,40.00500050005],[-95.45254525452545,40.217521752175216],[-95.6085608560856,40.34503450345034],[-95.77757775777577,40.498049804980496],[-95.79057905790579,40.58305830583058],[-94.89348934893489,40.58305830583058],[-93.99639963996398,40.58305830583058],[-92.85228522852285,40.59155915591559],[-91.76017601760175,40.61706170617062],[-91.56515651565155,40.45554555455546],[-91.43514351435142,40.37053705370537],[-91.51315131513151,40.12401240124012],[-91.42214221422141,39.817981798179815],[-91.26612661266125,39.613961396139615],[-91.07110711071107,39.44394439443944],[-90.83708370837083,39.30793079307931],[-90.74607460746074,39.26542654265427],[-90.66806680668066,39.07840784078408],[-90.65506550655064,38.90839083908391],[-90.53805380538053,38.86588658865887],[-90.34303430343033,38.933893389338934],[-90.16101610161016,38.772377237723774],[-90.2130213021302,38.58535853585359],[-90.3040304030403,38.44084408440844],[-90.36903690369036,38.262326232623266],[-90.22602260226022,38.10931093109311],[-90.03100310031002,37.97329732973297],[-89.9139913991399,37.964796479647966],[-89.65396539653965,37.75227522752275],[-89.54995499549955,37.71827182718272],[-89.48494849484948,37.48024802480248],[-89.5109510951095,37.32723272327233],[-89.39393939393939,37.080708070807084],[-89.27692769276926,37.106210621062104],[-89.1079107910791,36.95319531953196],[-89.13391339133912,36.85118511851185],[-89.1209120912091,36.6981698169817],[-89.27692769276926,36.61316131613162],[-89.49794979497949,36.5026502650265],[-89.52395239523952,36.40914091409141],[-89.58895889588958,36.26462646264626],[-89.66696669666966,36.02660266026603]]]}},{"type":"Feature","id":"NE","properties":{"ct":[-99.82,41.53],"gu":"USA","id":"NE","postal":"NE","name":"Nebraska"},"geometry":{"type":"Polygon","coordinates":[[[-102.04420442044204,40.00500050005],[-102.04420442044204,40.03050305030503],[-102.04420442044204,41.00810081008101],[-104.04640464046403,41.00810081008101],[-104.04640464046403,42.997299729973],[-102.09620962096209,42.997299729973],[-100.60106010601059,42.997299729973],[-98.59885988598859,42.997299729973],[-98.33883388338833,42.86978697869787],[-97.96179617961795,42.793279327932794],[-97.88378837883788,42.835783578357834],[-97.64976497649764,42.835783578357834],[-97.28572857285728,42.84428442844285],[-97.02570257025702,42.71677167716772],[-96.75267526752674,42.631763176317634],[-96.71367136713671,42.54675467546755],[-96.62266226622661,42.50425042504251],[-96.45364536453644,42.48724872487249],[-96.41464146414641,42.38523852385239],[-96.34963496349634,42.223722372237226],[-96.34963496349634,42.13871387138714],[-96.16761676167616,41.95169516951695],[-96.1026102610261,41.79017901790179],[-96.1026102610261,41.56065606560656],[-96.02460246024602,41.526652665266525],[-95.95959595959596,41.40764076407641],[-95.85558555855584,41.11861186118612],[-95.82958295829582,40.940094009400944],[-95.86858685868586,40.761576157615764],[-95.79057905790579,40.58305830583058],[-95.77757775777577,40.498049804980496],[-95.6085608560856,40.34503450345034],[-95.45254525452545,40.217521752175216],[-95.32253225322532,40.00500050005],[-96.7006700670067,40.00500050005],[-99.001900190019,40.00500050005],[-100.3020302030203,40.00500050005],[-102.04420442044204,40.00500050005]]]}},{"type":"Feature","id":"OK","properties":{"ct":[-97.5,35.58],"gu":"USA","id":"OK","postal":"OK","name":"Oklahoma"},"geometry":{"type":"Polygon","coordinates":[[[-103.006300630063,36.995699569957],[-102.04420442044204,36.995699569957],[-101.09510951095109,36.995699569957],[-100.09400940094008,36.995699569957],[-99.1059105910591,36.995699569957],[-97.2987298729873,36.995699569957],[-95.5045504550455,36.995699569957],[-94.62046204620461,36.995699569957],[-94.63346334633462,36.536653665366536],[-94.42544254425442,35.48254825482548],[-94.45144514451444,34.51345134513451],[-94.47744774477447,33.63786378637864],[-94.90649064906489,33.83338333833383],[-95.19251925192519,33.93539353935394],[-95.4135413541354,33.867386738673865],[-95.76457645764576,33.884388438843885],[-95.97259725972596,33.87588758875888],[-96.15461546154614,33.7993799379938],[-96.3106310631063,33.75687568756876],[-96.46664666466646,33.80788078807881],[-96.79167916791678,33.74837483748375],[-96.94769476947694,33.91839183918392],[-97.1037103710371,33.77387738773877],[-97.37673767376737,33.841884188418845],[-97.66276627662765,33.994899489949],[-97.96179617961795,33.89288928892889],[-98.09180918091809,34.13091309130913],[-98.55985598559855,34.11391139113911],[-98.84588458845884,34.164916491649166],[-99.18391839183917,34.23292329232923],[-99.33993399339933,34.445444544454446],[-99.5999599959996,34.37743774377438],[-99.75597559755975,34.45394539453945],[-100.00300030003,34.564456445644566],[-100.00300030003,35.516551655165514],[-100.00300030003,36.5026502650265],[-101.00410041004099,36.5026502650265],[-102.005200520052,36.5026502650265],[-103.006300630063,36.5026502650265],[-103.006300630063,36.995699569957]]]}},{"type":"Feature","id":"SD","properties":{"ct":[-100.23,44.45],"gu":"USA","id":"SD","postal":"SD","name":"South Dakota"},"geometry":{"type":"Polygon","coordinates":[[[-96.54465446544654,46.01510151015101],[-96.55765576557656,45.87058705870587],[-96.77867786778677,45.76007600760076],[-96.83068306830683,45.624062406240625],[-96.73967396739673,45.47104710471047],[-96.55765576557656,45.3945394539454],[-96.44064406440643,44.43394339433944],[-96.45364536453644,43.4988498849885],[-96.58365836583657,43.4988498849885],[-96.58365836583657,43.26082608260826],[-96.45364536453644,43.12481248124813],[-96.47964796479647,43.014301430143014],[-96.53165316531653,42.852785278527854],[-96.6096609660966,42.691269126912694],[-96.45364536453644,42.58075807580758],[-96.45364536453644,42.48724872487249],[-96.62266226622661,42.50425042504251],[-96.71367136713671,42.54675467546755],[-96.75267526752674,42.631763176317634],[-97.02570257025702,42.71677167716772],[-97.28572857285728,42.84428442844285],[-97.64976497649764,42.835783578357834],[-97.88378837883788,42.835783578357834],[-97.96179617961795,42.793279327932794],[-98.33883388338833,42.86978697869787],[-98.59885988598859,42.997299729973],[-100.60106010601059,42.997299729973],[-102.09620962096209,42.997299729973],[-104.04640464046403,42.997299729973],[-104.07240724072406,45.03750375037504],[-104.02040204020402,45.95559555955596],[-102.12221222122211,45.964096409640966],[-100.06800680068007,45.964096409640966],[-98.44284428442843,45.964096409640966],[-96.54465446544654,46.01510151015101]]]}},{"type":"Feature","id":"LA","properties":{"ct":[-91.96,31.05],"gu":"USA","id":"LA","postal":"LA","name":"Louisiana"},"geometry":{"type":"Polygon","coordinates":[[[-94.06140614061405,33.00880088008801],[-93.09930993099309,33.00880088008801],[-92.00720072007199,33.042804280428044],[-91.16211621162115,33.00880088008801],[-91.08410841084108,32.94929492949295],[-91.17511751175117,32.8047804780478],[-91.03210321032103,32.6007600760076],[-91.07110711071107,32.48174817481748],[-90.94109410941093,32.3032303230323],[-91.08410841084108,32.2012201220122],[-91.12311231123111,32.014201420142015],[-91.31813181318131,31.86118611861186],[-91.4091409140914,31.648664866486648],[-91.5001500150015,31.41064106410641],[-91.63016301630162,31.3001300130013],[-91.57815781578157,31.045104510451047],[-90.7070707070707,31.01960196019602],[-89.75797579757975,31.01110111011101],[-89.78397839783977,30.84958495849585],[-89.84898489848985,30.67956795679568],[-89.78397839783977,30.560556055605563],[-89.65396539653965,30.441544154415443],[-89.62796279627962,30.271527152715272],[-89.60196019601959,30.17801780178018],[-89.58895889588958,30.161016101610162],[-89.4199419941994,29.8974897489749],[-89.43294329432942,29.48944894489449],[-89.2119211921192,29.293929392939294],[-89.4069406940694,29.157915791579157],[-89.78397839783977,29.31093109310931],[-90.16101610161016,29.115411541154117],[-90.87608760876087,29.14941494149415],[-91.63016301630162,29.676467646764678],[-92.50125012501249,29.54895489548955],[-93.22932293229321,29.786978697869788],[-93.85338533853384,29.71047104710471],[-93.91839183918391,29.82098209820982],[-93.81438143814381,29.965496549654965],[-93.67136713671367,30.101510151015102],[-93.65836583658366,30.2970297029703],[-93.73637363736373,30.365036503650366],[-93.64536453645364,30.603060306030603],[-93.58035803580357,30.713571357135713],[-93.48934893489348,31.07910791079108],[-93.58035803580357,31.215121512151217],[-93.69736973697368,31.444644464446444],[-93.77537753775377,31.674167416741675],[-93.84038403840383,31.82718271827183],[-93.99639963996398,31.946194619461945],[-94.06140614061405,33.00880088008801]]]}},{"type":"Feature","id":"TX","properties":{"ct":[-99.33,31.46],"gu":"USA","id":"TX","postal":"TX","name":"Texas"},"geometry":{"type":"Polygon","coordinates":[[[-106.50365036503649,31.75067506750675],[-106.62066206620662,31.91219121912191],[-106.63366336633663,31.997199719972],[-105.72357235723571,31.997199719972],[-103.92939293929392,31.997199719972],[-103.006300630063,31.997199719972],[-103.006300630063,33.87588758875888],[-103.006300630063,36.5026502650265],[-102.005200520052,36.5026502650265],[-101.00410041004099,36.5026502650265],[-100.00300030003,36.5026502650265],[-100.00300030003,35.516551655165514],[-100.00300030003,34.564456445644566],[-99.75597559755975,34.45394539453945],[-99.5999599959996,34.37743774377438],[-99.33993399339933,34.445444544454446],[-99.18391839183917,34.23292329232923],[-98.84588458845884,34.164916491649166],[-98.55985598559855,34.11391139113911],[-98.09180918091809,34.13091309130913],[-97.96179617961795,33.89288928892889],[-97.66276627662765,33.994899489949],[-97.37673767376737,33.841884188418845],[-97.1037103710371,33.77387738773877],[-96.94769476947694,33.91839183918392],[-96.79167916791678,33.74837483748375],[-96.46664666466646,33.80788078807881],[-96.3106310631063,33.75687568756876],[-96.15461546154614,33.7993799379938],[-95.97259725972596,33.87588758875888],[-95.76457645764576,33.884388438843885],[-95.4135413541354,33.867386738673865],[-95.19251925192519,33.93539353935394],[-94.90649064906489,33.83338333833383],[-94.47744774477447,33.63786378637864],[-94.42544254425442,33.56985698569857],[-94.23042304230422,33.586858685868584],[-93.99639963996398,33.57835783578358],[-94.06140614061405,33.00880088008801],[-93.99639963996398,31.946194619461945],[-93.84038403840383,31.82718271827183],[-93.77537753775377,31.674167416741675],[-93.69736973697368,31.444644464446444],[-93.58035803580357,31.215121512151217],[-93.48934893489348,31.07910791079108],[-93.58035803580357,30.713571357135713],[-93.64536453645364,30.603060306030603],[-93.73637363736373,30.365036503650366],[-93.65836583658366,30.2970297029703],[-93.67136713671367,30.101510151015102],[-93.81438143814381,29.965496549654965],[-93.91839183918391,29.82098209820982],[-93.85338533853384,29.71047104710471],[-94.68546854685468,29.48094809480948],[-95.59555955595559,28.741374137413743],[-96.59665966596658,28.30783078307831],[-97.11671167116711,27.848784878487848],[-97.14271427142714,27.83178317831783],[-97.36373637363735,27.38123812381238],[-97.37673767376737,27.041204120412043],[-97.37673767376737,26.692669266926693],[-97.32473247324732,26.20812081208121],[-97.22072207220721,26.004100410041005],[-97.14271427142714,25.868086808680868],[-97.53275327532752,25.842584258425845],[-98.23482348234823,26.063606360636065],[-99.01490149014901,26.36963696369637],[-99.3009300930093,26.837183718371836],[-99.52195219521951,27.542754275427544],[-100.1070107010701,28.112311231123112],[-100.36703670367037,28.545854585458546],[-100.45804580458045,28.6988698869887],[-100.95209520952095,29.37893789378938],[-101.66716671667166,29.778477847784778],[-102.04420442044204,29.76997699769977],[-102.48624862486248,29.76147614761476],[-103.11031103110311,28.97089708970897],[-103.94239423942393,29.26842684268427],[-104.1114111411141,29.37043704370437],[-104.46244624462446,29.574457445744574],[-104.7094709470947,30.11851185118512],[-105.03450345034503,30.645564556455646],[-105.63256325632562,31.087608760876087],[-105.68456845684568,31.113111311131114],[-106.13961396139614,31.402140214021404],[-106.46464646464646,31.716671667166718],[-106.50365036503649,31.75067506750675]]]}},{"type":"Feature","id":"CT","properties":{"ct":[-72.74,41.61],"gu":"USA","id":"CT","postal":"CT","name":"Connecticut"},"geometry":{"type":"Polygon","coordinates":[[[-73.49334933493348,42.05370537053705],[-72.72627262726272,42.03670367036704],[-71.80318031803179,42.01120112011201],[-71.79017901790178,41.467146714671465],[-71.85518551855185,41.322632263226325],[-72.29722972297229,41.27162716271627],[-72.88228822882287,41.220622062206225],[-73.06430643064306,41.15261526152615],[-73.64936493649364,40.95709570957096],[-73.66236623662365,40.982598259825984],[-73.68836883688368,41.11011101110111],[-73.48034803480347,41.203620362036204],[-73.55835583558355,41.28862886288629],[-73.49334933493348,42.05370537053705]]]}},{"type":"Feature","id":"MA","properties":{"ct":[-71.74,42.24],"gu":"USA","id":"MA","postal":"MA","name":"Massachusetts"},"geometry":{"type":"Polygon","coordinates":[[[-71.80318031803179,42.01120112011201],[-72.72627262726272,42.03670367036704],[-73.49334933493348,42.05370537053705],[-73.28532853285327,42.74227422742274],[-72.45324532453245,42.72527252725273],[-71.24412441244124,42.71677167716772],[-71.14011401140112,42.81878187818782],[-70.93209320932093,42.88678867886789],[-70.81508150815081,42.86128612861286],[-70.82808280828081,42.33423342334233],[-70.49004900490048,41.807180718071805],[-70.07400740074006,41.781678167816786],[-70.1130113011301,41.90919091909191],[-70.19101910191019,42.147214721472146],[-69.87898789878987,41.926192619261926],[-69.93099309930992,41.747674767476745],[-69.96999699969996,41.63716371637164],[-70.49004900490048,41.50965096509651],[-70.64606460646064,41.47564756475648],[-71.11411141114111,41.49264926492649],[-71.15311531153114,41.645664566456645],[-71.3091309130913,41.764676467646765],[-71.37413741374137,42.028202820282026],[-71.80318031803179,42.01120112011201]]]}},{"type":"Feature","id":"NH","properties":{"ct":[-71.56,43.69],"gu":"USA","id":"NH","postal":"NH","name":"New Hampshire"},"geometry":{"type":"Polygon","coordinates":[[[-70.81508150815081,42.86128612861286],[-70.93209320932093,42.88678867886789],[-71.14011401140112,42.81878187818782],[-71.24412441244124,42.71677167716772],[-72.45324532453245,42.72527252725273],[-72.53125312531252,42.82728272827283],[-72.45324532453245,42.96329632963296],[-72.44024402440243,43.22682268226823],[-72.40124012401239,43.28632863286329],[-72.37523752375236,43.52435243524353],[-72.25822582258225,43.71987198719872],[-72.18021802180218,43.80488048804881],[-72.06320632063205,44.04290429042904],[-72.03720372037203,44.2044204420442],[-71.99819981998199,44.30643064306431],[-71.8161816181618,44.34893489348935],[-71.58215821582158,44.46794679467947],[-71.54315431543154,44.5954595459546],[-71.62116211621161,44.739973997399744],[-71.5041504150415,45.01200120012001],[-71.4001400140014,45.25852585258526],[-71.08810881088108,45.301030103010305],[-70.94509450945094,43.46484648464847],[-70.98409840984097,43.371337133713375],[-70.8020802080208,43.21832183218322],[-70.75007500750074,43.08230823082308],[-70.64606460646064,43.090809080908095],[-70.81508150815081,42.86128612861286]]]}},{"type":"Feature","id":"RI","properties":{"ct":[-71.53,41.68],"gu":"USA","id":"RI","postal":"RI","name":"Rhode Island"},"geometry":{"type":"Polygon","coordinates":[[[-71.85518551855185,41.322632263226325],[-71.79017901790178,41.467146714671465],[-71.80318031803179,42.01120112011201],[-71.37413741374137,42.028202820282026],[-71.3091309130913,41.764676467646765],[-71.15311531153114,41.645664566456645],[-71.11411141114111,41.49264926492649],[-71.2051205120512,41.47564756475648],[-71.85518551855185,41.322632263226325]]]}},{"type":"Feature","id":"VT","properties":{"ct":[-72.66,44.07],"gu":"USA","id":"VT","postal":"VT","name":"Vermont"},"geometry":{"type":"Polygon","coordinates":[[[-72.45324532453245,42.72527252725273],[-73.28532853285327,42.74227422742274],[-73.23332333233323,43.56685668566857],[-73.38933893389338,43.575357535753575],[-73.4023402340234,43.60936093609361],[-73.33733373337333,43.76237623762376],[-73.42834283428341,44.017401740174016],[-73.32433243324331,44.22992299229923],[-73.38933893389338,44.38293829382938],[-73.4023402340234,44.67196719671967],[-73.36333633363336,44.80798079807981],[-73.35033503350334,45.003500350035004],[-72.37523752375236,45.01200120012001],[-71.5041504150415,45.01200120012001],[-71.62116211621161,44.739973997399744],[-71.54315431543154,44.5954595459546],[-71.58215821582158,44.46794679467947],[-71.8161816181618,44.34893489348935],[-71.99819981998199,44.30643064306431],[-72.03720372037203,44.2044204420442],[-72.06320632063205,44.04290429042904],[-72.18021802180218,43.80488048804881],[-72.25822582258225,43.71987198719872],[-72.37523752375236,43.52435243524353],[-72.40124012401239,43.28632863286329],[-72.44024402440243,43.22682268226823],[-72.45324532453245,42.96329632963296],[-72.53125312531252,42.82728272827283],[-72.45324532453245,42.72527252725273]]]}},{"type":"Feature","id":"AL","properties":{"ct":[-86.83,32.77],"gu":"USA","id":"AL","postal":"AL","name":"Alabama"},"geometry":{"type":"Polygon","coordinates":[[[-88.17181718171817,34.99799979998],[-86.9106910691069,34.99799979998],[-85.62356235623561,34.98949894989499],[-85.36353635363535,33.74837483748375],[-85.12951295129513,32.75377537753776],[-84.98649864986498,32.43924392439244],[-84.89548954895488,32.26072607260726],[-85.06450645064506,32.08220822082208],[-85.11651165116511,31.767676767676768],[-85.06450645064506,31.58065806580658],[-85.09050905090508,31.402140214021404],[-85.11651165116511,31.232123212321234],[-85.05150515051504,31.104610461046104],[-84.99949994999498,30.994099409940993],[-87.04070407040703,30.985598559855987],[-87.6127612761276,30.926092609260927],[-87.63876387638763,30.84958495849585],[-87.4047404740474,30.611561156115613],[-87.45674567456744,30.40754075407541],[-87.53475347534753,30.271527152715272],[-88.41884188418841,30.382038203820382],[-88.44484448444844,31.91219121912191],[-88.27582758275827,33.51035103510351],[-88.09380938093808,34.8024802480248],[-88.17181718171817,34.99799979998]]]}},{"type":"Feature","id":"FL","properties":{"ct":[-82.5,28.62],"gu":"USA","id":"FL","postal":"FL","name":"Florida"},"geometry":{"type":"Polygon","coordinates":[[[-87.53475347534753,30.271527152715272],[-87.45674567456744,30.40754075407541],[-87.4047404740474,30.611561156115613],[-87.63876387638763,30.84958495849585],[-87.6127612761276,30.926092609260927],[-87.04070407040703,30.985598559855987],[-84.99949994999498,30.994099409940993],[-84.85648564856484,30.722072207220723],[-83.84238423842383,30.671067106710673],[-82.23022302230223,30.526552655265526],[-82.15221522152214,30.34803480348035],[-82.02220222022201,30.441544154415443],[-82.02220222022201,30.79007900790079],[-81.9051905190519,30.824082408240823],[-81.69716971697169,30.74757475747575],[-81.48914891489149,30.73057305730573],[-81.32013201320132,30.033503350335035],[-80.98209820982098,29.183418341834184],[-80.54005400540053,28.46934693469347],[-80.52705270527052,28.044304430443045],[-80.05900590059005,26.87968796879688],[-80.08500850085008,26.20812081208121],[-80.13701370137012,25.817081708170818],[-80.38403840384038,25.205020502050207],[-80.68306830683068,25.077507750775077],[-81.17711771177117,25.205020502050207],[-81.24212421242123,25.392039203920394],[-81.33313331333133,25.638563856385638],[-81.7101710171017,25.868086808680868],[-81.95719571957194,26.26762676267627],[-82.24322432243224,26.726672667266726],[-82.71127112711271,27.49174917491749],[-82.85428542854285,27.882788278827885],[-82.64626462646264,28.554355435543556],[-82.93229322932292,29.0984098409841],[-83.7123712371237,29.93999399939994],[-84.10241024102409,30.093009300930092],[-85.1035103510351,29.633963396339634],[-85.28552855285528,29.684968496849685],[-85.77957795779577,30.152515251525152],[-86.40364036403639,30.3990399039904],[-87.04070407040703,30.331033103310332],[-87.53475347534753,30.271527152715272]]]}},{"type":"Feature","id":"GA","properties":{"ct":[-83.45,32.65],"gu":"USA","id":"GA","postal":"GA","name":"Georgia"},"geometry":{"type":"Polygon","coordinates":[[[-84.99949994999498,30.994099409940993],[-85.05150515051504,31.104610461046104],[-85.11651165116511,31.232123212321234],[-85.09050905090508,31.402140214021404],[-85.06450645064506,31.58065806580658],[-85.11651165116511,31.767676767676768],[-85.06450645064506,32.08220822082208],[-84.89548954895488,32.26072607260726],[-84.98649864986498,32.43924392439244],[-85.12951295129513,32.75377537753776],[-85.36353635363535,33.74837483748375],[-85.62356235623561,34.98949894989499],[-84.85648564856484,34.98099809980998],[-84.32343234323432,34.98949894989499],[-83.07530753075307,34.98099809980998],[-83.19231923192318,34.89598959895989],[-83.34833483348334,34.708970897089706],[-83.07530753075307,34.53895389538954],[-82.9062906290629,34.47944794479448],[-82.71127112711271,34.164916491649166],[-82.59425942594258,33.986398639863985],[-82.24322432243224,33.74837483748375],[-82.17821782178217,33.620862086208625],[-81.94419441944194,33.45934593459346],[-81.82718271827181,33.221322132213224],[-81.50215021502149,33.02580258025802],[-81.43714371437143,32.7962796279628],[-81.37213721372136,32.68576857685768],[-81.4111411141114,32.60926092609261],[-81.22912291229122,32.498749874987496],[-81.12511251125112,32.31173117311731],[-81.12511251125112,32.12471247124712],[-81.03410341034103,32.08220822082208],[-80.86508650865086,32.03120312031203],[-81.33313331333133,31.444644464446444],[-81.48914891489149,30.73057305730573],[-81.69716971697169,30.74757475747575],[-81.9051905190519,30.824082408240823],[-82.02220222022201,30.79007900790079],[-82.02220222022201,30.441544154415443],[-82.15221522152214,30.34803480348035],[-82.23022302230223,30.526552655265526],[-83.84238423842383,30.671067106710673],[-84.85648564856484,30.722072207220723],[-84.99949994999498,30.994099409940993]]]}},{"type":"Feature","id":"MS","properties":{"ct":[-89.66,32.77],"gu":"USA","id":"MS","postal":"MS","name":"Mississippi"},"geometry":{"type":"Polygon","coordinates":[[[-91.16211621162115,33.00880088008801],[-91.1101110111011,33.204320432043204],[-91.22712271227122,33.46784678467847],[-91.2011201120112,33.705870587058705],[-90.98009800980097,34.05440544054405],[-90.87608760876087,34.25842584258426],[-90.69406940694068,34.39443944394439],[-90.59005900590059,34.45394539453945],[-90.44704470447044,34.72597259725973],[-90.44704470447044,34.870487048704874],[-90.26502650265026,34.93849384938494],[-90.25202520252024,35.02350235023503],[-89.26392639263925,35.02350235023503],[-88.17181718171817,34.99799979998],[-88.09380938093808,34.8024802480248],[-88.27582758275827,33.51035103510351],[-88.44484448444844,31.91219121912191],[-88.41884188418841,30.382038203820382],[-89.18591859185918,30.314031403140316],[-89.58895889588958,30.161016101610162],[-89.60196019601959,30.17801780178018],[-89.62796279627962,30.271527152715272],[-89.65396539653965,30.441544154415443],[-89.78397839783977,30.560556055605563],[-89.84898489848985,30.67956795679568],[-89.78397839783977,30.84958495849585],[-89.75797579757975,31.01110111011101],[-90.7070707070707,31.01960196019602],[-91.57815781578157,31.045104510451047],[-91.63016301630162,31.3001300130013],[-91.5001500150015,31.41064106410641],[-91.4091409140914,31.648664866486648],[-91.31813181318131,31.86118611861186],[-91.12311231123111,32.014201420142015],[-91.08410841084108,32.2012201220122],[-90.94109410941093,32.3032303230323],[-91.07110711071107,32.48174817481748],[-91.03210321032103,32.6007600760076],[-91.17511751175117,32.8047804780478],[-91.08410841084108,32.94929492949295],[-91.16211621162115,33.00880088008801]]]}},{"type":"Feature","id":"SC","properties":{"ct":[-80.88,33.9],"gu":"USA","id":"SC","postal":"SC","name":"South Carolina"},"geometry":{"type":"Polygon","coordinates":[[[-80.86508650865086,32.03120312031203],[-81.03410341034103,32.08220822082208],[-81.12511251125112,32.12471247124712],[-81.12511251125112,32.31173117311731],[-81.22912291229122,32.498749874987496],[-81.4111411141114,32.60926092609261],[-81.37213721372136,32.68576857685768],[-81.43714371437143,32.7962796279628],[-81.50215021502149,33.02580258025802],[-81.82718271827181,33.221322132213224],[-81.94419441944194,33.45934593459346],[-82.17821782178217,33.620862086208625],[-82.24322432243224,33.74837483748375],[-82.59425942594258,33.986398639863985],[-82.71127112711271,34.164916491649166],[-82.9062906290629,34.47944794479448],[-83.07530753075307,34.53895389538954],[-83.34833483348334,34.708970897089706],[-83.19231923192318,34.89598959895989],[-83.07530753075307,34.98099809980998],[-82.97129712971297,35.00650065006501],[-82.43824382438243,35.176517651765174],[-81.5151515151515,35.16801680168017],[-81.04710471047103,35.12551255125513],[-81.03410341034103,35.04050405040504],[-80.94309430943093,35.1000100010001],[-80.78707870787078,34.929992999299934],[-80.78707870787078,34.81948194819482],[-79.66896689668965,34.810981098109814],[-78.55085508550854,33.85888588858886],[-79.05790579057904,33.49334933493349],[-79.2009200920092,33.161816181618164],[-80.3060306030603,32.50725072507251],[-80.86508650865086,32.03120312031203]]]}},{"type":"Feature","id":"IL","properties":{"ct":[-89.2,40.06],"gu":"USA","id":"IL","postal":"IL","name":"Illinois"},"geometry":{"type":"Polygon","coordinates":[[[-91.43514351435142,40.37053705370537],[-91.4091409140914,40.54905490549055],[-91.14911491149114,40.702070207020704],[-91.08410841084108,40.85508550855086],[-90.95409540954094,41.025102510251024],[-90.99309930993098,41.17811781178118],[-91.12311231123111,41.25462546254626],[-91.03210321032103,41.43314331433143],[-90.69406940694068,41.47564756475648],[-90.46004600460046,41.53515351535154],[-90.39503950395039,41.61166116611661],[-90.2130213021302,41.83268326832683],[-90.16101610161016,42.104710471047106],[-90.26502650265026,42.18971897189719],[-90.42104210421041,42.266226622662266],[-90.46004600460046,42.37673767376738],[-90.57705770577057,42.42774277427743],[-90.64206420642063,42.50425042504251],[-89.6149614961496,42.50425042504251],[-88.57485748574857,42.50425042504251],[-87.8077807780778,42.49574957495749],[-87.79477947794778,42.23222322232223],[-87.52175217521751,41.705170517051705],[-87.52175217521751,40.54905490549055],[-87.53475347534753,39.392939293929395],[-87.63876387638763,39.112411241124114],[-87.56075607560756,39.04440444044405],[-87.5087508750875,38.86588658865887],[-87.5087508750875,38.73837383738374],[-87.59975997599759,38.670367036703674],[-87.66476647664766,38.508850885088506],[-87.87278727872787,38.287828782878286],[-88.01580158015801,38.024302430243026],[-88.05480548054804,37.82028202820282],[-88.04180418041804,37.743774377437745],[-88.15881588158815,37.60776077607761],[-88.06780678067805,37.51425142514252],[-88.24982498249824,37.43774377437744],[-88.47084708470847,37.35273527352735],[-88.43184318431842,37.140214021402144],[-88.56185618561855,37.05520552055206],[-88.8088808880888,37.14871487148715],[-89.06890689068906,37.1997199719972],[-89.14691469146914,37.106210621062104],[-89.1079107910791,36.95319531953196],[-89.27692769276926,37.106210621062104],[-89.39393939393939,37.080708070807084],[-89.5109510951095,37.32723272327233],[-89.48494849484948,37.48024802480248],[-89.54995499549955,37.71827182718272],[-89.65396539653965,37.75227522752275],[-89.9139913991399,37.964796479647966],[-90.03100310031002,37.97329732973297],[-90.22602260226022,38.10931093109311],[-90.36903690369036,38.262326232623266],[-90.3040304030403,38.44084408440844],[-90.2130213021302,38.58535853585359],[-90.16101610161016,38.772377237723774],[-90.34303430343033,38.933893389338934],[-90.53805380538053,38.86588658865887],[-90.65506550655064,38.90839083908391],[-90.66806680668066,39.07840784078408],[-90.74607460746074,39.26542654265427],[-90.83708370837083,39.30793079307931],[-91.07110711071107,39.44394439443944],[-91.26612661266125,39.613961396139615],[-91.42214221422141,39.817981798179815],[-91.51315131513151,40.12401240124012],[-91.43514351435142,40.37053705370537]]]}},{"type":"Feature","id":"IN","properties":{"ct":[-86.28,39.9],"gu":"USA","id":"IN","postal":"IN","name":"Indiana"},"geometry":{"type":"Polygon","coordinates":[[[-88.05480548054804,37.82028202820282],[-88.01580158015801,38.024302430243026],[-87.87278727872787,38.287828782878286],[-87.66476647664766,38.508850885088506],[-87.59975997599759,38.670367036703674],[-87.5087508750875,38.73837383738374],[-87.5087508750875,38.86588658865887],[-87.56075607560756,39.04440444044405],[-87.63876387638763,39.112411241124114],[-87.53475347534753,39.392939293929395],[-87.52175217521751,40.54905490549055],[-87.52175217521751,41.705170517051705],[-87.43074307430743,41.63716371637164],[-87.09270927092709,41.645664566456645],[-86.81968196819682,41.75617561756176],[-85.75357535753575,41.747674767476745],[-84.8044804480448,41.75617561756176],[-84.8044804480448,41.67966796679668],[-84.8044804480448,40.77007700770077],[-84.81748174817481,39.8009800980098],[-84.81748174817481,39.10391039103911],[-84.88248824882487,39.06140614061406],[-84.8044804480448,38.85738573857386],[-84.84348434843484,38.78087808780878],[-85.012501250125,38.78087808780878],[-85.16851685168515,38.68736873687369],[-85.4025402540254,38.729872987298734],[-85.42854285428542,38.53435343534353],[-85.57155715571557,38.45784578457846],[-85.7015701570157,38.287828782878286],[-85.84458445844584,38.262326232623266],[-86.06560656065605,37.964796479647966],[-86.26062606260625,38.04980498049805],[-86.32563256325632,38.16881688168817],[-86.49464946494649,37.97329732973297],[-86.6116611661166,37.862786278627865],[-86.81968196819682,37.97329732973297],[-87.05370537053705,37.87978797879788],[-87.13171317131712,37.786278627862785],[-87.44374437443743,37.93929392939294],[-87.65176517651764,37.82878287828783],[-87.9117911791179,37.905290529052905],[-87.92479247924791,37.7947794779478],[-88.05480548054804,37.82028202820282]]]}},{"type":"Feature","id":"KY","properties":{"ct":[-85.28,37.51],"gu":"USA","id":"KY","postal":"KY","name":"Kentucky"},"geometry":{"type":"Polygon","coordinates":[[[-89.49794979497949,36.5026502650265],[-89.27692769276926,36.61316131613162],[-89.1209120912091,36.6981698169817],[-89.13391339133912,36.85118511851185],[-89.1079107910791,36.95319531953196],[-89.14691469146914,37.106210621062104],[-89.06890689068906,37.1997199719972],[-88.8088808880888,37.14871487148715],[-88.56185618561855,37.05520552055206],[-88.43184318431842,37.140214021402144],[-88.47084708470847,37.35273527352735],[-88.24982498249824,37.43774377437744],[-88.06780678067805,37.51425142514252],[-88.15881588158815,37.60776077607761],[-88.04180418041804,37.743774377437745],[-88.05480548054804,37.82028202820282],[-87.92479247924791,37.7947794779478],[-87.9117911791179,37.905290529052905],[-87.65176517651764,37.82878287828783],[-87.44374437443743,37.93929392939294],[-87.13171317131712,37.786278627862785],[-87.05370537053705,37.87978797879788],[-86.81968196819682,37.97329732973297],[-86.6116611661166,37.862786278627865],[-86.49464946494649,37.97329732973297],[-86.32563256325632,38.16881688168817],[-86.26062606260625,38.04980498049805],[-86.06560656065605,37.964796479647966],[-85.84458445844584,38.262326232623266],[-85.7015701570157,38.287828782878286],[-85.57155715571557,38.45784578457846],[-85.42854285428542,38.53435343534353],[-85.4025402540254,38.729872987298734],[-85.16851685168515,38.68736873687369],[-85.012501250125,38.78087808780878],[-84.84348434843484,38.78087808780878],[-84.8044804480448,38.85738573857386],[-84.88248824882487,39.06140614061406],[-84.81748174817481,39.10391039103911],[-84.47944794479447,39.08690869086909],[-84.3104310431043,38.98489848984899],[-84.03740374037403,38.76387638763877],[-83.82938293829382,38.68736873687369],[-83.67336733673366,38.61086108610861],[-83.43934393439343,38.63636363636364],[-83.25732573257325,38.57685768576858],[-83.04930493049304,38.63636363636364],[-82.85428542854285,38.65336533653365],[-82.77627762776277,38.508850885088506],[-82.59425942594258,38.41534153415341],[-82.56825682568255,38.32183218321832],[-82.58125812581257,38.10931093109311],[-82.46424642464245,37.95629562956296],[-82.4122412241224,37.803280328032805],[-82.26922692269225,37.67576757675768],[-82.16521652165216,37.55675567556756],[-81.97019701970196,37.53975397539754],[-82.07420742074207,37.463246324632465],[-82.37323732373237,37.242224222422244],[-82.68526852685268,37.123212321232124],[-82.71127112711271,37.03820382038204],[-82.81528152815281,36.93619361936194],[-83.07530753075307,36.82568256825682],[-83.08830883088308,36.81718171817182],[-83.1013101310131,36.80868086808681],[-83.17931793179316,36.71517151715172],[-83.33533353335332,36.67266726672668],[-83.38733873387338,36.65566556655666],[-83.67336733673366,36.5961596159616],[-84.34943494349434,36.57065706570657],[-85.23352335233523,36.61316131613162],[-85.51955195519551,36.5961596159616],[-86.09160916091608,36.62166216621662],[-86.67666766676666,36.63016301630163],[-87.22272227222722,36.638663866386636],[-87.84678467846784,36.61316131613162],[-87.87278727872787,36.65566556655666],[-88.06780678067805,36.65566556655666],[-88.06780678067805,36.494149414941496],[-89.49794979497949,36.5026502650265]]]}},{"type":"Feature","id":"NC","properties":{"ct":[-79.25,35.54],"gu":"USA","id":"NC","postal":"NC","name":"North Carolina"},"geometry":{"type":"Polygon","coordinates":[[[-84.32343234323432,34.98949894989499],[-84.29742974297429,35.2020202020202],[-84.08940894089407,35.26152615261526],[-84.011401140114,35.372037203720375],[-83.88138813881388,35.491049104910495],[-83.67336733673366,35.516551655165514],[-83.43934393439343,35.55905590559056],[-83.2053205320532,35.652565256525655],[-83.11431143114311,35.737573757375735],[-82.91929192919291,35.814081408140815],[-82.91929192919291,35.89058905890589],[-82.67226722672267,36.02660266026603],[-82.59425942594258,35.933093309330935],[-82.23022302230223,36.12861286128613],[-82.04820482048204,36.1031103110311],[-81.89218921892189,36.273127312731276],[-81.69716971697169,36.315631563156316],[-81.7101710171017,36.46014601460146],[-81.68416841684167,36.58765876587659],[-79.99399939993998,36.54515451545154],[-78.00480048004799,36.536653665366536],[-76.93869386938692,36.54515451545154],[-75.98959895989599,36.55365536553656],[-75.87258725872586,36.55365536553656],[-75.83358335833583,36.315631563156316],[-75.72957295729572,35.55055505550555],[-76.09360936093609,35.11701170117012],[-76.36663666366636,34.810981098109814],[-77.39373937393738,34.51345134513451],[-78.05680568056805,33.926892689268925],[-78.55085508550854,33.85888588858886],[-79.66896689668965,34.810981098109814],[-80.78707870787078,34.81948194819482],[-80.78707870787078,34.929992999299934],[-80.94309430943093,35.1000100010001],[-81.03410341034103,35.04050405040504],[-81.04710471047103,35.12551255125513],[-81.5151515151515,35.16801680168017],[-82.43824382438243,35.176517651765174],[-82.97129712971297,35.00650065006501],[-83.07530753075307,34.98099809980998],[-84.32343234323432,34.98949894989499]]]}},{"type":"Feature","id":"OH","properties":{"ct":[-82.79,40.28],"gu":"USA","id":"OH","postal":"OH","name":"Ohio"},"geometry":{"type":"Polygon","coordinates":[[[-84.81748174817481,39.10391039103911],[-84.81748174817481,39.8009800980098],[-84.8044804480448,40.77007700770077],[-84.8044804480448,41.67966796679668],[-84.29742974297429,41.68816881688169],[-83.84238423842383,41.68816881688169],[-83.46534653465346,41.6966696669667],[-82.84128412841284,41.484148414841485],[-82.34723472347234,41.43314331433143],[-81.61916191619162,41.56915691569157],[-81.03410341034103,41.84968496849685],[-80.5140514051405,41.97719771977198],[-80.5140514051405,40.64256425642564],[-80.65706570657065,40.59155915591559],[-80.6180618061806,40.46404640464046],[-80.65706570657065,40.234523452345236],[-80.76107610761075,39.97099709970997],[-80.86508650865086,39.75847584758476],[-80.87808780878088,39.656465646564655],[-81.15111511151115,39.42694269426943],[-81.26812681268126,39.375937593759375],[-81.39813981398139,39.35043504350435],[-81.52815281528152,39.36743674367437],[-81.74917491749174,39.1974197419742],[-81.78817881788179,39.01890189018902],[-81.8141814181418,38.92539253925393],[-81.9051905190519,38.88288828882888],[-81.91819181918191,38.993399339933994],[-82.04820482048204,39.01890189018902],[-82.19121912191218,38.7978797879788],[-82.2042204220422,38.57685768576858],[-82.34723472347234,38.44084408440844],[-82.59425942594258,38.41534153415341],[-82.77627762776277,38.508850885088506],[-82.85428542854285,38.65336533653365],[-83.04930493049304,38.63636363636364],[-83.25732573257325,38.57685768576858],[-83.43934393439343,38.63636363636364],[-83.67336733673366,38.61086108610861],[-83.82938293829382,38.68736873687369],[-84.03740374037403,38.76387638763877],[-84.3104310431043,38.98489848984899],[-84.47944794479447,39.08690869086909],[-84.81748174817481,39.10391039103911]]]}},{"type":"Feature","id":"TN","properties":{"ct":[-86.32,35.84],"gu":"USA","id":"TN","postal":"TN","name":"Tennessee"},"geometry":{"type":"Polygon","coordinates":[[[-90.13501350135013,35.11701170117012],[-90.14801480148014,35.40604060406041],[-89.99199919991999,35.533553355335535],[-89.95299529952995,35.7035703570357],[-89.77097709770976,35.797079707970795],[-89.67996799679968,35.94159415941594],[-89.66696669666966,36.02660266026603],[-89.58895889588958,36.26462646264626],[-89.52395239523952,36.40914091409141],[-89.49794979497949,36.5026502650265],[-88.06780678067805,36.494149414941496],[-88.06780678067805,36.65566556655666],[-87.87278727872787,36.65566556655666],[-87.84678467846784,36.61316131613162],[-87.22272227222722,36.638663866386636],[-86.67666766676666,36.63016301630163],[-86.09160916091608,36.62166216621662],[-85.51955195519551,36.5961596159616],[-85.23352335233523,36.61316131613162],[-84.34943494349434,36.57065706570657],[-83.67336733673366,36.5961596159616],[-82.19121912191218,36.56215621562156],[-82.07420742074207,36.57065706570657],[-81.68416841684167,36.58765876587659],[-81.7101710171017,36.46014601460146],[-81.69716971697169,36.315631563156316],[-81.89218921892189,36.273127312731276],[-82.04820482048204,36.1031103110311],[-82.23022302230223,36.12861286128613],[-82.59425942594258,35.933093309330935],[-82.67226722672267,36.02660266026603],[-82.91929192919291,35.89058905890589],[-82.91929192919291,35.814081408140815],[-83.11431143114311,35.737573757375735],[-83.2053205320532,35.652565256525655],[-83.43934393439343,35.55905590559056],[-83.67336733673366,35.516551655165514],[-83.88138813881388,35.491049104910495],[-84.011401140114,35.372037203720375],[-84.08940894089407,35.26152615261526],[-84.29742974297429,35.2020202020202],[-84.32343234323432,34.98949894989499],[-84.85648564856484,34.98099809980998],[-85.62356235623561,34.98949894989499],[-86.9106910691069,34.99799979998],[-88.17181718171817,34.99799979998],[-89.26392639263925,35.02350235023503],[-90.25202520252024,35.02350235023503],[-90.13501350135013,35.11701170117012]]]}},{"type":"Feature","id":"VA","properties":{"ct":[-78.86,37.5],"gu":"USA","id":"VA","postal":"VA","name":"Virginia"},"geometry":{"type":"MultiPolygon","coordinates":[[[[-83.33533353335332,36.67266726672668],[-83.17931793179316,36.71517151715172],[-83.1013101310131,36.80868086808681],[-83.08830883088308,36.81718171817182],[-83.07530753075307,36.82568256825682],[-82.81528152815281,36.93619361936194],[-82.71127112711271,37.03820382038204],[-82.68526852685268,37.123212321232124],[-82.37323732373237,37.242224222422244],[-82.07420742074207,37.463246324632465],[-81.97019701970196,37.53975397539754],[-81.93119311931193,37.36973697369737],[-81.84018401840183,37.29322932293229],[-81.8141814181418,37.27622762276228],[-81.65816581658164,37.19121912191219],[-81.43714371437143,37.284728472847284],[-81.34613461346133,37.31873187318732],[-81.22912291229122,37.242224222422244],[-80.9170917091709,37.31873187318732],[-80.85208520852085,37.32723272327233],[-80.83908390839083,37.386738673867384],[-80.83908390839083,37.420742074207425],[-80.72207220722072,37.386738673867384],[-80.60506050605059,37.45474547454746],[-80.59205920592058,37.45474547454746],[-80.46204620462045,37.43774377437744],[-80.29302930293028,37.522752275227525],[-80.28002800280026,37.57375737573757],[-80.28002800280026,37.60776077607761],[-80.29302930293028,37.726772677267725],[-80.16301630163015,37.905290529052905],[-79.96799679967997,38.03280328032803],[-79.91599159915991,38.17731773177318],[-79.82498249824981,38.27932793279328],[-79.74697469746974,38.35583558355836],[-79.64296429642964,38.57685768576858],[-79.5129512951295,38.5003500350035],[-79.36993699369935,38.42384238423843],[-79.22692269226921,38.466346634663466],[-79.17491749174917,38.55985598559856],[-79.07090709070906,38.67886788678868],[-79.005900590059,38.772377237723774],[-78.96689668966896,38.82338233823383],[-78.88888888888889,38.78087808780878],[-78.74587458745874,38.90839083908391],[-78.62886288628862,38.98489848984899],[-78.55085508550854,39.035903590359034],[-78.5118511851185,39.06990699069907],[-78.42084208420842,39.13791379137914],[-78.35583558355835,39.35043504350435],[-78.34283428342833,39.4014401440144],[-77.87478747874786,39.154915491549154],[-77.83578357835783,39.13791379137914],[-77.7187718771877,39.32493249324933],[-77.69276927692768,39.316431643164314],[-77.57575757575756,39.290929092909295],[-77.44574457445744,39.214421442144214],[-77.49774977497749,39.12941294129413],[-77.5107510751075,39.10391039103911],[-77.3027302730273,39.04440444044405],[-77.12071207120711,38.933893389338934],[-77.04270427042704,38.84888488848885],[-77.04270427042704,38.78937893789379],[-77.05570557055705,38.70437043704371],[-77.09470947094708,38.68736873687369],[-77.22472247224722,38.61086108610861],[-77.34173417341734,38.38983898389839],[-77.21172117211721,38.33883388338834],[-77.04270427042704,38.38133813381338],[-77.003700370037,38.27082708270827],[-76.99069906990698,38.23682368236824],[-76.3146314631463,37.922292229222926],[-76.3016301630163,37.91379137913791],[-76.26262626262626,36.97019701970197],[-75.97659765976597,36.8936893689369],[-75.87258725872586,36.55365536553656],[-75.98959895989599,36.55365536553656],[-76.93869386938692,36.54515451545154],[-78.00480048004799,36.536653665366536],[-79.99399939993998,36.54515451545154],[-81.68416841684167,36.58765876587659],[-82.07420742074207,36.57065706570657],[-82.19121912191218,36.56215621562156],[-83.67336733673366,36.5961596159616],[-83.38733873387338,36.65566556655666],[-83.33533353335332,36.67266726672668]]],[[[-75.7165716571657,37.93929392939294],[-75.6125612561256,37.998799879988],[-75.37853785378537,38.01580158015802],[-75.93759375937593,37.21672167216722],[-76.02860286028601,37.25922592259226],[-75.7165716571657,37.93929392939294]]]]}},{"type":"Feature","id":"WI","properties":{"ct":[-90,44.65],"gu":"USA","id":"WI","postal":"WI","name":"Wisconsin"},"geometry":{"type":"Polygon","coordinates":[[[-91.22712271227122,43.4988498849885],[-91.25312531253124,43.61786178617862],[-91.25312531253124,43.855885588558856],[-91.29212921292128,43.94089408940894],[-91.63016301630162,44.08540854085409],[-91.87718771877186,44.255425542554256],[-91.95519551955195,44.36593659365937],[-92.05920592059205,44.43394339433944],[-92.38423842384238,44.57845784578458],[-92.50125012501249,44.58695869586959],[-92.80028002800279,44.77397739773978],[-92.76127612761276,44.99499949995],[-92.76127612761276,45.267026702670265],[-92.68326832683267,45.522052205220525],[-92.9042904290429,45.70907090709071],[-92.76127612761276,45.887588758875886],[-92.54025402540253,45.98959895989599],[-92.29322932293229,46.1001100110011],[-92.26722672267226,46.09160916091609],[-92.28022802280228,46.652665266526654],[-92.00720072007199,46.712171217121714],[-91.006100610061,46.916191619161914],[-90.4080408040804,46.58465846584659],[-90.39503950395039,46.57615761576157],[-90.33003300330033,46.593159315931594],[-90.17401740174017,46.55915591559156],[-90.09600960096009,46.38063806380638],[-89.22492249224922,46.2021202120212],[-88.63986398639864,46.023602360236026],[-88.36683668366835,46.023602360236026],[-88.17181718171817,46.006600660066006],[-88.1068106810681,45.845084508450846],[-87.87278727872787,45.77707770777078],[-87.78177817781777,45.64106410641064],[-87.84678467846784,45.55605560556056],[-87.89878987898788,45.3945394539454],[-87.67776777677767,45.386038603860385],[-87.74277427742773,45.224522452245225],[-87.6127612761276,45.105510551055104],[-87.6127612761276,45.11401140114012],[-87.58675867586759,45.105510551055104],[-87.59975997599759,45.0970097009701],[-87.98979897989798,44.73147314731473],[-87.84678467846784,44.61246124612461],[-87.11871187118712,45.25852585258526],[-86.96269626962696,45.267026702670265],[-87.48274827482747,44.4934493449345],[-87.71677167716771,43.796379637963796],[-87.89878987898788,43.22682268226823],[-87.78177817781777,42.74227422742274],[-87.8077807780778,42.49574957495749],[-88.57485748574857,42.50425042504251],[-89.6149614961496,42.50425042504251],[-90.64206420642063,42.50425042504251],[-90.73307330733073,42.65726572657266],[-91.07110711071107,42.750775077507754],[-91.12311231123111,42.912291229122914],[-91.17511751175117,43.00580058005801],[-91.17511751175117,43.20982098209821],[-91.08410841084108,43.28632863286329],[-91.21412141214121,43.44784478447845],[-91.22712271227122,43.4988498849885]]]}},{"type":"Feature","id":"WV","properties":{"ct":[-80.61,38.64],"gu":"USA","id":"WV","postal":"WV","name":"West Virginia"},"geometry":{"type":"Polygon","coordinates":[[[-81.97019701970196,37.53975397539754],[-82.16521652165216,37.55675567556756],[-82.26922692269225,37.67576757675768],[-82.4122412241224,37.803280328032805],[-82.46424642464245,37.95629562956296],[-82.58125812581257,38.10931093109311],[-82.56825682568255,38.32183218321832],[-82.59425942594258,38.41534153415341],[-82.34723472347234,38.44084408440844],[-82.2042204220422,38.57685768576858],[-82.19121912191218,38.7978797879788],[-82.04820482048204,39.01890189018902],[-81.91819181918191,38.993399339933994],[-81.9051905190519,38.88288828882888],[-81.8141814181418,38.92539253925393],[-81.78817881788179,39.01890189018902],[-81.74917491749174,39.1974197419742],[-81.52815281528152,39.36743674367437],[-81.39813981398139,39.35043504350435],[-81.26812681268126,39.375937593759375],[-81.15111511151115,39.42694269426943],[-80.87808780878088,39.656465646564655],[-80.86508650865086,39.75847584758476],[-80.76107610761075,39.97099709970997],[-80.65706570657065,40.234523452345236],[-80.6180618061806,40.46404640464046],[-80.65706570657065,40.59155915591559],[-80.5140514051405,40.64256425642564],[-80.5140514051405,39.72447244724472],[-79.47394739473947,39.72447244724472],[-79.48694869486948,39.214421442144214],[-79.33093309330933,39.2994299429943],[-79.16191619161916,39.41844184418442],[-78.96689668966896,39.46094609460946],[-78.82388238823881,39.56295629562956],[-78.53785378537853,39.52045204520452],[-78.42084208420842,39.596959695969595],[-78.23882388238823,39.673467346734675],[-77.92679267926792,39.596959695969595],[-77.79677967796779,39.452445244524455],[-77.7187718771877,39.32493249324933],[-77.83578357835783,39.13791379137914],[-77.87478747874786,39.154915491549154],[-78.34283428342833,39.4014401440144],[-78.35583558355835,39.35043504350435],[-78.42084208420842,39.13791379137914],[-78.5118511851185,39.06990699069907],[-78.55085508550854,39.035903590359034],[-78.62886288628862,38.98489848984899],[-78.74587458745874,38.90839083908391],[-78.88888888888889,38.78087808780878],[-78.96689668966896,38.82338233823383],[-79.005900590059,38.772377237723774],[-79.07090709070906,38.67886788678868],[-79.17491749174917,38.55985598559856],[-79.22692269226921,38.466346634663466],[-79.36993699369935,38.42384238423843],[-79.5129512951295,38.5003500350035],[-79.64296429642964,38.57685768576858],[-79.74697469746974,38.35583558355836],[-79.82498249824981,38.27932793279328],[-79.91599159915991,38.17731773177318],[-79.96799679967997,38.03280328032803],[-80.16301630163015,37.905290529052905],[-80.29302930293028,37.726772677267725],[-80.28002800280026,37.60776077607761],[-80.28002800280026,37.57375737573757],[-80.29302930293028,37.522752275227525],[-80.46204620462045,37.43774377437744],[-80.59205920592058,37.45474547454746],[-80.60506050605059,37.45474547454746],[-80.72207220722072,37.386738673867384],[-80.83908390839083,37.420742074207425],[-80.83908390839083,37.386738673867384],[-80.85208520852085,37.32723272327233],[-80.9170917091709,37.31873187318732],[-81.22912291229122,37.242224222422244],[-81.34613461346133,37.31873187318732],[-81.43714371437143,37.284728472847284],[-81.65816581658164,37.19121912191219],[-81.8141814181418,37.27622762276228],[-81.84018401840183,37.29322932293229],[-81.93119311931193,37.36973697369737],[-81.97019701970196,37.53975397539754]]]}},{"type":"Feature","id":"DE","properties":{"ct":[-75.5,38.99],"gu":"USA","id":"DE","postal":"DE","name":"Delaware"},"geometry":{"type":"Polygon","coordinates":[[[-75.05350535053505,38.44934493449345],[-75.7165716571657,38.44934493449345],[-75.78157815781577,39.72447244724472],[-75.7165716571657,39.8009800980098],[-75.62556255625562,39.84348434843484],[-75.40454045404539,39.792479247924796],[-75.56055605560555,39.69046904690469],[-75.52155215521552,39.494949494949495],[-75.3135313531353,38.95939593959396],[-75.06650665066506,38.78087808780878],[-75.05350535053505,38.44934493449345]]]}},{"type":"Feature","id":"DC","properties":{"ct":[-77.02,38.9],"gu":"USA","id":"DC","postal":"DC","name":"District of Columbia"},"geometry":{"type":"Polygon","coordinates":[[[-77.04270427042704,38.78937893789379],[-77.04270427042704,38.84888488848885],[-77.12071207120711,38.933893389338934],[-77.04270427042704,38.98489848984899],[-76.91269126912691,38.874387438743874],[-77.04270427042704,38.78937893789379]]]}},{"type":"Feature","id":"MD","properties":{"ct":[-76.77,39.03],"gu":"USA","id":"MD","postal":"MD","name":"Maryland"},"geometry":{"type":"Polygon","coordinates":[[[-75.37853785378537,38.01580158015802],[-75.6125612561256,37.998799879988],[-75.7165716571657,37.93929392939294],[-76.23662366236623,38.32183218321832],[-76.35363536353634,39.14641464146415],[-76.54865486548654,38.72137213721372],[-76.32763276327631,38.083808380838086],[-76.99069906990698,38.23682368236824],[-77.003700370037,38.27082708270827],[-77.04270427042704,38.38133813381338],[-77.21172117211721,38.33883388338834],[-77.34173417341734,38.38983898389839],[-77.22472247224722,38.61086108610861],[-77.09470947094708,38.68736873687369],[-77.05570557055705,38.70437043704371],[-77.04270427042704,38.78937893789379],[-76.91269126912691,38.874387438743874],[-77.04270427042704,38.98489848984899],[-77.12071207120711,38.933893389338934],[-77.3027302730273,39.04440444044405],[-77.5107510751075,39.10391039103911],[-77.49774977497749,39.12941294129413],[-77.44574457445744,39.214421442144214],[-77.57575757575756,39.290929092909295],[-77.69276927692768,39.316431643164314],[-77.7187718771877,39.32493249324933],[-77.79677967796779,39.452445244524455],[-77.92679267926792,39.596959695969595],[-78.23882388238823,39.673467346734675],[-78.42084208420842,39.596959695969595],[-78.53785378537853,39.52045204520452],[-78.82388238823881,39.56295629562956],[-78.96689668966896,39.46094609460946],[-79.16191619161916,39.41844184418442],[-79.33093309330933,39.2994299429943],[-79.48694869486948,39.214421442144214],[-79.47394739473947,39.72447244724472],[-78.55085508550854,39.715971597159715],[-78.23882388238823,39.72447244724472],[-77.52375237523752,39.72447244724472],[-76.66566656665665,39.72447244724472],[-75.78157815781577,39.72447244724472],[-75.7165716571657,38.44934493449345],[-75.05350535053505,38.44934493449345],[-75.05350535053505,38.406840684068406],[-75.37853785378537,38.01580158015802]]]}},{"type":"Feature","id":"NJ","properties":{"ct":[-74.67,40.21],"gu":"USA","id":"NJ","postal":"NJ","name":"New Jersey"},"geometry":{"type":"Polygon","coordinates":[[[-75.52155215521552,39.494949494949495],[-75.56055605560555,39.69046904690469],[-75.40454045404539,39.792479247924796],[-75.19651965196519,39.88598859885989],[-75.13151315131512,39.94549454945495],[-74.89748974897489,40.08150815081508],[-74.76747674767476,40.192019201920196],[-75.07950795079508,40.44704470447045],[-75.09250925092509,40.55755575557556],[-75.2095209520952,40.58305830583058],[-75.19651965196519,40.744574457445744],[-75.07950795079508,40.87208720872087],[-75.13151315131512,40.999599959996],[-74.97549754975496,41.084608460846084],[-74.80648064806479,41.31413141314132],[-74.67646764676466,41.35663566356636],[-73.9093909390939,40.95709570957096],[-73.94839483948394,40.75307530753076],[-74.26042604260425,40.47254725472548],[-73.96139613961395,40.43004300430043],[-74.18241824182417,39.70747074707471],[-74.32543254325432,39.554455445544555],[-74.9104910491049,38.94239423942394],[-74.97549754975496,39.1974197419742],[-75.02750275027502,39.20592059205921],[-75.19651965196519,39.24842484248425],[-75.35253525352535,39.36743674367437],[-75.52155215521552,39.494949494949495]]]}},{"type":"Feature","id":"NY","properties":{"ct":[-75.5,42.93],"gu":"USA","id":"NY","postal":"NY","name":"New York"},"geometry":{"type":"Polygon","coordinates":[[[-73.49334933493348,42.05370537053705],[-73.55835583558355,41.28862886288629],[-73.48034803480347,41.203620362036204],[-73.68836883688368,41.11011101110111],[-73.66236623662365,40.982598259825984],[-73.64936493649364,40.95709570957096],[-73.71437143714371,40.93159315931593],[-72.24522452245223,41.11861186118612],[-71.94619461946193,40.93159315931593],[-72.93429342934293,40.71907190719072],[-73.35033503350334,40.63406340634064],[-73.98739873987398,40.62556255625562],[-73.94839483948394,40.75307530753076],[-73.9093909390939,40.95709570957096],[-74.67646764676466,41.35663566356636],[-74.84548454845483,41.424642464246425],[-75.014501450145,41.49264926492649],[-75.07950795079508,41.63716371637164],[-75.05350535053505,41.747674767476745],[-75.17051705170516,41.84118411841184],[-75.39153915391539,42.002700270027006],[-76.74367436743674,42.002700270027006],[-78.19981998199819,42.002700270027006],[-79.75997599759975,42.002700270027006],[-79.75997599759975,42.27472747274727],[-78.9018901890189,42.86978697869787],[-78.9148914891489,42.96329632963296],[-79.005900590059,43.26932693269327],[-78.53785378537853,43.37983798379838],[-77.74477447744773,43.34583458345835],[-76.92569256925691,43.26082608260826],[-76.18461846184617,43.592359235923595],[-76.23662366236623,43.98339833983398],[-76.34063406340633,44.11941194119412],[-75.3135313531353,44.81648164816482],[-74.87148714871486,45.003500350035004],[-73.35033503350334,45.003500350035004],[-73.36333633363336,44.80798079807981],[-73.4023402340234,44.67196719671967],[-73.38933893389338,44.38293829382938],[-73.32433243324331,44.22992299229923],[-73.42834283428341,44.017401740174016],[-73.33733373337333,43.76237623762376],[-73.4023402340234,43.60936093609361],[-73.38933893389338,43.575357535753575],[-73.23332333233323,43.56685668566857],[-73.28532853285327,42.74227422742274],[-73.49334933493348,42.05370537053705]]]}},{"type":"Feature","id":"PA","properties":{"ct":[-77.81,40.87],"gu":"USA","id":"PA","postal":"PA","name":"Pennsylvania"},"geometry":{"type":"Polygon","coordinates":[[[-80.5140514051405,41.97719771977198],[-79.75997599759975,42.266226622662266],[-79.75997599759975,42.002700270027006],[-78.19981998199819,42.002700270027006],[-76.74367436743674,42.002700270027006],[-75.39153915391539,42.002700270027006],[-75.17051705170516,41.84118411841184],[-75.05350535053505,41.747674767476745],[-75.07950795079508,41.63716371637164],[-75.014501450145,41.49264926492649],[-74.84548454845483,41.424642464246425],[-74.67646764676466,41.35663566356636],[-74.80648064806479,41.31413141314132],[-74.97549754975496,41.084608460846084],[-75.13151315131512,40.999599959996],[-75.07950795079508,40.87208720872087],[-75.19651965196519,40.744574457445744],[-75.2095209520952,40.58305830583058],[-75.09250925092509,40.55755575557556],[-75.07950795079508,40.44704470447045],[-74.76747674767476,40.192019201920196],[-74.89748974897489,40.08150815081508],[-75.13151315131512,39.94549454945495],[-75.19651965196519,39.88598859885989],[-75.40454045404539,39.792479247924796],[-75.62556255625562,39.84348434843484],[-75.7165716571657,39.8009800980098],[-75.78157815781577,39.72447244724472],[-76.66566656665665,39.72447244724472],[-77.52375237523752,39.72447244724472],[-78.23882388238823,39.72447244724472],[-78.55085508550854,39.715971597159715],[-79.47394739473947,39.72447244724472],[-80.5140514051405,39.72447244724472],[-80.5140514051405,40.64256425642564],[-80.5140514051405,41.97719771977198]]]}},{"type":"Feature","id":"ME","properties":{"ct":[-69.22,45.34],"gu":"USA","id":"ME","postal":"ME","name":"Maine"},"geometry":{"type":"Polygon","coordinates":[[[-70.64606460646064,43.090809080908095],[-70.75007500750074,43.08230823082308],[-70.8020802080208,43.21832183218322],[-70.98409840984097,43.371337133713375],[-70.94509450945094,43.46484648464847],[-71.08810881088108,45.301030103010305],[-70.65906590659066,45.462546254625465],[-70.49004900490048,45.683568356835686],[-70.3080308030803,45.91309130913091],[-70.19101910191019,46.21062106210621],[-69.99599959995999,46.695169516951694],[-69.48894889488948,47.196719671967195],[-69.24192419241923,47.451745174517455],[-68.98189818981898,47.24772477247725],[-68.90389038903889,47.18821882188219],[-68.22782278227822,47.35823582358236],[-67.78577857785777,47.06920692069207],[-67.78577857785777,46.25312531253125],[-67.78577857785777,45.7005700570057],[-67.13571357135713,45.13951395139514],[-66.96669666966696,44.80798079807981],[-68.03280328032803,44.32343234323432],[-69.05990599059905,43.98339833983398],[-70.1130113011301,43.68586858685869],[-70.64606460646064,43.090809080908095]]]}},{"type":"Feature","id":"MI","properties":{"ct":[-84.61,43.48],"gu":"USA","id":"MI","postal":"MI","name":"Michigan"},"geometry":{"type":"MultiPolygon","coordinates":[[[[-84.29742974297429,41.68816881688169],[-84.8044804480448,41.67966796679668],[-84.8044804480448,41.75617561756176],[-85.75357535753575,41.747674767476745],[-86.81968196819682,41.75617561756176],[-86.62466246624662,41.89218921892189],[-86.2216221622162,42.38523852385239],[-86.18261826182618,43.03980398039804],[-86.52065206520652,43.66036603660366],[-86.46864686468646,44.08540854085409],[-86.2086208620862,44.57845784578458],[-85.96159615961595,44.90999099909991],[-85.55855585558555,45.14801480148015],[-85.46754675467545,44.81648164816482],[-85.28552855285528,45.30953095309531],[-85.06450645064506,45.41154115411541],[-84.93449344934493,45.79407940794079],[-84.07640764076407,45.59005900590059],[-83.33533353335332,45.1990199019902],[-83.25732573257325,44.74847484748475],[-83.34833483348334,44.28942894289429],[-83.89438943894389,43.88988898889889],[-83.84238423842383,43.634863486348635],[-83.64736473647363,43.62636263626363],[-83.03630363036302,44.06840684068407],[-82.65926592659265,43.96639663966397],[-82.47724772477247,43.38833883388339],[-82.42524252425241,42.98029802980298],[-82.6072607260726,42.776277627762774],[-82.9062906290629,42.42774277427743],[-83.02330233023301,42.24072407240724],[-83.11431143114311,42.07920792079208],[-83.46534653465346,41.6966696669667],[-83.84238423842383,41.68816881688169],[-84.29742974297429,41.68816881688169]]],[[[-87.6127612761276,45.105510551055104],[-87.74277427742773,45.224522452245225],[-87.67776777677767,45.386038603860385],[-87.89878987898788,45.3945394539454],[-87.84678467846784,45.55605560556056],[-87.78177817781777,45.64106410641064],[-87.87278727872787,45.77707770777078],[-88.1068106810681,45.845084508450846],[-88.17181718171817,46.006600660066006],[-88.36683668366835,46.023602360236026],[-88.63986398639864,46.023602360236026],[-89.22492249224922,46.2021202120212],[-90.09600960096009,46.38063806380638],[-90.17401740174017,46.55915591559156],[-90.33003300330033,46.593159315931594],[-90.39503950395039,46.57615761576157],[-89.62796279627962,46.831183118311834],[-88.82188218821881,47.154215421542155],[-87.93779377937793,47.48574857485749],[-88.26282628262825,46.95869586958696],[-87.69076907690769,46.831183118311834],[-86.98869886988697,46.44864486448645],[-86.1046104610461,46.66966696669667],[-85.11651165116511,46.76317631763176],[-84.9084908490849,46.48264826482648],[-84.6094609460946,46.44014401440144],[-84.33643364336433,46.40614061406141],[-83.84238423842383,46.006600660066006],[-84.72647264726471,45.92159215921592],[-84.75247524752474,45.92159215921592],[-85.54555455545554,46.03210321032103],[-86.32563256325632,45.828082808280826],[-87.00170017001699,45.743074307430746],[-87.58675867586759,45.105510551055104],[-87.6127612761276,45.11401140114012],[-87.6127612761276,45.105510551055104]]]]}},{"type":"Feature","id":"AK","properties":{"ct":[-152.72,64.44],"gu":"USA","id":"AK","postal":"AK","name":"Alaska"},"geometry":{"type":"MultiPolygon","coordinates":[[[[-153.23032303230323,57.96729672967297],[-152.56725672567256,57.8992899289929],[-152.13821382138212,57.59325932593259],[-153.00930093009302,57.11721172117212],[-154.010401040104,56.73467346734674],[-154.51745174517453,56.98969896989699],[-154.67346734673467,57.45724572457246],[-153.76337633763376,57.81428142814281],[-153.23032303230323,57.96729672967297]]],[[[-166.46564656465645,60.381538153815384],[-165.67256725672567,60.2965296529653],[-165.58155815581557,59.91399139913992],[-166.19261926192618,59.75247524752476],[-166.84268426842684,59.939493949394944],[-167.45374537453745,60.21152115211521],[-166.46564656465645,60.381538153815384]]],[[[-171.73117311731173,63.78187818781878],[-171.12011201120112,63.5948594859486],[-170.4960496049605,63.6968696869687],[-169.67696769676968,63.433343334333436],[-168.68886888688868,63.297329732973296],[-168.76687668766877,63.18681868186819],[-169.53395339533952,62.974297429742975],[-170.2880288028803,63.195319531953196],[-170.66506650665067,63.373837383738376],[-171.54915491549156,63.314331433143316],[-171.7961796179618,63.40784078407841],[-171.73117311731173,63.78187818781878]]],[[[-134.07940794079408,58.12031203120312],[-135.04150415041505,58.18831883188319],[-136.62766276627661,58.213821382138214],[-137.79777977797778,58.5028502850285],[-139.86498649864987,59.53995399539954],[-140.82708270827084,59.72697269726973],[-142.56925692569257,60.084008400840084],[-143.96039603960395,59.99899989999],[-145.92359235923593,60.45804580458046],[-147.11971197119712,60.883088308830885],[-148.22482248224821,60.67056705670567],[-148.01680168016802,59.981998199819984],[-148.57585758575857,59.91399139913992],[-149.73297329732972,59.7014701470147],[-150.60406040604062,59.36993699369937],[-151.72217221722173,59.157415741574155],[-151.86518651865185,59.74397439743974],[-151.4101410141014,60.721572157215725],[-150.34403440344033,61.03610361036104],[-150.6170617061706,61.282628262826286],[-151.89118911891188,60.73007300730073],[-152.58025802580258,60.05850585058506],[-154.02340234023401,59.352935293529356],[-153.2823282328233,58.86838683868387],[-154.2314231423142,58.14581458145815],[-155.3105310531053,57.72927292729273],[-156.31163116311632,57.423242324232426],[-156.55865586558656,56.981198119811985],[-158.11881188118812,56.462646264626464],[-158.43084308430844,55.995099509951],[-159.6009600960096,55.57005700570057],[-160.2900290029003,55.64656465646565],[-161.22612261226124,55.36603660366037],[-162.24022402240223,55.02600260026003],[-163.07230723072308,54.68596859685969],[-164.7884788478848,54.40544054405441],[-164.94449444944493,54.575457545754574],[-163.85238523852385,55.04300430043004],[-162.86428642864286,55.34903490349035],[-161.7981798179818,55.8930893089309],[-160.56305630563057,56.01210121012101],[-160.06900690069006,56.420142014201424],[-158.6908690869087,57.01520152015202],[-158.45684568456846,57.21922192219222],[-157.72877287728772,57.567756775677566],[-157.54675467546755,58.32433243324333],[-157.03970397039703,58.91939193919392],[-158.19681968196818,58.613361336133615],[-158.5218521852185,58.791879187918795],[-159.05490549054906,58.42634263426343],[-159.7179717971797,58.92789278927893],[-159.97799779977998,58.570857085708575],[-160.35503550355037,59.072407240724075],[-161.35613561356135,58.672867286728675],[-161.96719671967196,58.672867286728675],[-162.05820582058206,59.26792679267927],[-161.8761876187619,59.633463346334636],[-162.5132513251325,59.99049904990499],[-163.8133813381338,59.7949794979498],[-164.65846584658465,60.27102710271027],[-165.34753475347534,60.50905090509051],[-165.34753475347534,61.07010701070107],[-166.1276127612761,61.503650365036506],[-165.73757375737574,62.073207320732074],[-164.91849184918493,62.634263426342635],[-164.56745674567458,63.14431443144314],[-163.74837483748374,63.22082208220822],[-163.07230723072308,63.05930593059306],[-162.26622662266226,63.54385438543854],[-161.53815381538155,63.45884588458846],[-160.77107710771077,63.76487648764876],[-160.95309530953097,64.22392239223923],[-161.51215121512152,64.4024402440244],[-160.78407840784078,64.78497849784979],[-161.3951395139514,64.77647764776478],[-162.44824482448246,64.55545554555455],[-162.76027602760277,64.33443344334434],[-163.54035403540354,64.55545554555455],[-164.95749574957495,64.44494449444944],[-166.42664266426644,64.68296829682969],[-166.84268426842684,65.09100910091009],[-168.11681168116812,65.66906690669067],[-166.6996699669967,66.08560856085609],[-164.47644764476448,66.57865786578658],[-163.65736573657367,66.57865786578658],[-163.78737873787378,66.07710771077107],[-161.68116811681168,66.11961196119611],[-162.48724872487247,66.73167316731673],[-163.7223722372237,67.11421142114212],[-164.43744374437443,67.61576157615762],[-165.3865386538654,68.04080408040804],[-166.76467646764675,68.35533553355336],[-166.2056205620562,68.88238823882388],[-164.42444244424442,68.91639163916392],[-163.16331633163315,69.36693669366937],[-162.92929292929293,69.85998599859987],[-161.9151915191519,70.33603360336033],[-160.94009400940092,70.44654465446544],[-159.04190419041905,70.8885888588859],[-158.11881188118812,70.82058205820582],[-156.5846584658466,71.35613561356136],[-155.06350635063507,71.14361436143615],[-154.34843484348434,70.6930693069307],[-153.90639063906391,70.8885888588859],[-152.2162216221622,70.82908290829083],[-152.26822682268227,70.5995599559956],[-150.73407340734073,70.42954295429543],[-149.7199719971997,70.53155315531554],[-147.6137613761376,70.21702170217021],[-145.6895689568957,70.12351235123512],[-144.92249224922492,69.98749874987499],[-143.58335833583357,70.14901490149015],[-142.0752075207521,69.85148514851485],[-140.98309830983098,69.71547154715472],[-140.996099609961,66.00060006000601],[-140.996099609961,60.305030503050304],[-140.00800080008,60.27952795279528],[-139.03290329032905,59.99899989999],[-138.43484348434845,59.62496249624962],[-138.34383438343835,59.56545654565457],[-138.33083308330833,59.556955695569556],[-137.44674467446745,58.9023902390239],[-136.4846484648465,59.46344634463446],[-135.47054705470546,59.78647864786479],[-134.95049504950495,59.26792679267927],[-134.54745474547454,59.02990299029903],[-134.27442744274427,58.85988598859886],[-133.35133513351334,58.40934093409341],[-132.84428442844285,57.81428142814281],[-132.72727272727272,57.6952695269527],[-131.7131713171317,56.55615561556156],[-130.0100010001,55.918591859185916],[-129.98399839983998,55.28102810281028],[-130.53005300530052,54.80498049804981],[-131.08910891089107,55.17901790179018],[-131.97319731973198,55.493549354935496],[-132.24622462246225,56.36913691369137],[-133.53335333533352,57.17671767176718],[-134.07940794079408,58.12031203120312]]]]}}]}